address	city	county	dateAvailable	facilityType	hours	inQZ	instructions	lat	lng	name	phone	state	url	virtualVisit	zip	zipCodeLat	zipCodeLng
2920 Telegraph Ave, Berkeley, Ca 94705	Berkeley	Alameda	-	Clinic	9 Am - 7 Pm	Yes	If The Provider Believes The Covid-19 Test Is Appropriate For You After Your Free Virtual Screening Using The Coronavirus Assessment Tool, We Will Perform A Physical Evaluation, Conduct The Collection Onsite, And Send The Specimen To Either Quest Or Labcorp Depending On Your Insurance.	-	-	Carbon Health	(510) 686-3621	California	Https://Www.Businessinsider.Com/Carbon-Health-San-Francisco-Coronavirus-Testing-Bay-Area-2020-3	Yes	94705	37.86	-122.26
411 Grand Ave, Oakland, Ca 94610	Oakland	Alameda	-	Clinic	8 Am - 6 Pm	Yes	If The Provider Believes The Covid-19 Test Is Appropriate For You After Your Free Virtual Screening Using The Coronavirus Assessment Tool, We Will Perform A Physical Evaluation, Conduct The Collection Onsite, And Send The Specimen To Either Quest Or Labcorp Depending On Your Insurance.	-	-	Carbon Health	(510) 844-4097	California	Https://Www.Businessinsider.Com/Carbon-Health-San-Francisco-Coronavirus-Testing-Bay-Area-2020-3	Yes	94610	37.81	-122.24
2000 Driscoll Road Fremont, Ca 94539	Fremont	Alameda	-	Drive-Thru	See Website For Available Appointment Times	-	Rapid Covid-19 Testing Will Be Available To Eligible Individuals Who Meet Criteria Established By The Centers For Disease Control And Prevention, In Addition To State Residency And Age Guidelines (Must Be 18 Or Older). Patients Will Need To Pre-Register In Advance On-Line At Https://Www.Cvs.Com/Minuteclinic/Covid-19-Testing In Order To Schedule A Slot To Be Tested. When Patients Arrive At The Test Site, They Are Required Stay In Their Vehicle. Team Members On Site Will Check Their Registration And Direct Them Through The Testing Process. For The Safety Of Patients And Health Care Providers On Site, Testing Is Limited To Drive-Thru Testing Only. For More Information About Test Site Locations, Hours Of Operations, And How To Register For A Test, Please Visit Https://Www.Cvs.Com/Minuteclinic/Covid-19-Testing.	-	-	Cvs Health Covid-19 Drive Thru Testing Site - By Appointment Only	-	California	Https://Www.Cvs.Com/Minuteclinic/Covid-19-Testing	-	94539	37.52	-121.9
7200 Bancroft Avenue Oakland, Ca 94605	Oakland	Alameda	-	Drive-Thru	See Website For Available Appointment Times	-	Rapid Covid-19 Testing Will Be Available To Eligible Individuals Who Meet Criteria Established By The Centers For Disease Control And Prevention, In Addition To State Residency And Age Guidelines (Must Be 18 Or Older). Patients Will Need To Pre-Register In Advance On-Line At Https://Www.Cvs.Com/Minuteclinic/Covid-19-Testing In Order To Schedule A Slot To Be Tested. When Patients Arrive At The Test Site, They Are Required Stay In Their Vehicle. Team Members On Site Will Check Their Registration And Direct Them Through The Testing Process. For The Safety Of Patients And Health Care Providers On Site, Testing Is Limited To Drive-Thru Testing Only. For More Information About Test Site Locations, Hours Of Operations, And How To Register For A Test, Please Visit Https://Www.Cvs.Com/Minuteclinic/Covid-19-Testing.	-	-	Cvs Health Covid-19 Drive Thru Testing Site - By Appointment Only	-	California	Https://Www.Cvs.Com/Minuteclinic/Covid-19-Testing	-	94605	37.76	-122.16
1550 East 14Th Street San Leandro, Ca 94577	San Leandro	Alameda	-	Drive-Thru	See Website For Available Appointment Times	-	Rapid Covid-19 Testing Will Be Available To Eligible Individuals Who Meet Criteria Established By The Centers For Disease Control And Prevention, In Addition To State Residency And Age Guidelines (Must Be 18 Or Older). Patients Will Need To Pre-Register In Advance On-Line At Https://Www.Cvs.Com/Minuteclinic/Covid-19-Testing In Order To Schedule A Slot To Be Tested. When Patients Arrive At The Test Site, They Are Required Stay In Their Vehicle. Team Members On Site Will Check Their Registration And Direct Them Through The Testing Process. For The Safety Of Patients And Health Care Providers On Site, Testing Is Limited To Drive-Thru Testing Only. For More Information About Test Site Locations, Hours Of Operations, And How To Register For A Test, Please Visit Https://Www.Cvs.Com/Minuteclinic/Covid-19-Testing.	-	-	Cvs Health Covid-19 Drive Thru Testing Site - By Appointment Only	-	California	Https://Www.Cvs.Com/Minuteclinic/Covid-19-Testing	-	94577	37.71	-122.16
26059 Mission Boulevard Hayward, Ca 94544	Hayward	Alameda	-	Drive-Thru	See Website For Available Appointment Times	-	Rapid Covid-19 Testing Will Be Available To Eligible Individuals Who Meet Criteria Established By The Centers For Disease Control And Prevention, In Addition To State Residency And Age Guidelines (Must Be 18 Or Older). Patients Will Need To Pre-Register In Advance On-Line At Https://Www.Cvs.Com/Minuteclinic/Covid-19-Testing In Order To Schedule A Slot To Be Tested. When Patients Arrive At The Test Site, They Are Required Stay In Their Vehicle. Team Members On Site Will Check Their Registration And Direct Them Through The Testing Process. For The Safety Of Patients And Health Care Providers On Site, Testing Is Limited To Drive-Thru Testing Only. For More Information About Test Site Locations, Hours Of Operations, And How To Register For A Test, Please Visit Https://Www.Cvs.Com/Minuteclinic/Covid-19-Testing.	-	-	Cvs Health Covid-19 Drive Thru Testing Site - By Appointment Only	-	California	Https://Www.Cvs.Com/Minuteclinic/Covid-19-Testing	-	94544	37.64	-122.06
3999 Santa Rita Road	Pleasanton	Alameda	-	Drive-Thru	See Website For Available Appointment Times	-	Rapid Covid-19 Testing Will Be Available To Eligible Individuals Who Meet Criteria Established By The Centers For Disease Control And Prevention, In Addition To State Residency And Age Guidelines (Must Be 18 Or Older). Patients Will Need To Pre-Register In Advance On-Line At Https://Www.Cvs.Com/Minuteclinic/Covid-19-Testing In Order To Schedule A Slot To Be Tested. When Patients Arrive At The Test Site, They Are Required Stay In Their Vehicle. Team Members On Site Will Check Their Registration And Direct Them Through The Testing Process. For The Safety Of Patients And Health Care Providers On Site, Testing Is Limited To Drive-Thru Testing Only. For More Information About Test Site Locations, Hours Of Operations, And How To Register For A Test, Please Visit Https://Www.Cvs.Com/Minuteclinic/Covid-19-Testing.	-	-	Cvs Health Covid-19 Drive Thru Testing Site - By Appointment Only	-	California	Https://Www.Cvs.Com/Minuteclinic/Covid-19-Testing	-	94588	37.7	-121.9
6750 Bernal Avenue	Pleasanton	Alameda	-	Drive-Thru	See Website For Available Appointment Times	-	Rapid Covid-19 Testing Will Be Available To Eligible Individuals Who Meet Criteria Established By The Centers For Disease Control And Prevention, In Addition To State Residency And Age Guidelines (Must Be 18 Or Older). Patients Will Need To Pre-Register In Advance On-Line At Https://Www.Cvs.Com/Minuteclinic/Covid-19-Testing In Order To Schedule A Slot To Be Tested. When Patients Arrive At The Test Site, They Are Required Stay In Their Vehicle. Team Members On Site Will Check Their Registration And Direct Them Through The Testing Process. For The Safety Of Patients And Health Care Providers On Site, Testing Is Limited To Drive-Thru Testing Only. For More Information About Test Site Locations, Hours Of Operations, And How To Register For A Test, Please Visit Https://Www.Cvs.Com/Minuteclinic/Covid-19-Testing.	-	-	Cvs Health Covid-19 Drive Thru Testing Site - By Appointment Only	-	California	Https://Www.Cvs.Com/Minuteclinic/Covid-19-Testing	-	94566	37.65	-121.86
3010 Bernal Avenue	Pleasanton	Alameda	-	Drive-Thru	See Website For Available Appointment Times	-	Rapid Covid-19 Testing Will Be Available To Eligible Individuals Who Meet Criteria Established By The Centers For Disease Control And Prevention, In Addition To State Residency And Age Guidelines (Must Be 18 Or Older). Patients Will Need To Pre-Register In Advance On-Line At Https://Www.Cvs.Com/Minuteclinic/Covid-19-Testing In Order To Schedule A Slot To Be Tested. When Patients Arrive At The Test Site, They Are Required Stay In Their Vehicle. Team Members On Site Will Check Their Registration And Direct Them Through The Testing Process. For The Safety Of Patients And Health Care Providers On Site, Testing Is Limited To Drive-Thru Testing Only. For More Information About Test Site Locations, Hours Of Operations, And How To Register For A Test, Please Visit Https://Www.Cvs.Com/Minuteclinic/Covid-19-Testing.	-	-	Cvs Health Covid-19 Drive Thru Testing Site - By Appointment Only	-	California	Https://Www.Cvs.Com/Minuteclinic/Covid-19-Testing	-	94566	37.65	-121.86
7200 Stevenson Blvd., Fremont, Ca 94538	Fremont	Alameda	-	Drive-Thru	Open Daily From Around 10 A.M. To 5 P.M. Or Until The Maximum Number Of Tests Available For The Day Have Been Given Out.	Yes	The Site Will Allow People Who Are Sick, First Responders And Front Line Health Care Personnel With Recent Suspected Exposure To The Virus To Be Tested For Free. The Testing Center Will Be At The Fremont Fire Tactical Training Center, Located At 7200 Stevenson Blvd.	-	-	Fremont Fire Tactical Training Center	(510) 789-7231	California	Https://Www.Kron4.Com/News/Bay-Area/Fremont-To-Open-Covid-19-Drive-Thru-Testing-Site/	No	94538	37.51	-121.99
7200 Stevenson Blvd., Fremont, Ca 94538	Fremont	Alameda	-	Drive-Thru	It Will Be Open Daily From Around 10 A.M. To 5 P.M. Or Until The Maximum Number Of Tests Available For The Day Have Been Given Out.	Yes	The Site Will Allow People Who Are Sick, First Responders And Front Line Health Care Personnel With Recent Suspected Exposure To The Virus To Be Tested For Free. The Testing Center Will Be At The Fremont Fire Tactical Training Center, Located At 7200 Stevenson Blvd.	-	-	Fremont Fire Tactical Training Center	(510) 789-7231	California	Https://Www.Kron4.Com/News/Bay-Area/Fremont-To-Open-Covid-19-Drive-Thru-Testing-Site/	No	94538	37.51	-121.99
28270 Huntwood Avenue, Hayward, Ca 94544	Hayward	Alameda	-	Drive-Thru	9 Am - 6 Pm Daily	Yes	To Get Tested, Enter Huntwood Avenue From The South At Industrial Boulevard And Travel North Toward Tennyson Road. You Do Not Need A Referral From A Medical Provider To Be Tested At This Site. Patients Will Go Through A Screening Process And Be Checked Out For An Illness, Such As A Fever, Cough, Shortness Of Breath Or Other Respiratory Symptoms Before Being Administered A Test. Testing Is Free To The Public And Open To Anyone Regardless Of Where They Live Or Immigration Status.	-	-	Hayward Fire Station #7	(510) 583-4949	California	Https://Www.Hayward-Ca.Gov/Content/Coronavirus-Testing-Center	No	94544	37.64	-122.06
10 10Th St. Oakland, Ca 94607	Oakland	Alameda	-	Drive-Thru	-	Yes	The Henry J. Kaiser Convention Center Drive-Thru Site Will Serve Those Who Work In The Following Areas: Healthcare Providers, Including All Those Who Work In A Hospital, Clinic Or Community Health Center;  Grocery Stores And Food Banks;  Homeless Service Providers, Including Shelter And Outreach Workers; Funeral Home Providers; Childcare Facilities; Residential Facilities And Shelters For Seniors, Adults, And Children.  The City Of Oakland Has Contacted Organizations In Each Sector With Instructions On How To Enroll And Schedule Workers For Testing. If An Organization Operates Within One Of The Listed Areas And Has Not Yet Made Arrangements For Testing, They Should Email Covid19Testing@Oaklandca.Gov To Learn More.	-	-	Henry J. Kaiser Convention Center	-	California	Https://Www.Oaklandca.Gov/News/2020/Mayor-Schaaf-And-Partners-Open-Drive-Through-Test-Site-For-Direct-Service-Providers	No	94607	37.81	-122.3
39199 Liberty St, Fremont, Ca 94538	Fremont	Alameda	-	Clinic	Monday - Friday, 8Am - 4:30Pm	Yes	The Va Is Screening Veterans And Staff Who Present With Symptoms Of Fever, Cough, And Shortness Of Breath Who Meet The Cdc Criteria For Evaluation Of Covid-19 Infection.	-	-	Va Fremont Clinic	(800) 455-0057	California	Https://Www.Publichealth.Va.Gov/N-Coronavirus/	No	94538	37.51	-121.99
2780 Esplanade Chico, Ca 95973	Chico	Butte	-	Drive-Thru	See Website For Available Appointment Times	-	Rapid Covid-19 Testing Will Be Available To Eligible Individuals Who Meet Criteria Established By The Centers For Disease Control And Prevention, In Addition To State Residency And Age Guidelines (Must Be 18 Or Older). Patients Will Need To Pre-Register In Advance On-Line At Https://Www.Cvs.Com/Minuteclinic/Covid-19-Testing In Order To Schedule A Slot To Be Tested. When Patients Arrive At The Test Site, They Are Required Stay In Their Vehicle. Team Members On Site Will Check Their Registration And Direct Them Through The Testing Process. For The Safety Of Patients And Health Care Providers On Site, Testing Is Limited To Drive-Thru Testing Only. For More Information About Test Site Locations, Hours Of Operations, And How To Register For A Test, Please Visit Https://Www.Cvs.Com/Minuteclinic/Covid-19-Testing.	-	-	Cvs Health Covid-19 Drive Thru Testing Site - By Appointment Only	-	California	Https://Www.Cvs.Com/Minuteclinic/Covid-19-Testing	-	95973	39.9	-121.8
850 Oroville Dam Boulevard Oroville, Ca 95965	Oroville	Butte	-	Drive-Thru	See Website For Available Appointment Times	-	Rapid Covid-19 Testing Will Be Available To Eligible Individuals Who Meet Criteria Established By The Centers For Disease Control And Prevention, In Addition To State Residency And Age Guidelines (Must Be 18 Or Older). Patients Will Need To Pre-Register In Advance On-Line At Https://Www.Cvs.Com/Minuteclinic/Covid-19-Testing In Order To Schedule A Slot To Be Tested. When Patients Arrive At The Test Site, They Are Required Stay In Their Vehicle. Team Members On Site Will Check Their Registration And Direct Them Through The Testing Process. For The Safety Of Patients And Health Care Providers On Site, Testing Is Limited To Drive-Thru Testing Only. For More Information About Test Site Locations, Hours Of Operations, And How To Register For A Test, Please Visit Https://Www.Cvs.Com/Minuteclinic/Covid-19-Testing.	-	-	Cvs Health Covid-19 Drive Thru Testing Site - By Appointment Only	-	California	Https://Www.Cvs.Com/Minuteclinic/Covid-19-Testing	-	95965	39.6	-121.6
4028  Lone Tree Way Antioch, Ca 94531	Antioch	Contra Costa	-	Drive-Thru	See Website For Available Appointment Times	-	Rapid Covid-19 Testing Will Be Available To Eligible Individuals Who Meet Criteria Established By The Centers For Disease Control And Prevention, In Addition To State Residency And Age Guidelines (Must Be 18 Or Older). Patients Will Need To Pre-Register In Advance On-Line At Https://Www.Cvs.Com/Minuteclinic/Covid-19-Testing In Order To Schedule A Slot To Be Tested. When Patients Arrive At The Test Site, They Are Required Stay In Their Vehicle. Team Members On Site Will Check Their Registration And Direct Them Through The Testing Process. For The Safety Of Patients And Health Care Providers On Site, Testing Is Limited To Drive-Thru Testing Only. For More Information About Test Site Locations, Hours Of Operations, And How To Register For A Test, Please Visit Https://Www.Cvs.Com/Minuteclinic/Covid-19-Testing.	-	-	Cvs Health Covid-19 Drive Thru Testing Site - By Appointment Only	-	California	Https://Www.Cvs.Com/Minuteclinic/Covid-19-Testing	-	94531	37.96	-121.78
1617 Canyon Drive Pinole, Ca 94564	Pinole	Contra Costa	-	Drive-Thru	See Website For Available Appointment Times	-	Rapid Covid-19 Testing Will Be Available To Eligible Individuals Who Meet Criteria Established By The Centers For Disease Control And Prevention, In Addition To State Residency And Age Guidelines (Must Be 18 Or Older). Patients Will Need To Pre-Register In Advance On-Line At Https://Www.Cvs.Com/Minuteclinic/Covid-19-Testing In Order To Schedule A Slot To Be Tested. When Patients Arrive At The Test Site, They Are Required Stay In Their Vehicle. Team Members On Site Will Check Their Registration And Direct Them Through The Testing Process. For The Safety Of Patients And Health Care Providers On Site, Testing Is Limited To Drive-Thru Testing Only. For More Information About Test Site Locations, Hours Of Operations, And How To Register For A Test, Please Visit Https://Www.Cvs.Com/Minuteclinic/Covid-19-Testing.	-	-	Cvs Health Covid-19 Drive Thru Testing Site - By Appointment Only	-	California	Https://Www.Cvs.Com/Minuteclinic/Covid-19-Testing	-	94564	37.99	-122.28
657 Highway 101 North Crescent City, Ca 95531	Crescent City	Del Norte	-	Drive-Thru	See Website For Available Appointment Times	-	Rapid Covid-19 Testing Will Be Available To Eligible Individuals Who Meet Criteria Established By The Centers For Disease Control And Prevention, In Addition To State Residency And Age Guidelines (Must Be 18 Or Older). Patients Will Need To Pre-Register In Advance On-Line At Https://Www.Cvs.Com/Minuteclinic/Covid-19-Testing In Order To Schedule A Slot To Be Tested. When Patients Arrive At The Test Site, They Are Required Stay In Their Vehicle. Team Members On Site Will Check Their Registration And Direct Them Through The Testing Process. For The Safety Of Patients And Health Care Providers On Site, Testing Is Limited To Drive-Thru Testing Only. For More Information About Test Site Locations, Hours Of Operations, And How To Register For A Test, Please Visit Https://Www.Cvs.Com/Minuteclinic/Covid-19-Testing.	-	-	Cvs Health Covid-19 Drive Thru Testing Site - By Appointment Only	-	California	Https://Www.Cvs.Com/Minuteclinic/Covid-19-Testing	-	95531	41.8	-124.1
4330 Latrobe Road El Dorado Hills, Ca 95762	El Dorado Hills	El Dorado	-	Drive-Thru	See Website For Available Appointment Times	-	Rapid Covid-19 Testing Will Be Available To Eligible Individuals Who Meet Criteria Established By The Centers For Disease Control And Prevention, In Addition To State Residency And Age Guidelines (Must Be 18 Or Older). Patients Will Need To Pre-Register In Advance On-Line At Https://Www.Cvs.Com/Minuteclinic/Covid-19-Testing In Order To Schedule A Slot To Be Tested. When Patients Arrive At The Test Site, They Are Required Stay In Their Vehicle. Team Members On Site Will Check Their Registration And Direct Them Through The Testing Process. For The Safety Of Patients And Health Care Providers On Site, Testing Is Limited To Drive-Thru Testing Only. For More Information About Test Site Locations, Hours Of Operations, And How To Register For A Test, Please Visit Https://Www.Cvs.Com/Minuteclinic/Covid-19-Testing.	-	-	Cvs Health Covid-19 Drive Thru Testing Site - By Appointment Only	-	California	Https://Www.Cvs.Com/Minuteclinic/Covid-19-Testing	-	95762	38.7	-121.1
1794 Ashlan Avenue Clovis, Ca 93611	Clovis	Fresno	-	Drive-Thru	See Website For Available Appointment Times	-	Rapid Covid-19 Testing Will Be Available To Eligible Individuals Who Meet Criteria Established By The Centers For Disease Control And Prevention, In Addition To State Residency And Age Guidelines (Must Be 18 Or Older). Patients Will Need To Pre-Register In Advance On-Line At Https://Www.Cvs.Com/Minuteclinic/Covid-19-Testing In Order To Schedule A Slot To Be Tested. When Patients Arrive At The Test Site, They Are Required Stay In Their Vehicle. Team Members On Site Will Check Their Registration And Direct Them Through The Testing Process. For The Safety Of Patients And Health Care Providers On Site, Testing Is Limited To Drive-Thru Testing Only. For More Information About Test Site Locations, Hours Of Operations, And How To Register For A Test, Please Visit Https://Www.Cvs.Com/Minuteclinic/Covid-19-Testing.	-	-	Cvs Health Covid-19 Drive Thru Testing Site - By Appointment Only	-	California	Https://Www.Cvs.Com/Minuteclinic/Covid-19-Testing	-	93611	36.82	-119.69
6800 North Milburn Avenue Fresno, Ca 93722	Fresno	Fresno	-	Drive-Thru	See Website For Available Appointment Times	-	Rapid Covid-19 Testing Will Be Available To Eligible Individuals Who Meet Criteria Established By The Centers For Disease Control And Prevention, In Addition To State Residency And Age Guidelines (Must Be 18 Or Older). Patients Will Need To Pre-Register In Advance On-Line At Https://Www.Cvs.Com/Minuteclinic/Covid-19-Testing In Order To Schedule A Slot To Be Tested. When Patients Arrive At The Test Site, They Are Required Stay In Their Vehicle. Team Members On Site Will Check Their Registration And Direct Them Through The Testing Process. For The Safety Of Patients And Health Care Providers On Site, Testing Is Limited To Drive-Thru Testing Only. For More Information About Test Site Locations, Hours Of Operations, And How To Register For A Test, Please Visit Https://Www.Cvs.Com/Minuteclinic/Covid-19-Testing.	-	-	Cvs Health Covid-19 Drive Thru Testing Site - By Appointment Only	-	California	Https://Www.Cvs.Com/Minuteclinic/Covid-19-Testing	-	93722	36.8	-119.88
5995 East Kings Canyon Road	Fresno	Fresno	-	Drive-Thru	See Website For Available Appointment Times	-	Rapid Covid-19 Testing Will Be Available To Eligible Individuals Who Meet Criteria Established By The Centers For Disease Control And Prevention, In Addition To State Residency And Age Guidelines (Must Be 18 Or Older). Patients Will Need To Pre-Register In Advance On-Line At Https://Www.Cvs.Com/Minuteclinic/Covid-19-Testing In Order To Schedule A Slot To Be Tested. When Patients Arrive At The Test Site, They Are Required Stay In Their Vehicle. Team Members On Site Will Check Their Registration And Direct Them Through The Testing Process. For The Safety Of Patients And Health Care Providers On Site, Testing Is Limited To Drive-Thru Testing Only. For More Information About Test Site Locations, Hours Of Operations, And How To Register For A Test, Please Visit Https://Www.Cvs.Com/Minuteclinic/Covid-19-Testing.	-	-	Cvs Health Covid-19 Drive Thru Testing Site - By Appointment Only	-	California	Https://Www.Cvs.Com/Minuteclinic/Covid-19-Testing	-	93727	36.75	-119.68
869 Newville Road Orland, Ca 95963	Orland	Glenn	-	Drive-Thru	See Website For Available Appointment Times	-	Rapid Covid-19 Testing Will Be Available To Eligible Individuals Who Meet Criteria Established By The Centers For Disease Control And Prevention, In Addition To State Residency And Age Guidelines (Must Be 18 Or Older). Patients Will Need To Pre-Register In Advance On-Line At Https://Www.Cvs.Com/Minuteclinic/Covid-19-Testing In Order To Schedule A Slot To Be Tested. When Patients Arrive At The Test Site, They Are Required Stay In Their Vehicle. Team Members On Site Will Check Their Registration And Direct Them Through The Testing Process. For The Safety Of Patients And Health Care Providers On Site, Testing Is Limited To Drive-Thru Testing Only. For More Information About Test Site Locations, Hours Of Operations, And How To Register For A Test, Please Visit Https://Www.Cvs.Com/Minuteclinic/Covid-19-Testing.	-	-	Cvs Health Covid-19 Drive Thru Testing Site - By Appointment Only	-	California	Https://Www.Cvs.Com/Minuteclinic/Covid-19-Testing	-	95963	39.7	-122.4
1745 South Imperial Avenue	El Centro	Imperial	-	Drive-Thru	See Website For Available Appointment Times	-	Rapid Covid-19 Testing Will Be Available To Eligible Individuals Who Meet Criteria Established By The Centers For Disease Control And Prevention, In Addition To State Residency And Age Guidelines (Must Be 18 Or Older). Patients Will Need To Pre-Register In Advance On-Line At Https://Www.Cvs.Com/Minuteclinic/Covid-19-Testing In Order To Schedule A Slot To Be Tested. When Patients Arrive At The Test Site, They Are Required Stay In Their Vehicle. Team Members On Site Will Check Their Registration And Direct Them Through The Testing Process. For The Safety Of Patients And Health Care Providers On Site, Testing Is Limited To Drive-Thru Testing Only. For More Information About Test Site Locations, Hours Of Operations, And How To Register For A Test, Please Visit Https://Www.Cvs.Com/Minuteclinic/Covid-19-Testing.	-	-	Cvs Health Covid-19 Drive Thru Testing Site - By Appointment Only	-	California	Https://Www.Cvs.Com/Minuteclinic/Covid-19-Testing	-	92243	32.7	-115.8
6500 South Union Avenue Bakersfield, Ca 93307	Bakersfield	Kern	-	Drive-Thru	See Website For Available Appointment Times	-	Rapid Covid-19 Testing Will Be Available To Eligible Individuals Who Meet Criteria Established By The Centers For Disease Control And Prevention, In Addition To State Residency And Age Guidelines (Must Be 18 Or Older). Patients Will Need To Pre-Register In Advance On-Line At Https://Www.Cvs.Com/Minuteclinic/Covid-19-Testing In Order To Schedule A Slot To Be Tested. When Patients Arrive At The Test Site, They Are Required Stay In Their Vehicle. Team Members On Site Will Check Their Registration And Direct Them Through The Testing Process. For The Safety Of Patients And Health Care Providers On Site, Testing Is Limited To Drive-Thru Testing Only. For More Information About Test Site Locations, Hours Of Operations, And How To Register For A Test, Please Visit Https://Www.Cvs.Com/Minuteclinic/Covid-19-Testing.	-	-	Cvs Health Covid-19 Drive Thru Testing Site - By Appointment Only	-	California	Https://Www.Cvs.Com/Minuteclinic/Covid-19-Testing	-	93307	35.2	-118.8
2690 Mt. Vernon Avenue Bakersfield, Ca 93306	Bakersfield	Kern	-	Drive-Thru	See Website For Available Appointment Times	-	Rapid Covid-19 Testing Will Be Available To Eligible Individuals Who Meet Criteria Established By The Centers For Disease Control And Prevention, In Addition To State Residency And Age Guidelines (Must Be 18 Or Older). Patients Will Need To Pre-Register In Advance On-Line At Https://Www.Cvs.Com/Minuteclinic/Covid-19-Testing In Order To Schedule A Slot To Be Tested. When Patients Arrive At The Test Site, They Are Required Stay In Their Vehicle. Team Members On Site Will Check Their Registration And Direct Them Through The Testing Process. For The Safety Of Patients And Health Care Providers On Site, Testing Is Limited To Drive-Thru Testing Only. For More Information About Test Site Locations, Hours Of Operations, And How To Register For A Test, Please Visit Https://Www.Cvs.Com/Minuteclinic/Covid-19-Testing.	-	-	Cvs Health Covid-19 Drive Thru Testing Site - By Appointment Only	-	California	Https://Www.Cvs.Com/Minuteclinic/Covid-19-Testing	-	93306	35.5	-118.8
6601 Stine Road Bakersfield, Ca 93313	Bakersfield	Kern	-	Drive-Thru	See Website For Available Appointment Times	-	Rapid Covid-19 Testing Will Be Available To Eligible Individuals Who Meet Criteria Established By The Centers For Disease Control And Prevention, In Addition To State Residency And Age Guidelines (Must Be 18 Or Older). Patients Will Need To Pre-Register In Advance On-Line At Https://Www.Cvs.Com/Minuteclinic/Covid-19-Testing In Order To Schedule A Slot To Be Tested. When Patients Arrive At The Test Site, They Are Required Stay In Their Vehicle. Team Members On Site Will Check Their Registration And Direct Them Through The Testing Process. For The Safety Of Patients And Health Care Providers On Site, Testing Is Limited To Drive-Thru Testing Only. For More Information About Test Site Locations, Hours Of Operations, And How To Register For A Test, Please Visit Https://Www.Cvs.Com/Minuteclinic/Covid-19-Testing.	-	-	Cvs Health Covid-19 Drive Thru Testing Site - By Appointment Only	-	California	Https://Www.Cvs.Com/Minuteclinic/Covid-19-Testing	-	93313	35.1	-119.0
11300 Ming Avenue	Bakersfield	Kern	-	Drive-Thru	See Website For Available Appointment Times	-	Rapid Covid-19 Testing Will Be Available To Eligible Individuals Who Meet Criteria Established By The Centers For Disease Control And Prevention, In Addition To State Residency And Age Guidelines (Must Be 18 Or Older). Patients Will Need To Pre-Register In Advance On-Line At Https://Www.Cvs.Com/Minuteclinic/Covid-19-Testing In Order To Schedule A Slot To Be Tested. When Patients Arrive At The Test Site, They Are Required Stay In Their Vehicle. Team Members On Site Will Check Their Registration And Direct Them Through The Testing Process. For The Safety Of Patients And Health Care Providers On Site, Testing Is Limited To Drive-Thru Testing Only. For More Information About Test Site Locations, Hours Of Operations, And How To Register For A Test, Please Visit Https://Www.Cvs.Com/Minuteclinic/Covid-19-Testing.	-	-	Cvs Health Covid-19 Drive Thru Testing Site - By Appointment Only	-	California	Https://Www.Cvs.Com/Minuteclinic/Covid-19-Testing	-	93301	35.39	-119.02
9628 Rosedale Highway	Bakersfield	Kern	-	Drive-Thru	See Website For Available Appointment Times	-	Rapid Covid-19 Testing Will Be Available To Eligible Individuals Who Meet Criteria Established By The Centers For Disease Control And Prevention, In Addition To State Residency And Age Guidelines (Must Be 18 Or Older). Patients Will Need To Pre-Register In Advance On-Line At Https://Www.Cvs.Com/Minuteclinic/Covid-19-Testing In Order To Schedule A Slot To Be Tested. When Patients Arrive At The Test Site, They Are Required Stay In Their Vehicle. Team Members On Site Will Check Their Registration And Direct Them Through The Testing Process. For The Safety Of Patients And Health Care Providers On Site, Testing Is Limited To Drive-Thru Testing Only. For More Information About Test Site Locations, Hours Of Operations, And How To Register For A Test, Please Visit Https://Www.Cvs.Com/Minuteclinic/Covid-19-Testing.	-	-	Cvs Health Covid-19 Drive Thru Testing Site - By Appointment Only	-	California	Https://Www.Cvs.Com/Minuteclinic/Covid-19-Testing	-	93311	35.1	-119.2
574 West Lacey Boulevard	Hanford	Kings	-	Drive-Thru	See Website For Available Appointment Times	-	Rapid Covid-19 Testing Will Be Available To Eligible Individuals Who Meet Criteria Established By The Centers For Disease Control And Prevention, In Addition To State Residency And Age Guidelines (Must Be 18 Or Older). Patients Will Need To Pre-Register In Advance On-Line At Https://Www.Cvs.Com/Minuteclinic/Covid-19-Testing In Order To Schedule A Slot To Be Tested. When Patients Arrive At The Test Site, They Are Required Stay In Their Vehicle. Team Members On Site Will Check Their Registration And Direct Them Through The Testing Process. For The Safety Of Patients And Health Care Providers On Site, Testing Is Limited To Drive-Thru Testing Only. For More Information About Test Site Locations, Hours Of Operations, And How To Register For A Test, Please Visit Https://Www.Cvs.Com/Minuteclinic/Covid-19-Testing.	-	-	Cvs Health Covid-19 Drive Thru Testing Site - By Appointment Only	-	California	Https://Www.Cvs.Com/Minuteclinic/Covid-19-Testing	-	93230	36.3	-119.6
2539 11Th Avenue	Hanford	Kings	-	Drive-Thru	See Website For Available Appointment Times	-	Rapid Covid-19 Testing Will Be Available To Eligible Individuals Who Meet Criteria Established By The Centers For Disease Control And Prevention, In Addition To State Residency And Age Guidelines (Must Be 18 Or Older). Patients Will Need To Pre-Register In Advance On-Line At Https://Www.Cvs.Com/Minuteclinic/Covid-19-Testing In Order To Schedule A Slot To Be Tested. When Patients Arrive At The Test Site, They Are Required Stay In Their Vehicle. Team Members On Site Will Check Their Registration And Direct Them Through The Testing Process. For The Safety Of Patients And Health Care Providers On Site, Testing Is Limited To Drive-Thru Testing Only. For More Information About Test Site Locations, Hours Of Operations, And How To Register For A Test, Please Visit Https://Www.Cvs.Com/Minuteclinic/Covid-19-Testing.	-	-	Cvs Health Covid-19 Drive Thru Testing Site - By Appointment Only	-	California	Https://Www.Cvs.Com/Minuteclinic/Covid-19-Testing	-	93230	36.3	-119.6
335-B East Avenue K6 Lancaster, Ca 93535	Lancaster	Los Angeles	-	Clinic	Call To Confirm	Yes	Please Call Ahead To See If The Clinic Is Offering Testing At This Time. If You Are Healthy, Have No Exposure History, And Have No Symptoms, You Are Not Guaranteed To Be Tested Due To The Limited Test Kit And Protective Gear Supply At This Moment.	-	-	Antelope Valley Public Health Center	661-471-4861	California	Http://Publichealth.Lacounty.Gov/Chs/Phcenters.Htm	No	93535	34.7	-117.9
2110 Sunset Blvd, Suite M, Los Angeles Ca 90026	Los Angeles	Los Angeles	-	Clinic	9 Am - 7 Pm	Yes	If The Provider Believes The Covid-19 Test Is Appropriate For You After Your Free Virtual Screening Using The Coronavirus Assessment Tool, We Will Perform A Physical Evaluation, Conduct The Collection Onsite, And Send The Specimen To Either Quest Or Labcorp Depending On Your Insurance.	-	-	Carbon Health	(833) 873-2852	California	Https://Carbonhealth.Com/Echo-Park	Yes	90026	34.08	-118.26
241 N. Figueroa Street Los Angeles, Ca 90012	Los Angeles	Los Angeles	-	Clinic	Call To Confirm	Yes	Please Call Ahead To See If The Clinic Is Offering Testing At This Time. If You Are Healthy, Have No Exposure History, And Have No Symptoms, You Are Not Guaranteed To Be Tested Due To The Limited Test Kit And Protective Gear Supply At This Moment.	-	-	Central Public Health Center	(213) 240-8204	California	Http://Publichealth.Lacounty.Gov/Chs/Phcenters.Htm	No	90012	34.06	-118.24
123 W. Manchester Blvd. Inglewood, Ca 90301	Inglewood	Los Angeles	-	Clinic	Call To Confirm	Yes	Please Call Ahead To See If The Clinic Is Offering Testing At This Time. If You Are Healthy, Have No Exposure History, And Have No Symptoms, You Are Not Guaranteed To Be Tested Due To The Limited Test Kit And Protective Gear Supply At This Moment.	-	-	Curtis R. Tucker Public Health Center	(310) 419-5325	California	Http://Publichealth.Lacounty.Gov/Chs/Phcenters.Htm	No	90301	33.96	-118.36
25829 Narbonne Avenue Lomita, Ca 90717	Lomita	Los Angeles	-	Drive-Thru	See Website For Available Appointment Times	-	Rapid Covid-19 Testing Will Be Available To Eligible Individuals Who Meet Criteria Established By The Centers For Disease Control And Prevention, In Addition To State Residency And Age Guidelines (Must Be 18 Or Older). Patients Will Need To Pre-Register In Advance On-Line At Https://Www.Cvs.Com/Minuteclinic/Covid-19-Testing In Order To Schedule A Slot To Be Tested. When Patients Arrive At The Test Site, They Are Required Stay In Their Vehicle. Team Members On Site Will Check Their Registration And Direct Them Through The Testing Process. For The Safety Of Patients And Health Care Providers On Site, Testing Is Limited To Drive-Thru Testing Only. For More Information About Test Site Locations, Hours Of Operations, And How To Register For A Test, Please Visit Https://Www.Cvs.Com/Minuteclinic/Covid-19-Testing.	-	-	Cvs Health Covid-19 Drive Thru Testing Site - By Appointment Only	-	California	Https://Www.Cvs.Com/Minuteclinic/Covid-19-Testing	-	90717	33.79	-118.32
846 West Avenue K Lancaster, Ca 93534	Lancaster	Los Angeles	-	Drive-Thru	See Website For Available Appointment Times	-	Rapid Covid-19 Testing Will Be Available To Eligible Individuals Who Meet Criteria Established By The Centers For Disease Control And Prevention, In Addition To State Residency And Age Guidelines (Must Be 18 Or Older). Patients Will Need To Pre-Register In Advance On-Line At Https://Www.Cvs.Com/Minuteclinic/Covid-19-Testing In Order To Schedule A Slot To Be Tested. When Patients Arrive At The Test Site, They Are Required Stay In Their Vehicle. Team Members On Site Will Check Their Registration And Direct Them Through The Testing Process. For The Safety Of Patients And Health Care Providers On Site, Testing Is Limited To Drive-Thru Testing Only. For More Information About Test Site Locations, Hours Of Operations, And How To Register For A Test, Please Visit Https://Www.Cvs.Com/Minuteclinic/Covid-19-Testing.	-	-	Cvs Health Covid-19 Drive Thru Testing Site - By Appointment Only	-	California	Https://Www.Cvs.Com/Minuteclinic/Covid-19-Testing	-	93534	34.7	-118.2
3883 East Foothill Boulevard Pasadena, Ca 91107	Pasadena	Los Angeles	-	Drive-Thru	See Website For Available Appointment Times	-	Rapid Covid-19 Testing Will Be Available To Eligible Individuals Who Meet Criteria Established By The Centers For Disease Control And Prevention, In Addition To State Residency And Age Guidelines (Must Be 18 Or Older). Patients Will Need To Pre-Register In Advance On-Line At Https://Www.Cvs.Com/Minuteclinic/Covid-19-Testing In Order To Schedule A Slot To Be Tested. When Patients Arrive At The Test Site, They Are Required Stay In Their Vehicle. Team Members On Site Will Check Their Registration And Direct Them Through The Testing Process. For The Safety Of Patients And Health Care Providers On Site, Testing Is Limited To Drive-Thru Testing Only. For More Information About Test Site Locations, Hours Of Operations, And How To Register For A Test, Please Visit Https://Www.Cvs.Com/Minuteclinic/Covid-19-Testing.	-	-	Cvs Health Covid-19 Drive Thru Testing Site - By Appointment Only	-	California	Https://Www.Cvs.Com/Minuteclinic/Covid-19-Testing	-	91107	34.2	-118.0
19701 Vanowen Street Winnetka, Ca 91306	Winnetka	Los Angeles	-	Drive-Thru	See Website For Available Appointment Times	-	Rapid Covid-19 Testing Will Be Available To Eligible Individuals Who Meet Criteria Established By The Centers For Disease Control And Prevention, In Addition To State Residency And Age Guidelines (Must Be 18 Or Older). Patients Will Need To Pre-Register In Advance On-Line At Https://Www.Cvs.Com/Minuteclinic/Covid-19-Testing In Order To Schedule A Slot To Be Tested. When Patients Arrive At The Test Site, They Are Required Stay In Their Vehicle. Team Members On Site Will Check Their Registration And Direct Them Through The Testing Process. For The Safety Of Patients And Health Care Providers On Site, Testing Is Limited To Drive-Thru Testing Only. For More Information About Test Site Locations, Hours Of Operations, And How To Register For A Test, Please Visit Https://Www.Cvs.Com/Minuteclinic/Covid-19-Testing.	-	-	Cvs Health Covid-19 Drive Thru Testing Site - By Appointment Only	-	California	Https://Www.Cvs.Com/Minuteclinic/Covid-19-Testing	-	91306	34.21	-118.58
21590 East Valley Boulevard City Of Industry, Ca 91789	City Of Industry	Los Angeles	-	Drive-Thru	See Website For Available Appointment Times	-	Rapid Covid-19 Testing Will Be Available To Eligible Individuals Who Meet Criteria Established By The Centers For Disease Control And Prevention, In Addition To State Residency And Age Guidelines (Must Be 18 Or Older). Patients Will Need To Pre-Register In Advance On-Line At Https://Www.Cvs.Com/Minuteclinic/Covid-19-Testing In Order To Schedule A Slot To Be Tested. When Patients Arrive At The Test Site, They Are Required Stay In Their Vehicle. Team Members On Site Will Check Their Registration And Direct Them Through The Testing Process. For The Safety Of Patients And Health Care Providers On Site, Testing Is Limited To Drive-Thru Testing Only. For More Information About Test Site Locations, Hours Of Operations, And How To Register For A Test, Please Visit Https://Www.Cvs.Com/Minuteclinic/Covid-19-Testing.	-	-	Cvs Health Covid-19 Drive Thru Testing Site - By Appointment Only	-	California	Https://Www.Cvs.Com/Minuteclinic/Covid-19-Testing	-	91789	34.02	-117.85
8400 Firestone Boulevard Downey, Ca 90241	Downey	Los Angeles	-	Drive-Thru	See Website For Available Appointment Times	-	Rapid Covid-19 Testing Will Be Available To Eligible Individuals Who Meet Criteria Established By The Centers For Disease Control And Prevention, In Addition To State Residency And Age Guidelines (Must Be 18 Or Older). Patients Will Need To Pre-Register In Advance On-Line At Https://Www.Cvs.Com/Minuteclinic/Covid-19-Testing In Order To Schedule A Slot To Be Tested. When Patients Arrive At The Test Site, They Are Required Stay In Their Vehicle. Team Members On Site Will Check Their Registration And Direct Them Through The Testing Process. For The Safety Of Patients And Health Care Providers On Site, Testing Is Limited To Drive-Thru Testing Only. For More Information About Test Site Locations, Hours Of Operations, And How To Register For A Test, Please Visit Https://Www.Cvs.Com/Minuteclinic/Covid-19-Testing.	-	-	Cvs Health Covid-19 Drive Thru Testing Site - By Appointment Only	-	California	Https://Www.Cvs.Com/Minuteclinic/Covid-19-Testing	-	90241	33.94	-118.13
858 North Sunset Avenue La Puente, Ca 91744	La Puente	Los Angeles	-	Drive-Thru	See Website For Available Appointment Times	-	Rapid Covid-19 Testing Will Be Available To Eligible Individuals Who Meet Criteria Established By The Centers For Disease Control And Prevention, In Addition To State Residency And Age Guidelines (Must Be 18 Or Older). Patients Will Need To Pre-Register In Advance On-Line At Https://Www.Cvs.Com/Minuteclinic/Covid-19-Testing In Order To Schedule A Slot To Be Tested. When Patients Arrive At The Test Site, They Are Required Stay In Their Vehicle. Team Members On Site Will Check Their Registration And Direct Them Through The Testing Process. For The Safety Of Patients And Health Care Providers On Site, Testing Is Limited To Drive-Thru Testing Only. For More Information About Test Site Locations, Hours Of Operations, And How To Register For A Test, Please Visit Https://Www.Cvs.Com/Minuteclinic/Covid-19-Testing.	-	-	Cvs Health Covid-19 Drive Thru Testing Site - By Appointment Only	-	California	Https://Www.Cvs.Com/Minuteclinic/Covid-19-Testing	-	91744	34.03	-117.93
5176 East Whittier Boulevard Los Angeles, Ca 90022	Los Angeles	Los Angeles	-	Drive-Thru	See Website For Available Appointment Times	-	Rapid Covid-19 Testing Will Be Available To Eligible Individuals Who Meet Criteria Established By The Centers For Disease Control And Prevention, In Addition To State Residency And Age Guidelines (Must Be 18 Or Older). Patients Will Need To Pre-Register In Advance On-Line At Https://Www.Cvs.Com/Minuteclinic/Covid-19-Testing In Order To Schedule A Slot To Be Tested. When Patients Arrive At The Test Site, They Are Required Stay In Their Vehicle. Team Members On Site Will Check Their Registration And Direct Them Through The Testing Process. For The Safety Of Patients And Health Care Providers On Site, Testing Is Limited To Drive-Thru Testing Only. For More Information About Test Site Locations, Hours Of Operations, And How To Register For A Test, Please Visit Https://Www.Cvs.Com/Minuteclinic/Covid-19-Testing.	-	-	Cvs Health Covid-19 Drive Thru Testing Site - By Appointment Only	-	California	Https://Www.Cvs.Com/Minuteclinic/Covid-19-Testing	-	90022	34.03	-118.15
10945 Victory Boulevard North Hollywood, Ca 91606	North Hollywood	Los Angeles	-	Drive-Thru	See Website For Available Appointment Times	-	Rapid Covid-19 Testing Will Be Available To Eligible Individuals Who Meet Criteria Established By The Centers For Disease Control And Prevention, In Addition To State Residency And Age Guidelines (Must Be 18 Or Older). Patients Will Need To Pre-Register In Advance On-Line At Https://Www.Cvs.Com/Minuteclinic/Covid-19-Testing In Order To Schedule A Slot To Be Tested. When Patients Arrive At The Test Site, They Are Required Stay In Their Vehicle. Team Members On Site Will Check Their Registration And Direct Them Through The Testing Process. For The Safety Of Patients And Health Care Providers On Site, Testing Is Limited To Drive-Thru Testing Only. For More Information About Test Site Locations, Hours Of Operations, And How To Register For A Test, Please Visit Https://Www.Cvs.Com/Minuteclinic/Covid-19-Testing.	-	-	Cvs Health Covid-19 Drive Thru Testing Site - By Appointment Only	-	California	Https://Www.Cvs.Com/Minuteclinic/Covid-19-Testing	-	91606	34.19	-118.39
120 East Bonita Avenue San Dimas, Ca 91773	San Dimas	Los Angeles	-	Drive-Thru	See Website For Available Appointment Times	-	Rapid Covid-19 Testing Will Be Available To Eligible Individuals Who Meet Criteria Established By The Centers For Disease Control And Prevention, In Addition To State Residency And Age Guidelines (Must Be 18 Or Older). Patients Will Need To Pre-Register In Advance On-Line At Https://Www.Cvs.Com/Minuteclinic/Covid-19-Testing In Order To Schedule A Slot To Be Tested. When Patients Arrive At The Test Site, They Are Required Stay In Their Vehicle. Team Members On Site Will Check Their Registration And Direct Them Through The Testing Process. For The Safety Of Patients And Health Care Providers On Site, Testing Is Limited To Drive-Thru Testing Only. For More Information About Test Site Locations, Hours Of Operations, And How To Register For A Test, Please Visit Https://Www.Cvs.Com/Minuteclinic/Covid-19-Testing.	-	-	Cvs Health Covid-19 Drive Thru Testing Site - By Appointment Only	-	California	Https://Www.Cvs.Com/Minuteclinic/Covid-19-Testing	-	91773	34.12	-117.81
7400 Reseda Boulevard Reseda, Ca 91335	Reseda	Los Angeles	-	Drive-Thru	See Website For Available Appointment Times	-	Rapid Covid-19 Testing Will Be Available To Eligible Individuals Who Meet Criteria Established By The Centers For Disease Control And Prevention, In Addition To State Residency And Age Guidelines (Must Be 18 Or Older). Patients Will Need To Pre-Register In Advance On-Line At Https://Www.Cvs.Com/Minuteclinic/Covid-19-Testing In Order To Schedule A Slot To Be Tested. When Patients Arrive At The Test Site, They Are Required Stay In Their Vehicle. Team Members On Site Will Check Their Registration And Direct Them Through The Testing Process. For The Safety Of Patients And Health Care Providers On Site, Testing Is Limited To Drive-Thru Testing Only. For More Information About Test Site Locations, Hours Of Operations, And How To Register For A Test, Please Visit Https://Www.Cvs.Com/Minuteclinic/Covid-19-Testing.	-	-	Cvs Health Covid-19 Drive Thru Testing Site - By Appointment Only	-	California	Https://Www.Cvs.Com/Minuteclinic/Covid-19-Testing	-	91335	34.2	-118.54
1954 Durfee Avenue South El Monte, Ca 91733	South El Monte	Los Angeles	-	Drive-Thru	See Website For Available Appointment Times	-	Rapid Covid-19 Testing Will Be Available To Eligible Individuals Who Meet Criteria Established By The Centers For Disease Control And Prevention, In Addition To State Residency And Age Guidelines (Must Be 18 Or Older). Patients Will Need To Pre-Register In Advance On-Line At Https://Www.Cvs.Com/Minuteclinic/Covid-19-Testing In Order To Schedule A Slot To Be Tested. When Patients Arrive At The Test Site, They Are Required Stay In Their Vehicle. Team Members On Site Will Check Their Registration And Direct Them Through The Testing Process. For The Safety Of Patients And Health Care Providers On Site, Testing Is Limited To Drive-Thru Testing Only. For More Information About Test Site Locations, Hours Of Operations, And How To Register For A Test, Please Visit Https://Www.Cvs.Com/Minuteclinic/Covid-19-Testing.	-	-	Cvs Health Covid-19 Drive Thru Testing Site - By Appointment Only	-	California	Https://Www.Cvs.Com/Minuteclinic/Covid-19-Testing	-	91733	34.05	-118.05
3151 Baldwin Park Baldwin Park, Ca 91706	Baldwin Park	Los Angeles	-	Drive-Thru	See Website For Available Appointment Times	-	Rapid Covid-19 Testing Will Be Available To Eligible Individuals Who Meet Criteria Established By The Centers For Disease Control And Prevention, In Addition To State Residency And Age Guidelines (Must Be 18 Or Older). Patients Will Need To Pre-Register In Advance On-Line At Https://Www.Cvs.Com/Minuteclinic/Covid-19-Testing In Order To Schedule A Slot To Be Tested. When Patients Arrive At The Test Site, They Are Required Stay In Their Vehicle. Team Members On Site Will Check Their Registration And Direct Them Through The Testing Process. For The Safety Of Patients And Health Care Providers On Site, Testing Is Limited To Drive-Thru Testing Only. For More Information About Test Site Locations, Hours Of Operations, And How To Register For A Test, Please Visit Https://Www.Cvs.Com/Minuteclinic/Covid-19-Testing.	-	-	Cvs Health Covid-19 Drive Thru Testing Site - By Appointment Only	-	California	Https://Www.Cvs.Com/Minuteclinic/Covid-19-Testing	-	91706	34.09	-117.97
915 East Arrow Highway Azusa, Ca 91702	Azusa	Los Angeles	-	Drive-Thru	See Website For Available Appointment Times	-	Rapid Covid-19 Testing Will Be Available To Eligible Individuals Who Meet Criteria Established By The Centers For Disease Control And Prevention, In Addition To State Residency And Age Guidelines (Must Be 18 Or Older). Patients Will Need To Pre-Register In Advance On-Line At Https://Www.Cvs.Com/Minuteclinic/Covid-19-Testing In Order To Schedule A Slot To Be Tested. When Patients Arrive At The Test Site, They Are Required Stay In Their Vehicle. Team Members On Site Will Check Their Registration And Direct Them Through The Testing Process. For The Safety Of Patients And Health Care Providers On Site, Testing Is Limited To Drive-Thru Testing Only. For More Information About Test Site Locations, Hours Of Operations, And How To Register For A Test, Please Visit Https://Www.Cvs.Com/Minuteclinic/Covid-19-Testing.	-	-	Cvs Health Covid-19 Drive Thru Testing Site - By Appointment Only	-	California	Https://Www.Cvs.Com/Minuteclinic/Covid-19-Testing	-	91702	34.2	-117.8
316 South Pacific Coast Highway Redondo Beach, Ca 90277	Redondo Beach	Los Angeles	-	Drive-Thru	See Website For Available Appointment Times	-	Rapid Covid-19 Testing Will Be Available To Eligible Individuals Who Meet Criteria Established By The Centers For Disease Control And Prevention, In Addition To State Residency And Age Guidelines (Must Be 18 Or Older). Patients Will Need To Pre-Register In Advance On-Line At Https://Www.Cvs.Com/Minuteclinic/Covid-19-Testing In Order To Schedule A Slot To Be Tested. When Patients Arrive At The Test Site, They Are Required Stay In Their Vehicle. Team Members On Site Will Check Their Registration And Direct Them Through The Testing Process. For The Safety Of Patients And Health Care Providers On Site, Testing Is Limited To Drive-Thru Testing Only. For More Information About Test Site Locations, Hours Of Operations, And How To Register For A Test, Please Visit Https://Www.Cvs.Com/Minuteclinic/Covid-19-Testing.	-	-	Cvs Health Covid-19 Drive Thru Testing Site - By Appointment Only	-	California	Https://Www.Cvs.Com/Minuteclinic/Covid-19-Testing	-	90277	33.83	-118.39
6510 South Street Lakewood, Ca 90713	Lakewood	Los Angeles	-	Drive-Thru	See Website For Available Appointment Times	-	Rapid Covid-19 Testing Will Be Available To Eligible Individuals Who Meet Criteria Established By The Centers For Disease Control And Prevention, In Addition To State Residency And Age Guidelines (Must Be 18 Or Older). Patients Will Need To Pre-Register In Advance On-Line At Https://Www.Cvs.Com/Minuteclinic/Covid-19-Testing In Order To Schedule A Slot To Be Tested. When Patients Arrive At The Test Site, They Are Required Stay In Their Vehicle. Team Members On Site Will Check Their Registration And Direct Them Through The Testing Process. For The Safety Of Patients And Health Care Providers On Site, Testing Is Limited To Drive-Thru Testing Only. For More Information About Test Site Locations, Hours Of Operations, And How To Register For A Test, Please Visit Https://Www.Cvs.Com/Minuteclinic/Covid-19-Testing.	-	-	Cvs Health Covid-19 Drive Thru Testing Site - By Appointment Only	-	California	Https://Www.Cvs.Com/Minuteclinic/Covid-19-Testing	-	90713	33.85	-118.11
155 Pacific Coast Highway Hermosa Beach, Ca 90254	Hermosa Beach	Los Angeles	-	Drive-Thru	See Website For Available Appointment Times	-	Rapid Covid-19 Testing Will Be Available To Eligible Individuals Who Meet Criteria Established By The Centers For Disease Control And Prevention, In Addition To State Residency And Age Guidelines (Must Be 18 Or Older). Patients Will Need To Pre-Register In Advance On-Line At Https://Www.Cvs.Com/Minuteclinic/Covid-19-Testing In Order To Schedule A Slot To Be Tested. When Patients Arrive At The Test Site, They Are Required Stay In Their Vehicle. Team Members On Site Will Check Their Registration And Direct Them Through The Testing Process. For The Safety Of Patients And Health Care Providers On Site, Testing Is Limited To Drive-Thru Testing Only. For More Information About Test Site Locations, Hours Of Operations, And How To Register For A Test, Please Visit Https://Www.Cvs.Com/Minuteclinic/Covid-19-Testing.	-	-	Cvs Health Covid-19 Drive Thru Testing Site - By Appointment Only	-	California	Https://Www.Cvs.Com/Minuteclinic/Covid-19-Testing	-	90254	33.86	-118.4
1250 East Pacific Coast Highway Long Beach, Ca 90806	Long Beach	Los Angeles	-	Drive-Thru	See Website For Available Appointment Times	-	Rapid Covid-19 Testing Will Be Available To Eligible Individuals Who Meet Criteria Established By The Centers For Disease Control And Prevention, In Addition To State Residency And Age Guidelines (Must Be 18 Or Older). Patients Will Need To Pre-Register In Advance On-Line At Https://Www.Cvs.Com/Minuteclinic/Covid-19-Testing In Order To Schedule A Slot To Be Tested. When Patients Arrive At The Test Site, They Are Required Stay In Their Vehicle. Team Members On Site Will Check Their Registration And Direct Them Through The Testing Process. For The Safety Of Patients And Health Care Providers On Site, Testing Is Limited To Drive-Thru Testing Only. For More Information About Test Site Locations, Hours Of Operations, And How To Register For A Test, Please Visit Https://Www.Cvs.Com/Minuteclinic/Covid-19-Testing.	-	-	Cvs Health Covid-19 Drive Thru Testing Site - By Appointment Only	-	California	Https://Www.Cvs.Com/Minuteclinic/Covid-19-Testing	-	90806	33.81	-118.17
901 South Central Avenue Compton, Ca 90220	Compton	Los Angeles	-	Drive-Thru	See Website For Available Appointment Times	-	Rapid Covid-19 Testing Will Be Available To Eligible Individuals Who Meet Criteria Established By The Centers For Disease Control And Prevention, In Addition To State Residency And Age Guidelines (Must Be 18 Or Older). Patients Will Need To Pre-Register In Advance On-Line At Https://Www.Cvs.Com/Minuteclinic/Covid-19-Testing In Order To Schedule A Slot To Be Tested. When Patients Arrive At The Test Site, They Are Required Stay In Their Vehicle. Team Members On Site Will Check Their Registration And Direct Them Through The Testing Process. For The Safety Of Patients And Health Care Providers On Site, Testing Is Limited To Drive-Thru Testing Only. For More Information About Test Site Locations, Hours Of Operations, And How To Register For A Test, Please Visit Https://Www.Cvs.Com/Minuteclinic/Covid-19-Testing.	-	-	Cvs Health Covid-19 Drive Thru Testing Site - By Appointment Only	-	California	Https://Www.Cvs.Com/Minuteclinic/Covid-19-Testing	-	90220	33.87	-118.24
1550 Puente Avenue Baldwin Park, Ca 91706	Baldwin Park	Los Angeles	-	Drive-Thru	See Website For Available Appointment Times	-	Rapid Covid-19 Testing Will Be Available To Eligible Individuals Who Meet Criteria Established By The Centers For Disease Control And Prevention, In Addition To State Residency And Age Guidelines (Must Be 18 Or Older). Patients Will Need To Pre-Register In Advance On-Line At Https://Www.Cvs.Com/Minuteclinic/Covid-19-Testing In Order To Schedule A Slot To Be Tested. When Patients Arrive At The Test Site, They Are Required Stay In Their Vehicle. Team Members On Site Will Check Their Registration And Direct Them Through The Testing Process. For The Safety Of Patients And Health Care Providers On Site, Testing Is Limited To Drive-Thru Testing Only. For More Information About Test Site Locations, Hours Of Operations, And How To Register For A Test, Please Visit Https://Www.Cvs.Com/Minuteclinic/Covid-19-Testing.	-	-	Cvs Health Covid-19 Drive Thru Testing Site - By Appointment Only	-	California	Https://Www.Cvs.Com/Minuteclinic/Covid-19-Testing	-	91706	34.09	-117.97
188 Las Tunas Drive Arcadia, Ca 91007	Arcadia	Los Angeles	-	Drive-Thru	See Website For Available Appointment Times	-	Rapid Covid-19 Testing Will Be Available To Eligible Individuals Who Meet Criteria Established By The Centers For Disease Control And Prevention, In Addition To State Residency And Age Guidelines (Must Be 18 Or Older). Patients Will Need To Pre-Register In Advance On-Line At Https://Www.Cvs.Com/Minuteclinic/Covid-19-Testing In Order To Schedule A Slot To Be Tested. When Patients Arrive At The Test Site, They Are Required Stay In Their Vehicle. Team Members On Site Will Check Their Registration And Direct Them Through The Testing Process. For The Safety Of Patients And Health Care Providers On Site, Testing Is Limited To Drive-Thru Testing Only. For More Information About Test Site Locations, Hours Of Operations, And How To Register For A Test, Please Visit Https://Www.Cvs.Com/Minuteclinic/Covid-19-Testing.	-	-	Cvs Health Covid-19 Drive Thru Testing Site - By Appointment Only	-	California	Https://Www.Cvs.Com/Minuteclinic/Covid-19-Testing	-	91007	34.13	-118.05
950 West Foothill Boulevard Monrovia, Ca 91016	Monrovia	Los Angeles	-	Drive-Thru	See Website For Available Appointment Times	-	Rapid Covid-19 Testing Will Be Available To Eligible Individuals Who Meet Criteria Established By The Centers For Disease Control And Prevention, In Addition To State Residency And Age Guidelines (Must Be 18 Or Older). Patients Will Need To Pre-Register In Advance On-Line At Https://Www.Cvs.Com/Minuteclinic/Covid-19-Testing In Order To Schedule A Slot To Be Tested. When Patients Arrive At The Test Site, They Are Required Stay In Their Vehicle. Team Members On Site Will Check Their Registration And Direct Them Through The Testing Process. For The Safety Of Patients And Health Care Providers On Site, Testing Is Limited To Drive-Thru Testing Only. For More Information About Test Site Locations, Hours Of Operations, And How To Register For A Test, Please Visit Https://Www.Cvs.Com/Minuteclinic/Covid-19-Testing.	-	-	Cvs Health Covid-19 Drive Thru Testing Site - By Appointment Only	-	California	Https://Www.Cvs.Com/Minuteclinic/Covid-19-Testing	-	91016	34.15	-117.98
1820 West Verdugo Avenue Burbank, Ca 91506	Burbank	Los Angeles	-	Drive-Thru	See Website For Available Appointment Times	-	Rapid Covid-19 Testing Will Be Available To Eligible Individuals Who Meet Criteria Established By The Centers For Disease Control And Prevention, In Addition To State Residency And Age Guidelines (Must Be 18 Or Older). Patients Will Need To Pre-Register In Advance On-Line At Https://Www.Cvs.Com/Minuteclinic/Covid-19-Testing In Order To Schedule A Slot To Be Tested. When Patients Arrive At The Test Site, They Are Required Stay In Their Vehicle. Team Members On Site Will Check Their Registration And Direct Them Through The Testing Process. For The Safety Of Patients And Health Care Providers On Site, Testing Is Limited To Drive-Thru Testing Only. For More Information About Test Site Locations, Hours Of Operations, And How To Register For A Test, Please Visit Https://Www.Cvs.Com/Minuteclinic/Covid-19-Testing.	-	-	Cvs Health Covid-19 Drive Thru Testing Site - By Appointment Only	-	California	Https://Www.Cvs.Com/Minuteclinic/Covid-19-Testing	-	91506	34.17	-118.32
10048 Mills Avenue Whittier, Ca 90604	Whittier	Los Angeles	-	Drive-Thru	See Website For Available Appointment Times	-	Rapid Covid-19 Testing Will Be Available To Eligible Individuals Who Meet Criteria Established By The Centers For Disease Control And Prevention, In Addition To State Residency And Age Guidelines (Must Be 18 Or Older). Patients Will Need To Pre-Register In Advance On-Line At Https://Www.Cvs.Com/Minuteclinic/Covid-19-Testing In Order To Schedule A Slot To Be Tested. When Patients Arrive At The Test Site, They Are Required Stay In Their Vehicle. Team Members On Site Will Check Their Registration And Direct Them Through The Testing Process. For The Safety Of Patients And Health Care Providers On Site, Testing Is Limited To Drive-Thru Testing Only. For More Information About Test Site Locations, Hours Of Operations, And How To Register For A Test, Please Visit Https://Www.Cvs.Com/Minuteclinic/Covid-19-Testing.	-	-	Cvs Health Covid-19 Drive Thru Testing Site - By Appointment Only	-	California	Https://Www.Cvs.Com/Minuteclinic/Covid-19-Testing	-	90604	33.93	-118.01
26861 Sierra Highway Santa Clarita, Ca 91321	Santa Clarita	Los Angeles	-	Drive-Thru	See Website For Available Appointment Times	-	Rapid Covid-19 Testing Will Be Available To Eligible Individuals Who Meet Criteria Established By The Centers For Disease Control And Prevention, In Addition To State Residency And Age Guidelines (Must Be 18 Or Older). Patients Will Need To Pre-Register In Advance On-Line At Https://Www.Cvs.Com/Minuteclinic/Covid-19-Testing In Order To Schedule A Slot To Be Tested. When Patients Arrive At The Test Site, They Are Required Stay In Their Vehicle. Team Members On Site Will Check Their Registration And Direct Them Through The Testing Process. For The Safety Of Patients And Health Care Providers On Site, Testing Is Limited To Drive-Thru Testing Only. For More Information About Test Site Locations, Hours Of Operations, And How To Register For A Test, Please Visit Https://Www.Cvs.Com/Minuteclinic/Covid-19-Testing.	-	-	Cvs Health Covid-19 Drive Thru Testing Site - By Appointment Only	-	California	Https://Www.Cvs.Com/Minuteclinic/Covid-19-Testing	-	91321	34.37	-118.48
8580 Whittier Boulevard Pico Rivera, Ca 90660	Pico Rivera	Los Angeles	-	Drive-Thru	See Website For Available Appointment Times	-	Rapid Covid-19 Testing Will Be Available To Eligible Individuals Who Meet Criteria Established By The Centers For Disease Control And Prevention, In Addition To State Residency And Age Guidelines (Must Be 18 Or Older). Patients Will Need To Pre-Register In Advance On-Line At Https://Www.Cvs.Com/Minuteclinic/Covid-19-Testing In Order To Schedule A Slot To Be Tested. When Patients Arrive At The Test Site, They Are Required Stay In Their Vehicle. Team Members On Site Will Check Their Registration And Direct Them Through The Testing Process. For The Safety Of Patients And Health Care Providers On Site, Testing Is Limited To Drive-Thru Testing Only. For More Information About Test Site Locations, Hours Of Operations, And How To Register For A Test, Please Visit Https://Www.Cvs.Com/Minuteclinic/Covid-19-Testing.	-	-	Cvs Health Covid-19 Drive Thru Testing Site - By Appointment Only	-	California	Https://Www.Cvs.Com/Minuteclinic/Covid-19-Testing	-	90660	33.99	-118.08
1030 Colorado Boulevard Eagle Rock, Ca 90041	Eagle Rock	Los Angeles	-	Drive-Thru	See Website For Available Appointment Times	-	Rapid Covid-19 Testing Will Be Available To Eligible Individuals Who Meet Criteria Established By The Centers For Disease Control And Prevention, In Addition To State Residency And Age Guidelines (Must Be 18 Or Older). Patients Will Need To Pre-Register In Advance On-Line At Https://Www.Cvs.Com/Minuteclinic/Covid-19-Testing In Order To Schedule A Slot To Be Tested. When Patients Arrive At The Test Site, They Are Required Stay In Their Vehicle. Team Members On Site Will Check Their Registration And Direct Them Through The Testing Process. For The Safety Of Patients And Health Care Providers On Site, Testing Is Limited To Drive-Thru Testing Only. For More Information About Test Site Locations, Hours Of Operations, And How To Register For A Test, Please Visit Https://Www.Cvs.Com/Minuteclinic/Covid-19-Testing.	-	-	Cvs Health Covid-19 Drive Thru Testing Site - By Appointment Only	-	California	Https://Www.Cvs.Com/Minuteclinic/Covid-19-Testing	-	90041	34.13	-118.21
1303 West Sepulveda Boulevard Torrance, Ca 90501	Torrance	Los Angeles	-	Drive-Thru	See Website For Available Appointment Times	-	Rapid Covid-19 Testing Will Be Available To Eligible Individuals Who Meet Criteria Established By The Centers For Disease Control And Prevention, In Addition To State Residency And Age Guidelines (Must Be 18 Or Older). Patients Will Need To Pre-Register In Advance On-Line At Https://Www.Cvs.Com/Minuteclinic/Covid-19-Testing In Order To Schedule A Slot To Be Tested. When Patients Arrive At The Test Site, They Are Required Stay In Their Vehicle. Team Members On Site Will Check Their Registration And Direct Them Through The Testing Process. For The Safety Of Patients And Health Care Providers On Site, Testing Is Limited To Drive-Thru Testing Only. For More Information About Test Site Locations, Hours Of Operations, And How To Register For A Test, Please Visit Https://Www.Cvs.Com/Minuteclinic/Covid-19-Testing.	-	-	Cvs Health Covid-19 Drive Thru Testing Site - By Appointment Only	-	California	Https://Www.Cvs.Com/Minuteclinic/Covid-19-Testing	-	90501	33.83	-118.31
1204 San Fernando Road San Fernando, Ca 91340	San Fernando	Los Angeles	-	Drive-Thru	See Website For Available Appointment Times	-	Rapid Covid-19 Testing Will Be Available To Eligible Individuals Who Meet Criteria Established By The Centers For Disease Control And Prevention, In Addition To State Residency And Age Guidelines (Must Be 18 Or Older). Patients Will Need To Pre-Register In Advance On-Line At Https://Www.Cvs.Com/Minuteclinic/Covid-19-Testing In Order To Schedule A Slot To Be Tested. When Patients Arrive At The Test Site, They Are Required Stay In Their Vehicle. Team Members On Site Will Check Their Registration And Direct Them Through The Testing Process. For The Safety Of Patients And Health Care Providers On Site, Testing Is Limited To Drive-Thru Testing Only. For More Information About Test Site Locations, Hours Of Operations, And How To Register For A Test, Please Visit Https://Www.Cvs.Com/Minuteclinic/Covid-19-Testing.	-	-	Cvs Health Covid-19 Drive Thru Testing Site - By Appointment Only	-	California	Https://Www.Cvs.Com/Minuteclinic/Covid-19-Testing	-	91340	34.29	-118.44
5020 Long Beach Boulevard	Long Beach	Los Angeles	-	Drive-Thru	See Website For Available Appointment Times	-	Rapid Covid-19 Testing Will Be Available To Eligible Individuals Who Meet Criteria Established By The Centers For Disease Control And Prevention, In Addition To State Residency And Age Guidelines (Must Be 18 Or Older). Patients Will Need To Pre-Register In Advance On-Line At Https://Www.Cvs.Com/Minuteclinic/Covid-19-Testing In Order To Schedule A Slot To Be Tested. When Patients Arrive At The Test Site, They Are Required Stay In Their Vehicle. Team Members On Site Will Check Their Registration And Direct Them Through The Testing Process. For The Safety Of Patients And Health Care Providers On Site, Testing Is Limited To Drive-Thru Testing Only. For More Information About Test Site Locations, Hours Of Operations, And How To Register For A Test, Please Visit Https://Www.Cvs.Com/Minuteclinic/Covid-19-Testing.	-	-	Cvs Health Covid-19 Drive Thru Testing Site - By Appointment Only	-	California	Https://Www.Cvs.Com/Minuteclinic/Covid-19-Testing	-	90805	33.86	-118.18
4345 West Century Boulevard	Inglewood	Los Angeles	-	Drive-Thru	See Website For Available Appointment Times	-	Rapid Covid-19 Testing Will Be Available To Eligible Individuals Who Meet Criteria Established By The Centers For Disease Control And Prevention, In Addition To State Residency And Age Guidelines (Must Be 18 Or Older). Patients Will Need To Pre-Register In Advance On-Line At Https://Www.Cvs.Com/Minuteclinic/Covid-19-Testing In Order To Schedule A Slot To Be Tested. When Patients Arrive At The Test Site, They Are Required Stay In Their Vehicle. Team Members On Site Will Check Their Registration And Direct Them Through The Testing Process. For The Safety Of Patients And Health Care Providers On Site, Testing Is Limited To Drive-Thru Testing Only. For More Information About Test Site Locations, Hours Of Operations, And How To Register For A Test, Please Visit Https://Www.Cvs.Com/Minuteclinic/Covid-19-Testing.	-	-	Cvs Health Covid-19 Drive Thru Testing Site - By Appointment Only	-	California	Https://Www.Cvs.Com/Minuteclinic/Covid-19-Testing	-	90304	33.94	-118.36
3208 East Florence Avenue	Huntington Park	Los Angeles	-	Drive-Thru	See Website For Available Appointment Times	-	Rapid Covid-19 Testing Will Be Available To Eligible Individuals Who Meet Criteria Established By The Centers For Disease Control And Prevention, In Addition To State Residency And Age Guidelines (Must Be 18 Or Older). Patients Will Need To Pre-Register In Advance On-Line At Https://Www.Cvs.Com/Minuteclinic/Covid-19-Testing In Order To Schedule A Slot To Be Tested. When Patients Arrive At The Test Site, They Are Required Stay In Their Vehicle. Team Members On Site Will Check Their Registration And Direct Them Through The Testing Process. For The Safety Of Patients And Health Care Providers On Site, Testing Is Limited To Drive-Thru Testing Only. For More Information About Test Site Locations, Hours Of Operations, And How To Register For A Test, Please Visit Https://Www.Cvs.Com/Minuteclinic/Covid-19-Testing.	-	-	Cvs Health Covid-19 Drive Thru Testing Site - By Appointment Only	-	California	Https://Www.Cvs.Com/Minuteclinic/Covid-19-Testing	-	90255	33.98	-118.21
501 N. Glendale Ave Glendale, Ca 91206	Glendale	Los Angeles	-	Clinic	Call To Confirm	Yes	Please Call Ahead To See If The Clinic Is Offering Testing At This Time. If You Are Healthy, Have No Exposure History, And Have No Symptoms, You Are Not Guaranteed To Be Tested Due To The Limited Test Kit And Protective Gear Supply At This Moment.	-	-	Glendale Public Health Center	(818) 500-5762	California	Http://Publichealth.Lacounty.Gov/Chs/Phcenters.Htm	No	91206	34.16	-118.22
5205 Melrose Avenue Los Angeles, Ca 90038	Los Angeles	Los Angeles	-	Clinic	Call To Confirm	Yes	Please Call Ahead To See If The Clinic Is Offering Testing At This Time. If You Are Healthy, Have No Exposure History, And Have No Symptoms, You Are Not Guaranteed To Be Tested Due To The Limited Test Kit And Protective Gear Supply At This Moment.	-	-	Hollywood/Wilshire Public Health Center	(323) 769-7800	California	Http://Publichealth.Lacounty.Gov/Chs/Phcenters.Htm	No	90038	34.09	-118.33
11833 South Wilmington Avenue Los Angeles, Ca 90059	Los Angeles	Los Angeles	-	Clinic	Call To Confirm	Yes	Please Call Ahead To See If The Clinic Is Offering Testing At This Time. If You Are Healthy, Have No Exposure History, And Have No Symptoms, You Are Not Guaranteed To Be Tested Due To The Limited Test Kit And Protective Gear Supply At This Moment.	-	-	Martin Luther King, Jr. Center For Public Health	(323) 568-8100	California	Http://Publichealth.Lacounty.Gov/Chs/Phcenters.Htm	No	90059	33.92	-118.25
330 W. Maple Avenue Monrovia, Ca 91016	Monrovia	Los Angeles	-	Clinic	Call To Confirm	Yes	Please Call Ahead To See If The Clinic Is Offering Testing At This Time. If You Are Healthy, Have No Exposure History, And Have No Symptoms, You Are Not Guaranteed To Be Tested Due To The Limited Test Kit And Protective Gear Supply At This Moment.	-	-	Monrovia Public Health Center	(626) 256-1600	California	Http://Publichealth.Lacounty.Gov/Chs/Phcenters.Htm	No	91016	34.15	-117.98
750 S. Park Avenue Pomona, Ca 91766	Pomona	Los Angeles	-	Clinic	Call To Confirm	Yes	Please Call Ahead To See If The Clinic Is Offering Testing At This Time. If You Are Healthy, Have No Exposure History, And Have No Symptoms, You Are Not Guaranteed To Be Tested Due To The Limited Test Kit And Protective Gear Supply At This Moment.	-	-	Pomona Public Health Center	(909) 868-0235	California	Http://Publichealth.Lacounty.Gov/Chs/Phcenters.Htm	No	91766	34.05	-117.72
Sherman Oaks, Ca	Sherman Oaks	Los Angeles	-	Drive-Thru	-	Yes	Visit Https://Www.Projectbaseline.Com/Study/Covid-19/ To Get Started With A Screening. Once You'Ve Taken The Screening, You Will Be Told If You Meet The Requirements For Testing Eligibility. You Will Then Be Given An Appointment At A Testing Site And Told When And Where To Go.	-	-	Project Baseline By Verily	-	California	Https://Www.Projectbaseline.Com/Study/Covid-19/	No	-	-	-
Long Beach, Ca	Long Beach	Los Angeles	-	Drive-Thru	-	Yes	Visit Https://Www.Projectbaseline.Com/Study/Covid-19/ To Get Started With A Screening. Once You'Ve Taken The Screening, You Will Be Told If You Meet The Requirements For Testing Eligibility. You Will Then Be Given An Appointment At A Testing Site And Told When And Where To Go.	-	-	Project Baseline By Verily	-	California	Https://Www.Projectbaseline.Com/Study/Covid-19/	No	-	-	-
757 Westwood Plaza, Los Angeles, Ca 90095	Los Angeles	Los Angeles	-	Hospital	24 Hours	Yes	Ucla Is Only Testing Patients Who Need Hospitalization And Have A History Of Travel To Impacted Countries Or Who Have Had Contact With Others Who Have Tested Positive For Covid-19.	-	-	Ucla Health	(310) 267-9113	California	Https://Www.Uclahealth.Org/Coronavirus	No	90095	34.071	-118.443
7643 S. Painter Avenue Whittier, Ca 90602	Whittier	Los Angeles	-	Clinic	Call To Confirm	Yes	Please Call Ahead To See If The Clinic Is Offering Testing At This Time. If You Are Healthy, Have No Exposure History, And Have No Symptoms, You Are Not Guaranteed To Be Tested Due To The Limited Test Kit And Protective Gear Supply At This Moment.	-	-	Whittier Public Health Center	(562) 464-5350	California	Http://Publichealth.Lacounty.Gov/Chs/Phcenters.Htm	No	90602	33.97	-118.03
1599 Tiburon Boulevard	Tiburon	Marin	-	Drive-Thru	See Website For Available Appointment Times	-	Rapid Covid-19 Testing Will Be Available To Eligible Individuals Who Meet Criteria Established By The Centers For Disease Control And Prevention, In Addition To State Residency And Age Guidelines (Must Be 18 Or Older). Patients Will Need To Pre-Register In Advance On-Line At Https://Www.Cvs.Com/Minuteclinic/Covid-19-Testing In Order To Schedule A Slot To Be Tested. When Patients Arrive At The Test Site, They Are Required Stay In Their Vehicle. Team Members On Site Will Check Their Registration And Direct Them Through The Testing Process. For The Safety Of Patients And Health Care Providers On Site, Testing Is Limited To Drive-Thru Testing Only. For More Information About Test Site Locations, Hours Of Operations, And How To Register For A Test, Please Visit Https://Www.Cvs.Com/Minuteclinic/Covid-19-Testing.	-	-	Cvs Health Covid-19 Drive Thru Testing Site - By Appointment Only	-	California	Https://Www.Cvs.Com/Minuteclinic/Covid-19-Testing	-	94920	37.89	-122.47
1651 Bellevue Road Atwater, Ca 95301	Atwater	Merced	-	Drive-Thru	See Website For Available Appointment Times	-	Rapid Covid-19 Testing Will Be Available To Eligible Individuals Who Meet Criteria Established By The Centers For Disease Control And Prevention, In Addition To State Residency And Age Guidelines (Must Be 18 Or Older). Patients Will Need To Pre-Register In Advance On-Line At Https://Www.Cvs.Com/Minuteclinic/Covid-19-Testing In Order To Schedule A Slot To Be Tested. When Patients Arrive At The Test Site, They Are Required Stay In Their Vehicle. Team Members On Site Will Check Their Registration And Direct Them Through The Testing Process. For The Safety Of Patients And Health Care Providers On Site, Testing Is Limited To Drive-Thru Testing Only. For More Information About Test Site Locations, Hours Of Operations, And How To Register For A Test, Please Visit Https://Www.Cvs.Com/Minuteclinic/Covid-19-Testing.	-	-	Cvs Health Covid-19 Drive Thru Testing Site - By Appointment Only	-	California	Https://Www.Cvs.Com/Minuteclinic/Covid-19-Testing	-	95301	37.32	-120.63
1970 Yosemite Parkway Merced, Ca 95341	Merced	Merced	-	Drive-Thru	See Website For Available Appointment Times	-	Rapid Covid-19 Testing Will Be Available To Eligible Individuals Who Meet Criteria Established By The Centers For Disease Control And Prevention, In Addition To State Residency And Age Guidelines (Must Be 18 Or Older). Patients Will Need To Pre-Register In Advance On-Line At Https://Www.Cvs.Com/Minuteclinic/Covid-19-Testing In Order To Schedule A Slot To Be Tested. When Patients Arrive At The Test Site, They Are Required Stay In Their Vehicle. Team Members On Site Will Check Their Registration And Direct Them Through The Testing Process. For The Safety Of Patients And Health Care Providers On Site, Testing Is Limited To Drive-Thru Testing Only. For More Information About Test Site Locations, Hours Of Operations, And How To Register For A Test, Please Visit Https://Www.Cvs.Com/Minuteclinic/Covid-19-Testing.	-	-	Cvs Health Covid-19 Drive Thru Testing Site - By Appointment Only	-	California	Https://Www.Cvs.Com/Minuteclinic/Covid-19-Testing	-	95341	37.2	-120.5
474 Winton Parkway Livingston, Ca 95334	Livingston	Merced	-	Drive-Thru	See Website For Available Appointment Times	-	Rapid Covid-19 Testing Will Be Available To Eligible Individuals Who Meet Criteria Established By The Centers For Disease Control And Prevention, In Addition To State Residency And Age Guidelines (Must Be 18 Or Older). Patients Will Need To Pre-Register In Advance On-Line At Https://Www.Cvs.Com/Minuteclinic/Covid-19-Testing In Order To Schedule A Slot To Be Tested. When Patients Arrive At The Test Site, They Are Required Stay In Their Vehicle. Team Members On Site Will Check Their Registration And Direct Them Through The Testing Process. For The Safety Of Patients And Health Care Providers On Site, Testing Is Limited To Drive-Thru Testing Only. For More Information About Test Site Locations, Hours Of Operations, And How To Register For A Test, Please Visit Https://Www.Cvs.Com/Minuteclinic/Covid-19-Testing.	-	-	Cvs Health Covid-19 Drive Thru Testing Site - By Appointment Only	-	California	Https://Www.Cvs.Com/Minuteclinic/Covid-19-Testing	-	95334	37.3	-120.8
347 E. Alisal Street	Salinas	Monterey	-	Drive-Thru	See Website For Available Appointment Times	-	Rapid Covid-19 Testing Will Be Available To Eligible Individuals Who Meet Criteria Established By The Centers For Disease Control And Prevention, In Addition To State Residency And Age Guidelines (Must Be 18 Or Older). Patients Will Need To Pre-Register In Advance On-Line At Https://Www.Cvs.Com/Minuteclinic/Covid-19-Testing In Order To Schedule A Slot To Be Tested. When Patients Arrive At The Test Site, They Are Required Stay In Their Vehicle. Team Members On Site Will Check Their Registration And Direct Them Through The Testing Process. For The Safety Of Patients And Health Care Providers On Site, Testing Is Limited To Drive-Thru Testing Only. For More Information About Test Site Locations, Hours Of Operations, And How To Register For A Test, Please Visit Https://Www.Cvs.Com/Minuteclinic/Covid-19-Testing.	-	-	Cvs Health Covid-19 Drive Thru Testing Site - By Appointment Only	-	California	Https://Www.Cvs.Com/Minuteclinic/Covid-19-Testing	-	93901	36.66	-121.65
Call Kaiser Permanente To Find Out Where The Nearest Testing Center Is.	-	Multiple	-	Clinic	-	No	Tests Are Currently Only Being Given To Kaiser Members. You Must Be Referred By A Physician Before Scheduling Your Appointment.	-	-	Kaiser Permanente	-	California	Https://Calmatters.Org/Health/Coronavirus/2020/03/California-Coronavirus-Testing-Insurance-Locations-Rules/	No	-	-	-
Call Kaiser Permanente To Find Out Where The Nearest Drive-Thru Testing Center Is.	-	Multiple	-	Drive-Thru	-	No	Tests Are Currently Only Being Given To Kaiser Members. You Must Be Referred By A Physician Before Scheduling Your Appointment.	-	-	Kaiser Permanente	-	California	Https://Www.Mercurynews.Com/2020/03/16/Kaiser-Opens-Drive-Thru-Covid-19-Testing-But-Members-Only/	No	-	-	-
Multiple Locations	-	Multiple	-	Clinic	24 Hours	No	Tests Will Primarily Be For Hospitalized Or Severely Ill Patients. Older People (Over 60) And Individuals With Underlying Medical Conditions Such As Cardiovascular Disease, Diabetes, Chronic Respiratory Disease, Cancer  Conditions That Put Them At Much Higher Risk From Covid-19  Will Also Be A Priority For Testing. The Availability Of More Tests May Make Testing Available For A Wider Range Of Patients In The Future.	-	-	Uc Davis Health Clinics	-	California	Https://Health.Ucdavis.Edu/Coronavirus/Coronavirus-Testing.Html	Yes	-	-	-
291 South Coombs Street Napa, Ca 94559	Napa	Napa	-	Drive-Thru	See Website For Available Appointment Times	-	Rapid Covid-19 Testing Will Be Available To Eligible Individuals Who Meet Criteria Established By The Centers For Disease Control And Prevention, In Addition To State Residency And Age Guidelines (Must Be 18 Or Older). Patients Will Need To Pre-Register In Advance On-Line At Https://Www.Cvs.Com/Minuteclinic/Covid-19-Testing In Order To Schedule A Slot To Be Tested. When Patients Arrive At The Test Site, They Are Required Stay In Their Vehicle. Team Members On Site Will Check Their Registration And Direct Them Through The Testing Process. For The Safety Of Patients And Health Care Providers On Site, Testing Is Limited To Drive-Thru Testing Only. For More Information About Test Site Locations, Hours Of Operations, And How To Register For A Test, Please Visit Https://Www.Cvs.Com/Minuteclinic/Covid-19-Testing.	-	-	Cvs Health Covid-19 Drive Thru Testing Site - By Appointment Only	-	California	Https://Www.Cvs.Com/Minuteclinic/Covid-19-Testing	-	94559	38.2	-122.3
Napa, Ca	Napa	Napa	-	Drive-Thru	-	Yes	Visit Https://Www.Projectbaseline.Com/Study/Covid-19/ To Get Started With A Screening. Once You'Ve Taken The Screening, You Will Be Told If You Meet The Requirements For Testing Eligibility. You Will Then Be Given An Appointment At A Testing Site And Told When And Where To Go.	-	-	Project Baseline By Verily	-	California	Https://Www.Projectbaseline.Com/Study/Covid-19/	No	-	-	-
155 Glasson Way, Grass Valley, Ca  95945	Grass Valley	Nevada	-	Drive-Thru	Call To Confirm	Yes	If You Are Symptomatic And Meet Criteria For Testing, Nevada County Residents Should Call Their Primary Care Doctor. If The Doctor Agrees That An Individual Needs To Be Tested, The Doctor Can Fax An Order To The Hospital. Sierra Nevada Memorial Hospital Will Call The Patient To Set Up An Appointment Drive-Through Time. Please Do Not Attempt To Go To The Testing Drive-Through Without A Previously Set-Up Appointment.	-	-	Sierra Nevada Memorial Hospital	(530) 274-6000	California	Https://Www.Theunion.Com/News/Drive-Through-Covid-19-Testing-Now-At-Sierra-Nevada-Memorial-Hospital/	Yes	95945	39.2	-120.9
921 Pacific Coast Highway, Seal Beach, Ca 90740	Seal Beach	Orange	-	Drive-Thru	See Website For Available Appointment Times	-	Rapid Covid-19 Testing Will Be Available To Eligible Individuals Who Meet Criteria Established By The Centers For Disease Control And Prevention, In Addition To State Residency And Age Guidelines (Must Be 18 Or Older). Patients Will Need To Pre-Register In Advance On-Line At Https://Www.Cvs.Com/Minuteclinic/Covid-19-Testing In Order To Schedule A Slot To Be Tested. When Patients Arrive At The Test Site, They Are Required Stay In Their Vehicle. Team Members On Site Will Check Their Registration And Direct Them Through The Testing Process. For The Safety Of Patients And Health Care Providers On Site, Testing Is Limited To Drive-Thru Testing Only. For More Information About Test Site Locations, Hours Of Operations, And How To Register For A Test, Please Visit Https://Www.Cvs.Com/Minuteclinic/Covid-19-Testing.	-	-	Cvs Health Covid-19 Drive Thru Testing Site - By Appointment Only	-	California	Https://Www.Cvs.Com/Minuteclinic/Covid-19-Testing	-	90740	33.76	-118.08
1150 Baker Street, Costa Mesa, Ca 92626	Costa Mesa	Orange	-	Drive-Thru	See Website For Available Appointment Times	-	Rapid Covid-19 Testing Will Be Available To Eligible Individuals Who Meet Criteria Established By The Centers For Disease Control And Prevention, In Addition To State Residency And Age Guidelines (Must Be 18 Or Older). Patients Will Need To Pre-Register In Advance On-Line At Https://Www.Cvs.Com/Minuteclinic/Covid-19-Testing In Order To Schedule A Slot To Be Tested. When Patients Arrive At The Test Site, They Are Required Stay In Their Vehicle. Team Members On Site Will Check Their Registration And Direct Them Through The Testing Process. For The Safety Of Patients And Health Care Providers On Site, Testing Is Limited To Drive-Thru Testing Only. For More Information About Test Site Locations, Hours Of Operations, And How To Register For A Test, Please Visit Https://Www.Cvs.Com/Minuteclinic/Covid-19-Testing.	-	-	Cvs Health Covid-19 Drive Thru Testing Site - By Appointment Only	-	California	Https://Www.Cvs.Com/Minuteclinic/Covid-19-Testing	-	92626	33.68	-117.9
18080 Imperial Highway, Yorba Linda, Ca 92886	Yorba Linda	Orange	-	Drive-Thru	See Website For Available Appointment Times	-	Rapid Covid-19 Testing Will Be Available To Eligible Individuals Who Meet Criteria Established By The Centers For Disease Control And Prevention, In Addition To State Residency And Age Guidelines (Must Be 18 Or Older). Patients Will Need To Pre-Register In Advance On-Line At Https://Www.Cvs.Com/Minuteclinic/Covid-19-Testing In Order To Schedule A Slot To Be Tested. When Patients Arrive At The Test Site, They Are Required Stay In Their Vehicle. Team Members On Site Will Check Their Registration And Direct Them Through The Testing Process. For The Safety Of Patients And Health Care Providers On Site, Testing Is Limited To Drive-Thru Testing Only. For More Information About Test Site Locations, Hours Of Operations, And How To Register For A Test, Please Visit Https://Www.Cvs.Com/Minuteclinic/Covid-19-Testing.	-	-	Cvs Health Covid-19 Drive Thru Testing Site - By Appointment Only	-	California	Https://Www.Cvs.Com/Minuteclinic/Covid-19-Testing	-	92886	33.9	-117.8
3401 Katella Ave Los Alamitos, Ca 90720	Los Alamitos	Orange	-	Drive-Thru	See Website For Available Appointment Times	-	Rapid Covid-19 Testing Will Be Available To Eligible Individuals Who Meet Criteria Established By The Centers For Disease Control And Prevention, In Addition To State Residency And Age Guidelines (Must Be 18 Or Older). Patients Will Need To Pre-Register In Advance On-Line At Https://Www.Cvs.Com/Minuteclinic/Covid-19-Testing In Order To Schedule A Slot To Be Tested. When Patients Arrive At The Test Site, They Are Required Stay In Their Vehicle. Team Members On Site Will Check Their Registration And Direct Them Through The Testing Process. For The Safety Of Patients And Health Care Providers On Site, Testing Is Limited To Drive-Thru Testing Only. For More Information About Test Site Locations, Hours Of Operations, And How To Register For A Test, Please Visit Https://Www.Cvs.Com/Minuteclinic/Covid-19-Testing.	-	-	Cvs Health Covid-19 Drive Thru Testing Site - By Appointment Only	-	California	Https://Www.Cvs.Com/Minuteclinic/Covid-19-Testing	-	90720	33.8	-118.06
16961 Beach Boulevard Huntington Beach, Ca 92647	Huntington Beach	Orange	-	Drive-Thru	See Website For Available Appointment Times	-	Rapid Covid-19 Testing Will Be Available To Eligible Individuals Who Meet Criteria Established By The Centers For Disease Control And Prevention, In Addition To State Residency And Age Guidelines (Must Be 18 Or Older). Patients Will Need To Pre-Register In Advance On-Line At Https://Www.Cvs.Com/Minuteclinic/Covid-19-Testing In Order To Schedule A Slot To Be Tested. When Patients Arrive At The Test Site, They Are Required Stay In Their Vehicle. Team Members On Site Will Check Their Registration And Direct Them Through The Testing Process. For The Safety Of Patients And Health Care Providers On Site, Testing Is Limited To Drive-Thru Testing Only. For More Information About Test Site Locations, Hours Of Operations, And How To Register For A Test, Please Visit Https://Www.Cvs.Com/Minuteclinic/Covid-19-Testing.	-	-	Cvs Health Covid-19 Drive Thru Testing Site - By Appointment Only	-	California	Https://Www.Cvs.Com/Minuteclinic/Covid-19-Testing	-	92647	33.73	-118.01
2701 Harbor Boulevard Costa Mesa, Ca 92626	Costa Mesa	Orange	-	Drive-Thru	See Website For Available Appointment Times	-	Rapid Covid-19 Testing Will Be Available To Eligible Individuals Who Meet Criteria Established By The Centers For Disease Control And Prevention, In Addition To State Residency And Age Guidelines (Must Be 18 Or Older). Patients Will Need To Pre-Register In Advance On-Line At Https://Www.Cvs.Com/Minuteclinic/Covid-19-Testing In Order To Schedule A Slot To Be Tested. When Patients Arrive At The Test Site, They Are Required Stay In Their Vehicle. Team Members On Site Will Check Their Registration And Direct Them Through The Testing Process. For The Safety Of Patients And Health Care Providers On Site, Testing Is Limited To Drive-Thru Testing Only. For More Information About Test Site Locations, Hours Of Operations, And How To Register For A Test, Please Visit Https://Www.Cvs.Com/Minuteclinic/Covid-19-Testing.	-	-	Cvs Health Covid-19 Drive Thru Testing Site - By Appointment Only	-	California	Https://Www.Cvs.Com/Minuteclinic/Covid-19-Testing	-	92626	33.68	-117.9
15520 Goldenwest Street Huntington Beach, Ca 92647	Huntington Beach	Orange	-	Drive-Thru	See Website For Available Appointment Times	-	Rapid Covid-19 Testing Will Be Available To Eligible Individuals Who Meet Criteria Established By The Centers For Disease Control And Prevention, In Addition To State Residency And Age Guidelines (Must Be 18 Or Older). Patients Will Need To Pre-Register In Advance On-Line At Https://Www.Cvs.Com/Minuteclinic/Covid-19-Testing In Order To Schedule A Slot To Be Tested. When Patients Arrive At The Test Site, They Are Required Stay In Their Vehicle. Team Members On Site Will Check Their Registration And Direct Them Through The Testing Process. For The Safety Of Patients And Health Care Providers On Site, Testing Is Limited To Drive-Thru Testing Only. For More Information About Test Site Locations, Hours Of Operations, And How To Register For A Test, Please Visit Https://Www.Cvs.Com/Minuteclinic/Covid-19-Testing.	-	-	Cvs Health Covid-19 Drive Thru Testing Site - By Appointment Only	-	California	Https://Www.Cvs.Com/Minuteclinic/Covid-19-Testing	-	92647	33.73	-118.01
602 North El Camino Real San Clemente, Ca 92672	San Clemente	Orange	-	Drive-Thru	See Website For Available Appointment Times	-	Rapid Covid-19 Testing Will Be Available To Eligible Individuals Who Meet Criteria Established By The Centers For Disease Control And Prevention, In Addition To State Residency And Age Guidelines (Must Be 18 Or Older). Patients Will Need To Pre-Register In Advance On-Line At Https://Www.Cvs.Com/Minuteclinic/Covid-19-Testing In Order To Schedule A Slot To Be Tested. When Patients Arrive At The Test Site, They Are Required Stay In Their Vehicle. Team Members On Site Will Check Their Registration And Direct Them Through The Testing Process. For The Safety Of Patients And Health Care Providers On Site, Testing Is Limited To Drive-Thru Testing Only. For More Information About Test Site Locations, Hours Of Operations, And How To Register For A Test, Please Visit Https://Www.Cvs.Com/Minuteclinic/Covid-19-Testing.	-	-	Cvs Health Covid-19 Drive Thru Testing Site - By Appointment Only	-	California	Https://Www.Cvs.Com/Minuteclinic/Covid-19-Testing	-	92672	33.3	-117.5
16922 Bolsa Chica Street Huntington Beach, Ca 92649	Huntington Beach	Orange	-	Drive-Thru	See Website For Available Appointment Times	-	Rapid Covid-19 Testing Will Be Available To Eligible Individuals Who Meet Criteria Established By The Centers For Disease Control And Prevention, In Addition To State Residency And Age Guidelines (Must Be 18 Or Older). Patients Will Need To Pre-Register In Advance On-Line At Https://Www.Cvs.Com/Minuteclinic/Covid-19-Testing In Order To Schedule A Slot To Be Tested. When Patients Arrive At The Test Site, They Are Required Stay In Their Vehicle. Team Members On Site Will Check Their Registration And Direct Them Through The Testing Process. For The Safety Of Patients And Health Care Providers On Site, Testing Is Limited To Drive-Thru Testing Only. For More Information About Test Site Locations, Hours Of Operations, And How To Register For A Test, Please Visit Https://Www.Cvs.Com/Minuteclinic/Covid-19-Testing.	-	-	Cvs Health Covid-19 Drive Thru Testing Site - By Appointment Only	-	California	Https://Www.Cvs.Com/Minuteclinic/Covid-19-Testing	-	92649	33.72	-118.05
12444 Beach Boulevard Stanton, Ca 90680	Stanton	Orange	-	Drive-Thru	See Website For Available Appointment Times	-	Rapid Covid-19 Testing Will Be Available To Eligible Individuals Who Meet Criteria Established By The Centers For Disease Control And Prevention, In Addition To State Residency And Age Guidelines (Must Be 18 Or Older). Patients Will Need To Pre-Register In Advance On-Line At Https://Www.Cvs.Com/Minuteclinic/Covid-19-Testing In Order To Schedule A Slot To Be Tested. When Patients Arrive At The Test Site, They Are Required Stay In Their Vehicle. Team Members On Site Will Check Their Registration And Direct Them Through The Testing Process. For The Safety Of Patients And Health Care Providers On Site, Testing Is Limited To Drive-Thru Testing Only. For More Information About Test Site Locations, Hours Of Operations, And How To Register For A Test, Please Visit Https://Www.Cvs.Com/Minuteclinic/Covid-19-Testing.	-	-	Cvs Health Covid-19 Drive Thru Testing Site - By Appointment Only	-	California	Https://Www.Cvs.Com/Minuteclinic/Covid-19-Testing	-	90680	33.79	-118.0
510 South Beach Boulevard Anaheim, Ca 92804	Anaheim	Orange	-	Drive-Thru	See Website For Available Appointment Times	-	Rapid Covid-19 Testing Will Be Available To Eligible Individuals Who Meet Criteria Established By The Centers For Disease Control And Prevention, In Addition To State Residency And Age Guidelines (Must Be 18 Or Older). Patients Will Need To Pre-Register In Advance On-Line At Https://Www.Cvs.Com/Minuteclinic/Covid-19-Testing In Order To Schedule A Slot To Be Tested. When Patients Arrive At The Test Site, They Are Required Stay In Their Vehicle. Team Members On Site Will Check Their Registration And Direct Them Through The Testing Process. For The Safety Of Patients And Health Care Providers On Site, Testing Is Limited To Drive-Thru Testing Only. For More Information About Test Site Locations, Hours Of Operations, And How To Register For A Test, Please Visit Https://Www.Cvs.Com/Minuteclinic/Covid-19-Testing.	-	-	Cvs Health Covid-19 Drive Thru Testing Site - By Appointment Only	-	California	Https://Www.Cvs.Com/Minuteclinic/Covid-19-Testing	-	92804	33.82	-117.98
611 South Brookhurst Street Anaheim, Ca 92804	Anaheim	Orange	-	Drive-Thru	See Website For Available Appointment Times	-	Rapid Covid-19 Testing Will Be Available To Eligible Individuals Who Meet Criteria Established By The Centers For Disease Control And Prevention, In Addition To State Residency And Age Guidelines (Must Be 18 Or Older). Patients Will Need To Pre-Register In Advance On-Line At Https://Www.Cvs.Com/Minuteclinic/Covid-19-Testing In Order To Schedule A Slot To Be Tested. When Patients Arrive At The Test Site, They Are Required Stay In Their Vehicle. Team Members On Site Will Check Their Registration And Direct Them Through The Testing Process. For The Safety Of Patients And Health Care Providers On Site, Testing Is Limited To Drive-Thru Testing Only. For More Information About Test Site Locations, Hours Of Operations, And How To Register For A Test, Please Visit Https://Www.Cvs.Com/Minuteclinic/Covid-19-Testing.	-	-	Cvs Health Covid-19 Drive Thru Testing Site - By Appointment Only	-	California	Https://Www.Cvs.Com/Minuteclinic/Covid-19-Testing	-	92804	33.82	-117.98
17625 Harvard Avenue Irvine, Ca 92614	Irvine	Orange	-	Drive-Thru	See Website For Available Appointment Times	-	Rapid Covid-19 Testing Will Be Available To Eligible Individuals Who Meet Criteria Established By The Centers For Disease Control And Prevention, In Addition To State Residency And Age Guidelines (Must Be 18 Or Older). Patients Will Need To Pre-Register In Advance On-Line At Https://Www.Cvs.Com/Minuteclinic/Covid-19-Testing In Order To Schedule A Slot To Be Tested. When Patients Arrive At The Test Site, They Are Required Stay In Their Vehicle. Team Members On Site Will Check Their Registration And Direct Them Through The Testing Process. For The Safety Of Patients And Health Care Providers On Site, Testing Is Limited To Drive-Thru Testing Only. For More Information About Test Site Locations, Hours Of Operations, And How To Register For A Test, Please Visit Https://Www.Cvs.Com/Minuteclinic/Covid-19-Testing.	-	-	Cvs Health Covid-19 Drive Thru Testing Site - By Appointment Only	-	California	Https://Www.Cvs.Com/Minuteclinic/Covid-19-Testing	-	92614	33.68	-117.83
455 North State College Boulevard Fullerton, Ca 92831	Fullerton	Orange	-	Drive-Thru	See Website For Available Appointment Times	-	Rapid Covid-19 Testing Will Be Available To Eligible Individuals Who Meet Criteria Established By The Centers For Disease Control And Prevention, In Addition To State Residency And Age Guidelines (Must Be 18 Or Older). Patients Will Need To Pre-Register In Advance On-Line At Https://Www.Cvs.Com/Minuteclinic/Covid-19-Testing In Order To Schedule A Slot To Be Tested. When Patients Arrive At The Test Site, They Are Required Stay In Their Vehicle. Team Members On Site Will Check Their Registration And Direct Them Through The Testing Process. For The Safety Of Patients And Health Care Providers On Site, Testing Is Limited To Drive-Thru Testing Only. For More Information About Test Site Locations, Hours Of Operations, And How To Register For A Test, Please Visit Https://Www.Cvs.Com/Minuteclinic/Covid-19-Testing.	-	-	Cvs Health Covid-19 Drive Thru Testing Site - By Appointment Only	-	California	Https://Www.Cvs.Com/Minuteclinic/Covid-19-Testing	-	92831	33.88	-117.89
1151 South Harbor Boulevard La Habra, Ca 90631	La Habra	Orange	-	Drive-Thru	See Website For Available Appointment Times	-	Rapid Covid-19 Testing Will Be Available To Eligible Individuals Who Meet Criteria Established By The Centers For Disease Control And Prevention, In Addition To State Residency And Age Guidelines (Must Be 18 Or Older). Patients Will Need To Pre-Register In Advance On-Line At Https://Www.Cvs.Com/Minuteclinic/Covid-19-Testing In Order To Schedule A Slot To Be Tested. When Patients Arrive At The Test Site, They Are Required Stay In Their Vehicle. Team Members On Site Will Check Their Registration And Direct Them Through The Testing Process. For The Safety Of Patients And Health Care Providers On Site, Testing Is Limited To Drive-Thru Testing Only. For More Information About Test Site Locations, Hours Of Operations, And How To Register For A Test, Please Visit Https://Www.Cvs.Com/Minuteclinic/Covid-19-Testing.	-	-	Cvs Health Covid-19 Drive Thru Testing Site - By Appointment Only	-	California	Https://Www.Cvs.Com/Minuteclinic/Covid-19-Testing	-	90631	33.94	-117.95
15180 Kensington Park Drive Tustin, Ca 92782	Tustin	Orange	-	Drive-Thru	See Website For Available Appointment Times	-	Rapid Covid-19 Testing Will Be Available To Eligible Individuals Who Meet Criteria Established By The Centers For Disease Control And Prevention, In Addition To State Residency And Age Guidelines (Must Be 18 Or Older). Patients Will Need To Pre-Register In Advance On-Line At Https://Www.Cvs.Com/Minuteclinic/Covid-19-Testing In Order To Schedule A Slot To Be Tested. When Patients Arrive At The Test Site, They Are Required Stay In Their Vehicle. Team Members On Site Will Check Their Registration And Direct Them Through The Testing Process. For The Safety Of Patients And Health Care Providers On Site, Testing Is Limited To Drive-Thru Testing Only. For More Information About Test Site Locations, Hours Of Operations, And How To Register For A Test, Please Visit Https://Www.Cvs.Com/Minuteclinic/Covid-19-Testing.	-	-	Cvs Health Covid-19 Drive Thru Testing Site - By Appointment Only	-	California	Https://Www.Cvs.Com/Minuteclinic/Covid-19-Testing	-	92782	33.73	-117.8
1676 W.  Katella Avenue	Anaheim	Orange	-	Drive-Thru	See Website For Available Appointment Times	-	Rapid Covid-19 Testing Will Be Available To Eligible Individuals Who Meet Criteria Established By The Centers For Disease Control And Prevention, In Addition To State Residency And Age Guidelines (Must Be 18 Or Older). Patients Will Need To Pre-Register In Advance On-Line At Https://Www.Cvs.Com/Minuteclinic/Covid-19-Testing In Order To Schedule A Slot To Be Tested. When Patients Arrive At The Test Site, They Are Required Stay In Their Vehicle. Team Members On Site Will Check Their Registration And Direct Them Through The Testing Process. For The Safety Of Patients And Health Care Providers On Site, Testing Is Limited To Drive-Thru Testing Only. For More Information About Test Site Locations, Hours Of Operations, And How To Register For A Test, Please Visit Https://Www.Cvs.Com/Minuteclinic/Covid-19-Testing.	-	-	Cvs Health Covid-19 Drive Thru Testing Site - By Appointment Only	-	California	Https://Www.Cvs.Com/Minuteclinic/Covid-19-Testing	-	92802	33.81	-117.92
5862 Edinger Ave, Huntington Beach, Ca 92649	Huntington Beach	Orange	Laboratory Management	Laboratory	Appointment Only	Yes	Only Testing Sars-Cov-2 Igg Antibody Testing	-	-	Pmh Laboratory, Inc.	5625922890	California	-	No	92649	33.72	-118.05
Multiple Locations	-	Orange	-	Drive-Thru	-	Yes	-	-	-	Providence Health Systems	-	California	Https://Www.Ocregister.Com/2020/03/16/Drive-Thru-Coronavirus-Swabs-Starts-At-Two-Orange-County-Hospitals/	No	-	-	-
1771 Pleasant Grove Boulevard	Roseville	Placer	-	Drive-Thru	See Website For Available Appointment Times	-	Rapid Covid-19 Testing Will Be Available To Eligible Individuals Who Meet Criteria Established By The Centers For Disease Control And Prevention, In Addition To State Residency And Age Guidelines (Must Be 18 Or Older). Patients Will Need To Pre-Register In Advance On-Line At Https://Www.Cvs.Com/Minuteclinic/Covid-19-Testing In Order To Schedule A Slot To Be Tested. When Patients Arrive At The Test Site, They Are Required Stay In Their Vehicle. Team Members On Site Will Check Their Registration And Direct Them Through The Testing Process. For The Safety Of Patients And Health Care Providers On Site, Testing Is Limited To Drive-Thru Testing Only. For More Information About Test Site Locations, Hours Of Operations, And How To Register For A Test, Please Visit Https://Www.Cvs.Com/Minuteclinic/Covid-19-Testing.	-	-	Cvs Health Covid-19 Drive Thru Testing Site - By Appointment Only	-	California	Https://Www.Cvs.Com/Minuteclinic/Covid-19-Testing	-	95747	38.78	-121.37
14220 Schleisman Road, Eastvale, Ca 92880	Eastvale	Riverside	-	Drive-Thru	See Website For Available Appointment Times	-	Rapid Covid-19 Testing Will Be Available To Eligible Individuals Who Meet Criteria Established By The Centers For Disease Control And Prevention, In Addition To State Residency And Age Guidelines (Must Be 18 Or Older). Patients Will Need To Pre-Register In Advance On-Line At Https://Www.Cvs.Com/Minuteclinic/Covid-19-Testing In Order To Schedule A Slot To Be Tested. When Patients Arrive At The Test Site, They Are Required Stay In Their Vehicle. Team Members On Site Will Check Their Registration And Direct Them Through The Testing Process. For The Safety Of Patients And Health Care Providers On Site, Testing Is Limited To Drive-Thru Testing Only. For More Information About Test Site Locations, Hours Of Operations, And How To Register For A Test, Please Visit Https://Www.Cvs.Com/Minuteclinic/Covid-19-Testing.	-	-	Cvs Health Covid-19 Drive Thru Testing Site - By Appointment Only	-	California	Https://Www.Cvs.Com/Minuteclinic/Covid-19-Testing	-	92880	33.93	-117.62
491 East Alessandro Boulevard, Riverside, Ca 92508	Riverside	Riverside	-	Drive-Thru	See Website For Available Appointment Times	-	Rapid Covid-19 Testing Will Be Available To Eligible Individuals Who Meet Criteria Established By The Centers For Disease Control And Prevention, In Addition To State Residency And Age Guidelines (Must Be 18 Or Older). Patients Will Need To Pre-Register In Advance On-Line At Https://Www.Cvs.Com/Minuteclinic/Covid-19-Testing In Order To Schedule A Slot To Be Tested. When Patients Arrive At The Test Site, They Are Required Stay In Their Vehicle. Team Members On Site Will Check Their Registration And Direct Them Through The Testing Process. For The Safety Of Patients And Health Care Providers On Site, Testing Is Limited To Drive-Thru Testing Only. For More Information About Test Site Locations, Hours Of Operations, And How To Register For A Test, Please Visit Https://Www.Cvs.Com/Minuteclinic/Covid-19-Testing.	-	-	Cvs Health Covid-19 Drive Thru Testing Site - By Appointment Only	-	California	Https://Www.Cvs.Com/Minuteclinic/Covid-19-Testing	-	92508	33.89	-117.33
42150 A Jackson Street Indio, Ca 92203	Indio	Riverside	-	Drive-Thru	See Website For Available Appointment Times	-	Rapid Covid-19 Testing Will Be Available To Eligible Individuals Who Meet Criteria Established By The Centers For Disease Control And Prevention, In Addition To State Residency And Age Guidelines (Must Be 18 Or Older). Patients Will Need To Pre-Register In Advance On-Line At Https://Www.Cvs.Com/Minuteclinic/Covid-19-Testing In Order To Schedule A Slot To Be Tested. When Patients Arrive At The Test Site, They Are Required Stay In Their Vehicle. Team Members On Site Will Check Their Registration And Direct Them Through The Testing Process. For The Safety Of Patients And Health Care Providers On Site, Testing Is Limited To Drive-Thru Testing Only. For More Information About Test Site Locations, Hours Of Operations, And How To Register For A Test, Please Visit Https://Www.Cvs.Com/Minuteclinic/Covid-19-Testing.	-	-	Cvs Health Covid-19 Drive Thru Testing Site - By Appointment Only	-	California	Https://Www.Cvs.Com/Minuteclinic/Covid-19-Testing	-	92203	33.7	-116.2
44075 Jefferson Street La Quinta, Ca 92253	La Quinta	Riverside	-	Drive-Thru	See Website For Available Appointment Times	-	Rapid Covid-19 Testing Will Be Available To Eligible Individuals Who Meet Criteria Established By The Centers For Disease Control And Prevention, In Addition To State Residency And Age Guidelines (Must Be 18 Or Older). Patients Will Need To Pre-Register In Advance On-Line At Https://Www.Cvs.Com/Minuteclinic/Covid-19-Testing In Order To Schedule A Slot To Be Tested. When Patients Arrive At The Test Site, They Are Required Stay In Their Vehicle. Team Members On Site Will Check Their Registration And Direct Them Through The Testing Process. For The Safety Of Patients And Health Care Providers On Site, Testing Is Limited To Drive-Thru Testing Only. For More Information About Test Site Locations, Hours Of Operations, And How To Register For A Test, Please Visit Https://Www.Cvs.Com/Minuteclinic/Covid-19-Testing.	-	-	Cvs Health Covid-19 Drive Thru Testing Site - By Appointment Only	-	California	Https://Www.Cvs.Com/Minuteclinic/Covid-19-Testing	-	92253	33.67	-116.28
84010 Avenue 50 Coachella, Ca 92236	Coachella	Riverside	-	Drive-Thru	See Website For Available Appointment Times	-	Rapid Covid-19 Testing Will Be Available To Eligible Individuals Who Meet Criteria Established By The Centers For Disease Control And Prevention, In Addition To State Residency And Age Guidelines (Must Be 18 Or Older). Patients Will Need To Pre-Register In Advance On-Line At Https://Www.Cvs.Com/Minuteclinic/Covid-19-Testing In Order To Schedule A Slot To Be Tested. When Patients Arrive At The Test Site, They Are Required Stay In Their Vehicle. Team Members On Site Will Check Their Registration And Direct Them Through The Testing Process. For The Safety Of Patients And Health Care Providers On Site, Testing Is Limited To Drive-Thru Testing Only. For More Information About Test Site Locations, Hours Of Operations, And How To Register For A Test, Please Visit Https://Www.Cvs.Com/Minuteclinic/Covid-19-Testing.	-	-	Cvs Health Covid-19 Drive Thru Testing Site - By Appointment Only	-	California	Https://Www.Cvs.Com/Minuteclinic/Covid-19-Testing	-	92236	33.69	-116.15
23743 Jackson Avenue Murrieta, Ca 92562	Murrieta	Riverside	-	Drive-Thru	See Website For Available Appointment Times	-	Rapid Covid-19 Testing Will Be Available To Eligible Individuals Who Meet Criteria Established By The Centers For Disease Control And Prevention, In Addition To State Residency And Age Guidelines (Must Be 18 Or Older). Patients Will Need To Pre-Register In Advance On-Line At Https://Www.Cvs.Com/Minuteclinic/Covid-19-Testing In Order To Schedule A Slot To Be Tested. When Patients Arrive At The Test Site, They Are Required Stay In Their Vehicle. Team Members On Site Will Check Their Registration And Direct Them Through The Testing Process. For The Safety Of Patients And Health Care Providers On Site, Testing Is Limited To Drive-Thru Testing Only. For More Information About Test Site Locations, Hours Of Operations, And How To Register For A Test, Please Visit Https://Www.Cvs.Com/Minuteclinic/Covid-19-Testing.	-	-	Cvs Health Covid-19 Drive Thru Testing Site - By Appointment Only	-	California	Https://Www.Cvs.Com/Minuteclinic/Covid-19-Testing	-	92562	33.5	-117.3
102 South Sanderson Road San Jacinto, Ca 92582	San Jacinto	Riverside	-	Drive-Thru	See Website For Available Appointment Times	-	Rapid Covid-19 Testing Will Be Available To Eligible Individuals Who Meet Criteria Established By The Centers For Disease Control And Prevention, In Addition To State Residency And Age Guidelines (Must Be 18 Or Older). Patients Will Need To Pre-Register In Advance On-Line At Https://Www.Cvs.Com/Minuteclinic/Covid-19-Testing In Order To Schedule A Slot To Be Tested. When Patients Arrive At The Test Site, They Are Required Stay In Their Vehicle. Team Members On Site Will Check Their Registration And Direct Them Through The Testing Process. For The Safety Of Patients And Health Care Providers On Site, Testing Is Limited To Drive-Thru Testing Only. For More Information About Test Site Locations, Hours Of Operations, And How To Register For A Test, Please Visit Https://Www.Cvs.Com/Minuteclinic/Covid-19-Testing.	-	-	Cvs Health Covid-19 Drive Thru Testing Site - By Appointment Only	-	California	Https://Www.Cvs.Com/Minuteclinic/Covid-19-Testing	-	92582	33.81	-117.02
1299 E. Ontario Ave Corona, Ca 92881	Corona	Riverside	-	Drive-Thru	See Website For Available Appointment Times	-	Rapid Covid-19 Testing Will Be Available To Eligible Individuals Who Meet Criteria Established By The Centers For Disease Control And Prevention, In Addition To State Residency And Age Guidelines (Must Be 18 Or Older). Patients Will Need To Pre-Register In Advance On-Line At Https://Www.Cvs.Com/Minuteclinic/Covid-19-Testing In Order To Schedule A Slot To Be Tested. When Patients Arrive At The Test Site, They Are Required Stay In Their Vehicle. Team Members On Site Will Check Their Registration And Direct Them Through The Testing Process. For The Safety Of Patients And Health Care Providers On Site, Testing Is Limited To Drive-Thru Testing Only. For More Information About Test Site Locations, Hours Of Operations, And How To Register For A Test, Please Visit Https://Www.Cvs.Com/Minuteclinic/Covid-19-Testing.	-	-	Cvs Health Covid-19 Drive Thru Testing Site - By Appointment Only	-	California	Https://Www.Cvs.Com/Minuteclinic/Covid-19-Testing	-	92881	33.83	-117.51
6840 Lincoln Avenue Riverside, Ca 92506	Riverside	Riverside	-	Drive-Thru	See Website For Available Appointment Times	-	Rapid Covid-19 Testing Will Be Available To Eligible Individuals Who Meet Criteria Established By The Centers For Disease Control And Prevention, In Addition To State Residency And Age Guidelines (Must Be 18 Or Older). Patients Will Need To Pre-Register In Advance On-Line At Https://Www.Cvs.Com/Minuteclinic/Covid-19-Testing In Order To Schedule A Slot To Be Tested. When Patients Arrive At The Test Site, They Are Required Stay In Their Vehicle. Team Members On Site Will Check Their Registration And Direct Them Through The Testing Process. For The Safety Of Patients And Health Care Providers On Site, Testing Is Limited To Drive-Thru Testing Only. For More Information About Test Site Locations, Hours Of Operations, And How To Register For A Test, Please Visit Https://Www.Cvs.Com/Minuteclinic/Covid-19-Testing.	-	-	Cvs Health Covid-19 Drive Thru Testing Site - By Appointment Only	-	California	Https://Www.Cvs.Com/Minuteclinic/Covid-19-Testing	-	92506	33.93	-117.36
425 South Sunrise Way Palm Springs, Ca 92262	Palm Springs	Riverside	-	Drive-Thru	See Website For Available Appointment Times	-	Rapid Covid-19 Testing Will Be Available To Eligible Individuals Who Meet Criteria Established By The Centers For Disease Control And Prevention, In Addition To State Residency And Age Guidelines (Must Be 18 Or Older). Patients Will Need To Pre-Register In Advance On-Line At Https://Www.Cvs.Com/Minuteclinic/Covid-19-Testing In Order To Schedule A Slot To Be Tested. When Patients Arrive At The Test Site, They Are Required Stay In Their Vehicle. Team Members On Site Will Check Their Registration And Direct Them Through The Testing Process. For The Safety Of Patients And Health Care Providers On Site, Testing Is Limited To Drive-Thru Testing Only. For More Information About Test Site Locations, Hours Of Operations, And How To Register For A Test, Please Visit Https://Www.Cvs.Com/Minuteclinic/Covid-19-Testing.	-	-	Cvs Health Covid-19 Drive Thru Testing Site - By Appointment Only	-	California	Https://Www.Cvs.Com/Minuteclinic/Covid-19-Testing	-	92262	33.86	-116.58
31771 Rancho California Road Temecula, Ca 92591	Temecula	Riverside	-	Drive-Thru	See Website For Available Appointment Times	-	Rapid Covid-19 Testing Will Be Available To Eligible Individuals Who Meet Criteria Established By The Centers For Disease Control And Prevention, In Addition To State Residency And Age Guidelines (Must Be 18 Or Older). Patients Will Need To Pre-Register In Advance On-Line At Https://Www.Cvs.Com/Minuteclinic/Covid-19-Testing In Order To Schedule A Slot To Be Tested. When Patients Arrive At The Test Site, They Are Required Stay In Their Vehicle. Team Members On Site Will Check Their Registration And Direct Them Through The Testing Process. For The Safety Of Patients And Health Care Providers On Site, Testing Is Limited To Drive-Thru Testing Only. For More Information About Test Site Locations, Hours Of Operations, And How To Register For A Test, Please Visit Https://Www.Cvs.Com/Minuteclinic/Covid-19-Testing.	-	-	Cvs Health Covid-19 Drive Thru Testing Site - By Appointment Only	-	California	Https://Www.Cvs.Com/Minuteclinic/Covid-19-Testing	-	92591	33.53	-117.1
2400 River Road Corona, Ca 92860	Norco	Riverside	-	Drive-Thru	See Website For Available Appointment Times	-	Rapid Covid-19 Testing Will Be Available To Eligible Individuals Who Meet Criteria Established By The Centers For Disease Control And Prevention, In Addition To State Residency And Age Guidelines (Must Be 18 Or Older). Patients Will Need To Pre-Register In Advance On-Line At Https://Www.Cvs.Com/Minuteclinic/Covid-19-Testing In Order To Schedule A Slot To Be Tested. When Patients Arrive At The Test Site, They Are Required Stay In Their Vehicle. Team Members On Site Will Check Their Registration And Direct Them Through The Testing Process. For The Safety Of Patients And Health Care Providers On Site, Testing Is Limited To Drive-Thru Testing Only. For More Information About Test Site Locations, Hours Of Operations, And How To Register For A Test, Please Visit Https://Www.Cvs.Com/Minuteclinic/Covid-19-Testing.	-	-	Cvs Health Covid-19 Drive Thru Testing Site - By Appointment Only	-	California	Https://Www.Cvs.Com/Minuteclinic/Covid-19-Testing	-	92860	33.93	-117.55
23791 Washington Avenue	Murrieta	Riverside	-	Drive-Thru	See Website For Available Appointment Times	-	Rapid Covid-19 Testing Will Be Available To Eligible Individuals Who Meet Criteria Established By The Centers For Disease Control And Prevention, In Addition To State Residency And Age Guidelines (Must Be 18 Or Older). Patients Will Need To Pre-Register In Advance On-Line At Https://Www.Cvs.Com/Minuteclinic/Covid-19-Testing In Order To Schedule A Slot To Be Tested. When Patients Arrive At The Test Site, They Are Required Stay In Their Vehicle. Team Members On Site Will Check Their Registration And Direct Them Through The Testing Process. For The Safety Of Patients And Health Care Providers On Site, Testing Is Limited To Drive-Thru Testing Only. For More Information About Test Site Locations, Hours Of Operations, And How To Register For A Test, Please Visit Https://Www.Cvs.Com/Minuteclinic/Covid-19-Testing.	-	-	Cvs Health Covid-19 Drive Thru Testing Site - By Appointment Only	-	California	Https://Www.Cvs.Com/Minuteclinic/Covid-19-Testing	-	92562	33.5	-117.3
82-270 Highway 111	Indio	Riverside	-	Drive-Thru	See Website For Available Appointment Times	-	Rapid Covid-19 Testing Will Be Available To Eligible Individuals Who Meet Criteria Established By The Centers For Disease Control And Prevention, In Addition To State Residency And Age Guidelines (Must Be 18 Or Older). Patients Will Need To Pre-Register In Advance On-Line At Https://Www.Cvs.Com/Minuteclinic/Covid-19-Testing In Order To Schedule A Slot To Be Tested. When Patients Arrive At The Test Site, They Are Required Stay In Their Vehicle. Team Members On Site Will Check Their Registration And Direct Them Through The Testing Process. For The Safety Of Patients And Health Care Providers On Site, Testing Is Limited To Drive-Thru Testing Only. For More Information About Test Site Locations, Hours Of Operations, And How To Register For A Test, Please Visit Https://Www.Cvs.Com/Minuteclinic/Covid-19-Testing.	-	-	Cvs Health Covid-19 Drive Thru Testing Site - By Appointment Only	-	California	Https://Www.Cvs.Com/Minuteclinic/Covid-19-Testing	-	92201	33.7	-116.23
1101 Hidden Valley Parkway	Norco	Riverside	-	Drive-Thru	See Website For Available Appointment Times	-	Rapid Covid-19 Testing Will Be Available To Eligible Individuals Who Meet Criteria Established By The Centers For Disease Control And Prevention, In Addition To State Residency And Age Guidelines (Must Be 18 Or Older). Patients Will Need To Pre-Register In Advance On-Line At Https://Www.Cvs.Com/Minuteclinic/Covid-19-Testing In Order To Schedule A Slot To Be Tested. When Patients Arrive At The Test Site, They Are Required Stay In Their Vehicle. Team Members On Site Will Check Their Registration And Direct Them Through The Testing Process. For The Safety Of Patients And Health Care Providers On Site, Testing Is Limited To Drive-Thru Testing Only. For More Information About Test Site Locations, Hours Of Operations, And How To Register For A Test, Please Visit Https://Www.Cvs.Com/Minuteclinic/Covid-19-Testing.	-	-	Cvs Health Covid-19 Drive Thru Testing Site - By Appointment Only	-	California	Https://Www.Cvs.Com/Minuteclinic/Covid-19-Testing	-	92860	33.93	-117.55
500 Diamond Dr, Lake Elsinore, Ca 92530	Lake Elsinore	Riverside	-	Drive-Thru	9:30 Am - 3 Pm Sunday - Thursday	Yes	 You Must Call 800-945-6171 To Schedule An Appointment. Call Wait Times May Vary. Drive-Ups Without Appointments Cannot Be Accommodated. You Must Have Symptoms (Some Of The Symptoms Include Fever, Sore Throat, Cough, Runny Nose Or Congestion), Or Those Who Have Risk Of Exposure May Also Be Tested, Which Means Exposure To A Confirmed Case Or Have Traveled To An Affected Area.	-	-	Diamond Stadium	800-945-6171	California	Http://Www.Lake-Elsinore.Org/City-Hall/Public-Safety/Covid-19-Info/Covid-19-Testing-At-Diamond-Stadium	No	92530	33.6	-117.4
1117 E Devonshire Ave, Hemet, Ca 92543	Hemet	Riverside	-	Drive-Thru	By Appointment Only	Yes	Contact Primary Care Physician. Physician Must Fax Prescription To The Fax Number Provided. Prescription Will Be Reviewed For Eligibility And An Appointment Will Be Made If Eligible.	-	-	Hemet Global Medical Center	Fax Prescription To: 951-791-4150	California	Http://Hemetglobalmedcenter.Com/	No	92543	33.71	-116.99
Lake Elsinore, Ca	Lake Elsinore	Riverside	-	Drive-Thru	-	Yes	Visit Https://Www.Projectbaseline.Com/Study/Covid-19/ To Get Started With A Screening. Once You'Ve Taken The Screening, You Will Be Told If You Meet The Requirements For Testing Eligibility. You Will Then Be Given An Appointment At A Testing Site And Told When And Where To Go.	-	-	Project Baseline By Verily	-	California	Https://Www.Projectbaseline.Com/Study/Covid-19/	No	-	-	-
8101 Greenback Lane, Fair Oaks, Ca 95627	Fair Oaks	Sacramento	-	Drive-Thru	See Website For Available Appointment Times	-	Rapid Covid-19 Testing Will Be Available To Eligible Individuals Who Meet Criteria Established By The Centers For Disease Control And Prevention, In Addition To State Residency And Age Guidelines (Must Be 18 Or Older). Patients Will Need To Pre-Register In Advance On-Line At Https://Www.Cvs.Com/Minuteclinic/Covid-19-Testing In Order To Schedule A Slot To Be Tested. When Patients Arrive At The Test Site, They Are Required Stay In Their Vehicle. Team Members On Site Will Check Their Registration And Direct Them Through The Testing Process. For The Safety Of Patients And Health Care Providers On Site, Testing Is Limited To Drive-Thru Testing Only. For More Information About Test Site Locations, Hours Of Operations, And How To Register For A Test, Please Visit Https://Www.Cvs.Com/Minuteclinic/Covid-19-Testing.	-	-	Cvs Health Covid-19 Drive Thru Testing Site - By Appointment Only	-	California	Https://Www.Cvs.Com/Minuteclinic/Covid-19-Testing	-	95627	38.7	-122.0
1350 Florin Road, Sacramento, Ca 95831	Sacramento	Sacramento	-	Drive-Thru	See Website For Available Appointment Times	-	Rapid Covid-19 Testing Will Be Available To Eligible Individuals Who Meet Criteria Established By The Centers For Disease Control And Prevention, In Addition To State Residency And Age Guidelines (Must Be 18 Or Older). Patients Will Need To Pre-Register In Advance On-Line At Https://Www.Cvs.Com/Minuteclinic/Covid-19-Testing In Order To Schedule A Slot To Be Tested. When Patients Arrive At The Test Site, They Are Required Stay In Their Vehicle. Team Members On Site Will Check Their Registration And Direct Them Through The Testing Process. For The Safety Of Patients And Health Care Providers On Site, Testing Is Limited To Drive-Thru Testing Only. For More Information About Test Site Locations, Hours Of Operations, And How To Register For A Test, Please Visit Https://Www.Cvs.Com/Minuteclinic/Covid-19-Testing.	-	-	Cvs Health Covid-19 Drive Thru Testing Site - By Appointment Only	-	California	Https://Www.Cvs.Com/Minuteclinic/Covid-19-Testing	-	95831	38.52	-121.53
5039 Folsom Boulevard Sacramento, Ca 95819-4440	Sacramento	Sacramento	-	Drive-Thru	See Website For Available Appointment Times	-	Rapid Covid-19 Testing Will Be Available To Eligible Individuals Who Meet Criteria Established By The Centers For Disease Control And Prevention, In Addition To State Residency And Age Guidelines (Must Be 18 Or Older). Patients Will Need To Pre-Register In Advance On-Line At Https://Www.Cvs.Com/Minuteclinic/Covid-19-Testing In Order To Schedule A Slot To Be Tested. When Patients Arrive At The Test Site, They Are Required Stay In Their Vehicle. Team Members On Site Will Check Their Registration And Direct Them Through The Testing Process. For The Safety Of Patients And Health Care Providers On Site, Testing Is Limited To Drive-Thru Testing Only. For More Information About Test Site Locations, Hours Of Operations, And How To Register For A Test, Please Visit Https://Www.Cvs.Com/Minuteclinic/Covid-19-Testing.	-	-	Cvs Health Covid-19 Drive Thru Testing Site - By Appointment Only	-	California	Https://Www.Cvs.Com/Minuteclinic/Covid-19-Testing	-	95819	38.57	-121.44
2050 Club Center Drive Sacramento, Ca 95835	Sacramento	Sacramento	-	Drive-Thru	See Website For Available Appointment Times	-	Rapid Covid-19 Testing Will Be Available To Eligible Individuals Who Meet Criteria Established By The Centers For Disease Control And Prevention, In Addition To State Residency And Age Guidelines (Must Be 18 Or Older). Patients Will Need To Pre-Register In Advance On-Line At Https://Www.Cvs.Com/Minuteclinic/Covid-19-Testing In Order To Schedule A Slot To Be Tested. When Patients Arrive At The Test Site, They Are Required Stay In Their Vehicle. Team Members On Site Will Check Their Registration And Direct Them Through The Testing Process. For The Safety Of Patients And Health Care Providers On Site, Testing Is Limited To Drive-Thru Testing Only. For More Information About Test Site Locations, Hours Of Operations, And How To Register For A Test, Please Visit Https://Www.Cvs.Com/Minuteclinic/Covid-19-Testing.	-	-	Cvs Health Covid-19 Drive Thru Testing Site - By Appointment Only	-	California	Https://Www.Cvs.Com/Minuteclinic/Covid-19-Testing	-	95835	38.67	-121.53
2636 Marconi Avenue Sacramento, Ca 95821	Sacramento	Sacramento	-	Drive-Thru	See Website For Available Appointment Times	-	Rapid Covid-19 Testing Will Be Available To Eligible Individuals Who Meet Criteria Established By The Centers For Disease Control And Prevention, In Addition To State Residency And Age Guidelines (Must Be 18 Or Older). Patients Will Need To Pre-Register In Advance On-Line At Https://Www.Cvs.Com/Minuteclinic/Covid-19-Testing In Order To Schedule A Slot To Be Tested. When Patients Arrive At The Test Site, They Are Required Stay In Their Vehicle. Team Members On Site Will Check Their Registration And Direct Them Through The Testing Process. For The Safety Of Patients And Health Care Providers On Site, Testing Is Limited To Drive-Thru Testing Only. For More Information About Test Site Locations, Hours Of Operations, And How To Register For A Test, Please Visit Https://Www.Cvs.Com/Minuteclinic/Covid-19-Testing.	-	-	Cvs Health Covid-19 Drive Thru Testing Site - By Appointment Only	-	California	Https://Www.Cvs.Com/Minuteclinic/Covid-19-Testing	-	95821	38.63	-121.38
3710 Franklin Boulevard Sacramento, Ca 95820	Sacramento	Sacramento	-	Drive-Thru	See Website For Available Appointment Times	-	Rapid Covid-19 Testing Will Be Available To Eligible Individuals Who Meet Criteria Established By The Centers For Disease Control And Prevention, In Addition To State Residency And Age Guidelines (Must Be 18 Or Older). Patients Will Need To Pre-Register In Advance On-Line At Https://Www.Cvs.Com/Minuteclinic/Covid-19-Testing In Order To Schedule A Slot To Be Tested. When Patients Arrive At The Test Site, They Are Required Stay In Their Vehicle. Team Members On Site Will Check Their Registration And Direct Them Through The Testing Process. For The Safety Of Patients And Health Care Providers On Site, Testing Is Limited To Drive-Thru Testing Only. For More Information About Test Site Locations, Hours Of Operations, And How To Register For A Test, Please Visit Https://Www.Cvs.Com/Minuteclinic/Covid-19-Testing.	-	-	Cvs Health Covid-19 Drive Thru Testing Site - By Appointment Only	-	California	Https://Www.Cvs.Com/Minuteclinic/Covid-19-Testing	-	95820	38.54	-121.45
5420 Dewey Drive Fair Oaks, Ca 95628	Fair Oaks	Sacramento	-	Drive-Thru	See Website For Available Appointment Times	-	Rapid Covid-19 Testing Will Be Available To Eligible Individuals Who Meet Criteria Established By The Centers For Disease Control And Prevention, In Addition To State Residency And Age Guidelines (Must Be 18 Or Older). Patients Will Need To Pre-Register In Advance On-Line At Https://Www.Cvs.Com/Minuteclinic/Covid-19-Testing In Order To Schedule A Slot To Be Tested. When Patients Arrive At The Test Site, They Are Required Stay In Their Vehicle. Team Members On Site Will Check Their Registration And Direct Them Through The Testing Process. For The Safety Of Patients And Health Care Providers On Site, Testing Is Limited To Drive-Thru Testing Only. For More Information About Test Site Locations, Hours Of Operations, And How To Register For A Test, Please Visit Https://Www.Cvs.Com/Minuteclinic/Covid-19-Testing.	-	-	Cvs Health Covid-19 Drive Thru Testing Site - By Appointment Only	-	California	Https://Www.Cvs.Com/Minuteclinic/Covid-19-Testing	-	95628	38.66	-121.26
2085 Fair Oaks Boulevard Bldg 2 Sacramento, Ca 95825	Sacramento	Sacramento	-	Drive-Thru	See Website For Available Appointment Times	-	Rapid Covid-19 Testing Will Be Available To Eligible Individuals Who Meet Criteria Established By The Centers For Disease Control And Prevention, In Addition To State Residency And Age Guidelines (Must Be 18 Or Older). Patients Will Need To Pre-Register In Advance On-Line At Https://Www.Cvs.Com/Minuteclinic/Covid-19-Testing In Order To Schedule A Slot To Be Tested. When Patients Arrive At The Test Site, They Are Required Stay In Their Vehicle. Team Members On Site Will Check Their Registration And Direct Them Through The Testing Process. For The Safety Of Patients And Health Care Providers On Site, Testing Is Limited To Drive-Thru Testing Only. For More Information About Test Site Locations, Hours Of Operations, And How To Register For A Test, Please Visit Https://Www.Cvs.Com/Minuteclinic/Covid-19-Testing.	-	-	Cvs Health Covid-19 Drive Thru Testing Site - By Appointment Only	-	California	Https://Www.Cvs.Com/Minuteclinic/Covid-19-Testing	-	95825	38.59	-121.41
6401 Mack Road Sacramento, Ca 95823	Sacramento	Sacramento	-	Drive-Thru	See Website For Available Appointment Times	-	Rapid Covid-19 Testing Will Be Available To Eligible Individuals Who Meet Criteria Established By The Centers For Disease Control And Prevention, In Addition To State Residency And Age Guidelines (Must Be 18 Or Older). Patients Will Need To Pre-Register In Advance On-Line At Https://Www.Cvs.Com/Minuteclinic/Covid-19-Testing In Order To Schedule A Slot To Be Tested. When Patients Arrive At The Test Site, They Are Required Stay In Their Vehicle. Team Members On Site Will Check Their Registration And Direct Them Through The Testing Process. For The Safety Of Patients And Health Care Providers On Site, Testing Is Limited To Drive-Thru Testing Only. For More Information About Test Site Locations, Hours Of Operations, And How To Register For A Test, Please Visit Https://Www.Cvs.Com/Minuteclinic/Covid-19-Testing.	-	-	Cvs Health Covid-19 Drive Thru Testing Site - By Appointment Only	-	California	Https://Www.Cvs.Com/Minuteclinic/Covid-19-Testing	-	95823	38.47	-121.44
Sacramento, Ca	Sacramento	Sacramento	-	Drive-Thru	-	Yes	Visit Https://Www.Projectbaseline.Com/Study/Covid-19/ To Get Started With A Screening. Once You'Ve Taken The Screening, You Will Be Told If You Meet The Requirements For Testing Eligibility. You Will Then Be Given An Appointment At A Testing Site And Told When And Where To Go.	-	-	Project Baseline By Verily	-	California	Https://Www.Projectbaseline.Com/Study/Covid-19/	No	-	-	-
2315 Stockton Blvd, Sacramento, Ca 95817	Sacramento	Sacramento	-	Hospital	24 Hours	No	Tests Are Mainly For Hospitalized Or Severly Ill Patients. People Over 60 And Those With Pre-Existing Conditions Will Also Be Prioritized. Once More Tests Are Ready, Uc Davis Will Be Able To Test A Wider Range Of Patients.	-	-	Uc Davis Medical Center	(916) 734-2011	California	Https://Health.Ucdavis.Edu/Coronavirus/Coronavirus-Testing.Html	Yes	95817	38.55	-121.45
211 West Baseline Road Rialto, Ca 92376	Rialto	San Bernardino	-	Drive-Thru	See Website For Available Appointment Times	-	Rapid Covid-19 Testing Will Be Available To Eligible Individuals Who Meet Criteria Established By The Centers For Disease Control And Prevention, In Addition To State Residency And Age Guidelines (Must Be 18 Or Older). Patients Will Need To Pre-Register In Advance On-Line At Https://Www.Cvs.Com/Minuteclinic/Covid-19-Testing In Order To Schedule A Slot To Be Tested. When Patients Arrive At The Test Site, They Are Required Stay In Their Vehicle. Team Members On Site Will Check Their Registration And Direct Them Through The Testing Process. For The Safety Of Patients And Health Care Providers On Site, Testing Is Limited To Drive-Thru Testing Only. For More Information About Test Site Locations, Hours Of Operations, And How To Register For A Test, Please Visit Https://Www.Cvs.Com/Minuteclinic/Covid-19-Testing.	-	-	Cvs Health Covid-19 Drive Thru Testing Site - By Appointment Only	-	California	Https://Www.Cvs.Com/Minuteclinic/Covid-19-Testing	-	92376	34.1	-117.39
14426 Palmdale Road	Victorville	San Bernardino	-	Drive-Thru	See Website For Available Appointment Times	-	Rapid Covid-19 Testing Will Be Available To Eligible Individuals Who Meet Criteria Established By The Centers For Disease Control And Prevention, In Addition To State Residency And Age Guidelines (Must Be 18 Or Older). Patients Will Need To Pre-Register In Advance On-Line At Https://Www.Cvs.Com/Minuteclinic/Covid-19-Testing In Order To Schedule A Slot To Be Tested. When Patients Arrive At The Test Site, They Are Required Stay In Their Vehicle. Team Members On Site Will Check Their Registration And Direct Them Through The Testing Process. For The Safety Of Patients And Health Care Providers On Site, Testing Is Limited To Drive-Thru Testing Only. For More Information About Test Site Locations, Hours Of Operations, And How To Register For A Test, Please Visit Https://Www.Cvs.Com/Minuteclinic/Covid-19-Testing.	-	-	Cvs Health Covid-19 Drive Thru Testing Site - By Appointment Only	-	California	Https://Www.Cvs.Com/Minuteclinic/Covid-19-Testing	-	92392	34.48	-117.4
16 3Rd Avenue Extension, Chula Vista, Ca 91910	Chula Vista	San Diego	-	Drive-Thru	See Website For Available Appointment Times	-	Rapid Covid-19 Testing Will Be Available To Eligible Individuals Who Meet Criteria Established By The Centers For Disease Control And Prevention, In Addition To State Residency And Age Guidelines (Must Be 18 Or Older). Patients Will Need To Pre-Register In Advance On-Line At Https://Www.Cvs.Com/Minuteclinic/Covid-19-Testing In Order To Schedule A Slot To Be Tested. When Patients Arrive At The Test Site, They Are Required Stay In Their Vehicle. Team Members On Site Will Check Their Registration And Direct Them Through The Testing Process. For The Safety Of Patients And Health Care Providers On Site, Testing Is Limited To Drive-Thru Testing Only. For More Information About Test Site Locations, Hours Of Operations, And How To Register For A Test, Please Visit Https://Www.Cvs.Com/Minuteclinic/Covid-19-Testing.	-	-	Cvs Health Covid-19 Drive Thru Testing Site - By Appointment Only	-	California	Https://Www.Cvs.Com/Minuteclinic/Covid-19-Testing	-	91910	32.63	-117.05
645 East Palomar Street, Chula Vista, Ca 91911	Chula Vista	San Diego	-	Drive-Thru	See Website For Available Appointment Times	-	Rapid Covid-19 Testing Will Be Available To Eligible Individuals Who Meet Criteria Established By The Centers For Disease Control And Prevention, In Addition To State Residency And Age Guidelines (Must Be 18 Or Older). Patients Will Need To Pre-Register In Advance On-Line At Https://Www.Cvs.Com/Minuteclinic/Covid-19-Testing In Order To Schedule A Slot To Be Tested. When Patients Arrive At The Test Site, They Are Required Stay In Their Vehicle. Team Members On Site Will Check Their Registration And Direct Them Through The Testing Process. For The Safety Of Patients And Health Care Providers On Site, Testing Is Limited To Drive-Thru Testing Only. For More Information About Test Site Locations, Hours Of Operations, And How To Register For A Test, Please Visit Https://Www.Cvs.Com/Minuteclinic/Covid-19-Testing.	-	-	Cvs Health Covid-19 Drive Thru Testing Site - By Appointment Only	-	California	Https://Www.Cvs.Com/Minuteclinic/Covid-19-Testing	-	91911	32.6	-117.04
1299 Broadway, El Cajon, Ca 92021	El Cajon	San Diego	-	Drive-Thru	See Website For Available Appointment Times	-	Rapid Covid-19 Testing Will Be Available To Eligible Individuals Who Meet Criteria Established By The Centers For Disease Control And Prevention, In Addition To State Residency And Age Guidelines (Must Be 18 Or Older). Patients Will Need To Pre-Register In Advance On-Line At Https://Www.Cvs.Com/Minuteclinic/Covid-19-Testing In Order To Schedule A Slot To Be Tested. When Patients Arrive At The Test Site, They Are Required Stay In Their Vehicle. Team Members On Site Will Check Their Registration And Direct Them Through The Testing Process. For The Safety Of Patients And Health Care Providers On Site, Testing Is Limited To Drive-Thru Testing Only. For More Information About Test Site Locations, Hours Of Operations, And How To Register For A Test, Please Visit Https://Www.Cvs.Com/Minuteclinic/Covid-19-Testing.	-	-	Cvs Health Covid-19 Drive Thru Testing Site - By Appointment Only	-	California	Https://Www.Cvs.Com/Minuteclinic/Covid-19-Testing	-	92021	32.84	-116.88
14589 Camino Del Norte, San Diego, Ca 92128	San Diego	San Diego	-	Drive-Thru	See Website For Available Appointment Times	-	Rapid Covid-19 Testing Will Be Available To Eligible Individuals Who Meet Criteria Established By The Centers For Disease Control And Prevention, In Addition To State Residency And Age Guidelines (Must Be 18 Or Older). Patients Will Need To Pre-Register In Advance On-Line At Https://Www.Cvs.Com/Minuteclinic/Covid-19-Testing In Order To Schedule A Slot To Be Tested. When Patients Arrive At The Test Site, They Are Required Stay In Their Vehicle. Team Members On Site Will Check Their Registration And Direct Them Through The Testing Process. For The Safety Of Patients And Health Care Providers On Site, Testing Is Limited To Drive-Thru Testing Only. For More Information About Test Site Locations, Hours Of Operations, And How To Register For A Test, Please Visit Https://Www.Cvs.Com/Minuteclinic/Covid-19-Testing.	-	-	Cvs Health Covid-19 Drive Thru Testing Site - By Appointment Only	-	California	Https://Www.Cvs.Com/Minuteclinic/Covid-19-Testing	-	92128	33.0	-117.07
3350 Palm Avenue, San Diego, Ca 92154	San Diego	San Diego	-	Drive-Thru	See Website For Available Appointment Times	-	Rapid Covid-19 Testing Will Be Available To Eligible Individuals Who Meet Criteria Established By The Centers For Disease Control And Prevention, In Addition To State Residency And Age Guidelines (Must Be 18 Or Older). Patients Will Need To Pre-Register In Advance On-Line At Https://Www.Cvs.Com/Minuteclinic/Covid-19-Testing In Order To Schedule A Slot To Be Tested. When Patients Arrive At The Test Site, They Are Required Stay In Their Vehicle. Team Members On Site Will Check Their Registration And Direct Them Through The Testing Process. For The Safety Of Patients And Health Care Providers On Site, Testing Is Limited To Drive-Thru Testing Only. For More Information About Test Site Locations, Hours Of Operations, And How To Register For A Test, Please Visit Https://Www.Cvs.Com/Minuteclinic/Covid-19-Testing.	-	-	Cvs Health Covid-19 Drive Thru Testing Site - By Appointment Only	-	California	Https://Www.Cvs.Com/Minuteclinic/Covid-19-Testing	-	92154	32.6	-117.0
7740 Rancho Santa Fe Road, Carlsbad, Ca 92009	Carlsbad	San Diego	-	Drive-Thru	See Website For Available Appointment Times	-	Rapid Covid-19 Testing Will Be Available To Eligible Individuals Who Meet Criteria Established By The Centers For Disease Control And Prevention, In Addition To State Residency And Age Guidelines (Must Be 18 Or Older). Patients Will Need To Pre-Register In Advance On-Line At Https://Www.Cvs.Com/Minuteclinic/Covid-19-Testing In Order To Schedule A Slot To Be Tested. When Patients Arrive At The Test Site, They Are Required Stay In Their Vehicle. Team Members On Site Will Check Their Registration And Direct Them Through The Testing Process. For The Safety Of Patients And Health Care Providers On Site, Testing Is Limited To Drive-Thru Testing Only. For More Information About Test Site Locations, Hours Of Operations, And How To Register For A Test, Please Visit Https://Www.Cvs.Com/Minuteclinic/Covid-19-Testing.	-	-	Cvs Health Covid-19 Drive Thru Testing Site - By Appointment Only	-	California	Https://Www.Cvs.Com/Minuteclinic/Covid-19-Testing	-	92009	33.1	-117.25
572 Fletcher Parkway, El Cajon, Ca 92020	El Cajon	San Diego	-	Drive-Thru	See Website For Available Appointment Times	-	Rapid Covid-19 Testing Will Be Available To Eligible Individuals Who Meet Criteria Established By The Centers For Disease Control And Prevention, In Addition To State Residency And Age Guidelines (Must Be 18 Or Older). Patients Will Need To Pre-Register In Advance On-Line At Https://Www.Cvs.Com/Minuteclinic/Covid-19-Testing In Order To Schedule A Slot To Be Tested. When Patients Arrive At The Test Site, They Are Required Stay In Their Vehicle. Team Members On Site Will Check Their Registration And Direct Them Through The Testing Process. For The Safety Of Patients And Health Care Providers On Site, Testing Is Limited To Drive-Thru Testing Only. For More Information About Test Site Locations, Hours Of Operations, And How To Register For A Test, Please Visit Https://Www.Cvs.Com/Minuteclinic/Covid-19-Testing.	-	-	Cvs Health Covid-19 Drive Thru Testing Site - By Appointment Only	-	California	Https://Www.Cvs.Com/Minuteclinic/Covid-19-Testing	-	92020	32.79	-116.97
635 South Melrose Drive Vista, Ca 92081	Vista	San Diego	-	Drive-Thru	See Website For Available Appointment Times	-	Rapid Covid-19 Testing Will Be Available To Eligible Individuals Who Meet Criteria Established By The Centers For Disease Control And Prevention, In Addition To State Residency And Age Guidelines (Must Be 18 Or Older). Patients Will Need To Pre-Register In Advance On-Line At Https://Www.Cvs.Com/Minuteclinic/Covid-19-Testing In Order To Schedule A Slot To Be Tested. When Patients Arrive At The Test Site, They Are Required Stay In Their Vehicle. Team Members On Site Will Check Their Registration And Direct Them Through The Testing Process. For The Safety Of Patients And Health Care Providers On Site, Testing Is Limited To Drive-Thru Testing Only. For More Information About Test Site Locations, Hours Of Operations, And How To Register For A Test, Please Visit Https://Www.Cvs.Com/Minuteclinic/Covid-19-Testing.	-	-	Cvs Health Covid-19 Drive Thru Testing Site - By Appointment Only	-	California	Https://Www.Cvs.Com/Minuteclinic/Covid-19-Testing	-	92081	33.16	-117.25
1302 West Mission Road San Marcos, Ca 92069	San Marcos	San Diego	-	Drive-Thru	See Website For Available Appointment Times	-	Rapid Covid-19 Testing Will Be Available To Eligible Individuals Who Meet Criteria Established By The Centers For Disease Control And Prevention, In Addition To State Residency And Age Guidelines (Must Be 18 Or Older). Patients Will Need To Pre-Register In Advance On-Line At Https://Www.Cvs.Com/Minuteclinic/Covid-19-Testing In Order To Schedule A Slot To Be Tested. When Patients Arrive At The Test Site, They Are Required Stay In Their Vehicle. Team Members On Site Will Check Their Registration And Direct Them Through The Testing Process. For The Safety Of Patients And Health Care Providers On Site, Testing Is Limited To Drive-Thru Testing Only. For More Information About Test Site Locations, Hours Of Operations, And How To Register For A Test, Please Visit Https://Www.Cvs.Com/Minuteclinic/Covid-19-Testing.	-	-	Cvs Health Covid-19 Drive Thru Testing Site - By Appointment Only	-	California	Https://Www.Cvs.Com/Minuteclinic/Covid-19-Testing	-	92069	33.18	-117.16
997 Woodland Parkway San Marcos, Ca 92069	San Marcos	San Diego	-	Drive-Thru	See Website For Available Appointment Times	-	Rapid Covid-19 Testing Will Be Available To Eligible Individuals Who Meet Criteria Established By The Centers For Disease Control And Prevention, In Addition To State Residency And Age Guidelines (Must Be 18 Or Older). Patients Will Need To Pre-Register In Advance On-Line At Https://Www.Cvs.Com/Minuteclinic/Covid-19-Testing In Order To Schedule A Slot To Be Tested. When Patients Arrive At The Test Site, They Are Required Stay In Their Vehicle. Team Members On Site Will Check Their Registration And Direct Them Through The Testing Process. For The Safety Of Patients And Health Care Providers On Site, Testing Is Limited To Drive-Thru Testing Only. For More Information About Test Site Locations, Hours Of Operations, And How To Register For A Test, Please Visit Https://Www.Cvs.Com/Minuteclinic/Covid-19-Testing.	-	-	Cvs Health Covid-19 Drive Thru Testing Site - By Appointment Only	-	California	Https://Www.Cvs.Com/Minuteclinic/Covid-19-Testing	-	92069	33.18	-117.16
9225 Twin Trails Drive San Diego, Ca 92129	San Diego	San Diego	-	Drive-Thru	See Website For Available Appointment Times	-	Rapid Covid-19 Testing Will Be Available To Eligible Individuals Who Meet Criteria Established By The Centers For Disease Control And Prevention, In Addition To State Residency And Age Guidelines (Must Be 18 Or Older). Patients Will Need To Pre-Register In Advance On-Line At Https://Www.Cvs.Com/Minuteclinic/Covid-19-Testing In Order To Schedule A Slot To Be Tested. When Patients Arrive At The Test Site, They Are Required Stay In Their Vehicle. Team Members On Site Will Check Their Registration And Direct Them Through The Testing Process. For The Safety Of Patients And Health Care Providers On Site, Testing Is Limited To Drive-Thru Testing Only. For More Information About Test Site Locations, Hours Of Operations, And How To Register For A Test, Please Visit Https://Www.Cvs.Com/Minuteclinic/Covid-19-Testing.	-	-	Cvs Health Covid-19 Drive Thru Testing Site - By Appointment Only	-	California	Https://Www.Cvs.Com/Minuteclinic/Covid-19-Testing	-	92129	32.96	-117.13
4615 Frazee Road Oceanside, Ca 92057	Oceanside	San Diego	-	Drive-Thru	See Website For Available Appointment Times	-	Rapid Covid-19 Testing Will Be Available To Eligible Individuals Who Meet Criteria Established By The Centers For Disease Control And Prevention, In Addition To State Residency And Age Guidelines (Must Be 18 Or Older). Patients Will Need To Pre-Register In Advance On-Line At Https://Www.Cvs.Com/Minuteclinic/Covid-19-Testing In Order To Schedule A Slot To Be Tested. When Patients Arrive At The Test Site, They Are Required Stay In Their Vehicle. Team Members On Site Will Check Their Registration And Direct Them Through The Testing Process. For The Safety Of Patients And Health Care Providers On Site, Testing Is Limited To Drive-Thru Testing Only. For More Information About Test Site Locations, Hours Of Operations, And How To Register For A Test, Please Visit Https://Www.Cvs.Com/Minuteclinic/Covid-19-Testing.	-	-	Cvs Health Covid-19 Drive Thru Testing Site - By Appointment Only	-	California	Https://Www.Cvs.Com/Minuteclinic/Covid-19-Testing	-	92057	33.25	-117.29
1980 College Boulevard Oceanside, Ca 92056	Oceanside	San Diego	-	Drive-Thru	See Website For Available Appointment Times	-	Rapid Covid-19 Testing Will Be Available To Eligible Individuals Who Meet Criteria Established By The Centers For Disease Control And Prevention, In Addition To State Residency And Age Guidelines (Must Be 18 Or Older). Patients Will Need To Pre-Register In Advance On-Line At Https://Www.Cvs.Com/Minuteclinic/Covid-19-Testing In Order To Schedule A Slot To Be Tested. When Patients Arrive At The Test Site, They Are Required Stay In Their Vehicle. Team Members On Site Will Check Their Registration And Direct Them Through The Testing Process. For The Safety Of Patients And Health Care Providers On Site, Testing Is Limited To Drive-Thru Testing Only. For More Information About Test Site Locations, Hours Of Operations, And How To Register For A Test, Please Visit Https://Www.Cvs.Com/Minuteclinic/Covid-19-Testing.	-	-	Cvs Health Covid-19 Drive Thru Testing Site - By Appointment Only	-	California	Https://Www.Cvs.Com/Minuteclinic/Covid-19-Testing	-	92056	33.2	-117.29
2650 Gateway Road Carlsbad, Ca 92009	Carlsbad	San Diego	-	Drive-Thru	See Website For Available Appointment Times	-	Rapid Covid-19 Testing Will Be Available To Eligible Individuals Who Meet Criteria Established By The Centers For Disease Control And Prevention, In Addition To State Residency And Age Guidelines (Must Be 18 Or Older). Patients Will Need To Pre-Register In Advance On-Line At Https://Www.Cvs.Com/Minuteclinic/Covid-19-Testing In Order To Schedule A Slot To Be Tested. When Patients Arrive At The Test Site, They Are Required Stay In Their Vehicle. Team Members On Site Will Check Their Registration And Direct Them Through The Testing Process. For The Safety Of Patients And Health Care Providers On Site, Testing Is Limited To Drive-Thru Testing Only. For More Information About Test Site Locations, Hours Of Operations, And How To Register For A Test, Please Visit Https://Www.Cvs.Com/Minuteclinic/Covid-19-Testing.	-	-	Cvs Health Covid-19 Drive Thru Testing Site - By Appointment Only	-	California	Https://Www.Cvs.Com/Minuteclinic/Covid-19-Testing	-	92009	33.1	-117.25
6265 El Cajon Boulevard	San Diego	San Diego	-	Drive-Thru	See Website For Available Appointment Times	-	Rapid Covid-19 Testing Will Be Available To Eligible Individuals Who Meet Criteria Established By The Centers For Disease Control And Prevention, In Addition To State Residency And Age Guidelines (Must Be 18 Or Older). Patients Will Need To Pre-Register In Advance On-Line At Https://Www.Cvs.Com/Minuteclinic/Covid-19-Testing In Order To Schedule A Slot To Be Tested. When Patients Arrive At The Test Site, They Are Required Stay In Their Vehicle. Team Members On Site Will Check Their Registration And Direct Them Through The Testing Process. For The Safety Of Patients And Health Care Providers On Site, Testing Is Limited To Drive-Thru Testing Only. For More Information About Test Site Locations, Hours Of Operations, And How To Register For A Test, Please Visit Https://Www.Cvs.Com/Minuteclinic/Covid-19-Testing.	-	-	Cvs Health Covid-19 Drive Thru Testing Site - By Appointment Only	-	California	Https://Www.Cvs.Com/Minuteclinic/Covid-19-Testing	-	92115	32.76	-117.07
800 Palm Avenue	Imperial Beach	San Diego	-	Drive-Thru	See Website For Available Appointment Times	-	Rapid Covid-19 Testing Will Be Available To Eligible Individuals Who Meet Criteria Established By The Centers For Disease Control And Prevention, In Addition To State Residency And Age Guidelines (Must Be 18 Or Older). Patients Will Need To Pre-Register In Advance On-Line At Https://Www.Cvs.Com/Minuteclinic/Covid-19-Testing In Order To Schedule A Slot To Be Tested. When Patients Arrive At The Test Site, They Are Required Stay In Their Vehicle. Team Members On Site Will Check Their Registration And Direct Them Through The Testing Process. For The Safety Of Patients And Health Care Providers On Site, Testing Is Limited To Drive-Thru Testing Only. For More Information About Test Site Locations, Hours Of Operations, And How To Register For A Test, Please Visit Https://Www.Cvs.Com/Minuteclinic/Covid-19-Testing.	-	-	Cvs Health Covid-19 Drive Thru Testing Site - By Appointment Only	-	California	Https://Www.Cvs.Com/Minuteclinic/Covid-19-Testing	-	91932	32.57	-117.12
1810 Main Street	St Helena	San Diego	-	Drive-Thru	See Website For Available Appointment Times	-	Rapid Covid-19 Testing Will Be Available To Eligible Individuals Who Meet Criteria Established By The Centers For Disease Control And Prevention, In Addition To State Residency And Age Guidelines (Must Be 18 Or Older). Patients Will Need To Pre-Register In Advance On-Line At Https://Www.Cvs.Com/Minuteclinic/Covid-19-Testing In Order To Schedule A Slot To Be Tested. When Patients Arrive At The Test Site, They Are Required Stay In Their Vehicle. Team Members On Site Will Check Their Registration And Direct Them Through The Testing Process. For The Safety Of Patients And Health Care Providers On Site, Testing Is Limited To Drive-Thru Testing Only. For More Information About Test Site Locations, Hours Of Operations, And How To Register For A Test, Please Visit Https://Www.Cvs.Com/Minuteclinic/Covid-19-Testing.	-	-	Cvs Health Covid-19 Drive Thru Testing Site - By Appointment Only	-	California	Https://Www.Cvs.Com/Minuteclinic/Covid-19-Testing	-	92065	33.0	-116.8
9449 Friars Rd, San Diego, Ca 92108	San Diego	San Diego	-	Drive-Thru	10 Am - 2 Pm, Monday - Friday	Yes	Individuals Must Have A Referral From A Physician Before Making An Appointment At This Drive-Thru Site.	-	-	Sdccu Stadium	-	California	Https://Www.Cbs8.Com/Article/News/Health/Coronavirus/Sdccu-Stadium-In-Mission-Valley-Rolls-Out-Drive-Thru-Coronavirus-Testing/509-7Ed59D13-5C9F-4C5A-A272-7D10B8Fc4459	No	92108	32.77	-117.15
200 W Arbor Dr, San Diego, Ca 92103	San Diego	San Diego	-	Hospital	24 Hours	Yes	Ucsd Is Prioritizing The Following Patients: Hospitalized Patients Who Have Signs And Symptoms Compatible With Covid-19; People With Symptoms And Who Have Had Close Contact With A Confirmed Covid-19 Diagnosis Within 14 Days Of Symptom Onset, Or Who Traveled From Affected Geographic Areas Within 14 Days Of Their Symptom Onset; People With Symptoms In High-Risk Categories, Including Those Ages 65 And Older, Those With Chronic Medical Conditions, And Those Receiving Immunosuppressive Medications; Health Care Workers With Symptoms Of An Acute Viral Respiratory Infection	-	-	Uc San Diego Medical Center	(858) 657-7000	California	Https://Health.Ucsd.Edu/Patients/Pages/2019-Coronavirus.Aspx	No	92103	32.75	-117.17
55 Pacific Ave, San Francisco, Ca 94111	San Francisco	San Francisco	-	Clinic	Call To Confirm	Yes	If The Provider Believes The Covid-19 Test Is Appropriate For You After Your Free Virtual Screening Using The Coronavirus Assessment Tool, We Will Perform A Physical Evaluation, Conduct The Collection Onsite, And Send The Specimen To Either Quest Or Labcorp Depending On Your Insurance.	-	-	Carbon Health	(415) 200-2099	California	Https://Www.Businessinsider.Com/Carbon-Health-San-Francisco-Coronavirus-Testing-Bay-Area-2020-3	Yes	94111	37.81	-122.41
1998 Market St, San Francisco, Ca 94102	San Francisco	San Francisco	-	Clinic	9 Am - 7 Pm	Yes	If The Provider Believes The Covid-19 Test Is Appropriate For You After Your Free Virtual Screening Using The Coronavirus Assessment Tool, We Will Perform A Physical Evaluation, Conduct The Collection Onsite, And Send The Specimen To Either Quest Or Labcorp Depending On Your Insurance.	-	-	Carbon Health	(415) 792-6040	California	Https://Www.Businessinsider.Com/Carbon-Health-San-Francisco-Coronavirus-Testing-Bay-Area-2020-3	Yes	94102	37.78	-122.42
2333 Buchanan St, San Francisco, Ca 94115	San Francisco	San Francisco	-	Clinic	Monday To Friday, 9 A.M. To 4 P.M., And Saturday From 9 A.M. To 1 P.M	Yes	Patients Must First Consult With Their Primary Care Physician, Who Must Then Refer Them For Testing. Brown & Toland Physicians Is Doing Drive-Through Testing By Appointment At The Cpmc Pacific Heights Campus In San Francisco. Sutter Is Providing The Space And Brown & Toland Staff Are Collecting The Samples And Notifying Patients Of The Results. Testing Is For Brown & Toland And Sutter Health Care Workers And Patients Who Are Symptomatic. Patients Must First Consult With Their Primary Care Physician, Who Must Then Refer Them For Testing. Samples Are Sent To Labcorp And Results Can Take Three To Five Days.	-	-	Cpmc Pacific Heights Campus	(415) 600-6000	California	Https://Www.Sfchronicle.Com/Health/Article/Where-Can-I-Get-A-Coronavirus-Test-In-The-Bay-15136054.Php	No	94115	37.79	-122.44
377 32Nd Avenue San Francisco, Ca 94121	San Francisco	San Francisco	-	Drive-Thru	See Website For Available Appointment Times	-	Rapid Covid-19 Testing Will Be Available To Eligible Individuals Who Meet Criteria Established By The Centers For Disease Control And Prevention, In Addition To State Residency And Age Guidelines (Must Be 18 Or Older). Patients Will Need To Pre-Register In Advance On-Line At Https://Www.Cvs.Com/Minuteclinic/Covid-19-Testing In Order To Schedule A Slot To Be Tested. When Patients Arrive At The Test Site, They Are Required Stay In Their Vehicle. Team Members On Site Will Check Their Registration And Direct Them Through The Testing Process. For The Safety Of Patients And Health Care Providers On Site, Testing Is Limited To Drive-Thru Testing Only. For More Information About Test Site Locations, Hours Of Operations, And How To Register For A Test, Please Visit Https://Www.Cvs.Com/Minuteclinic/Covid-19-Testing.	-	-	Cvs Health Covid-19 Drive Thru Testing Site - By Appointment Only	-	California	Https://Www.Cvs.Com/Minuteclinic/Covid-19-Testing	-	94121	37.8	-122.7
4131 Geary Blvd, San Francisco, Ca 94118	San Francisco	San Francisco	-	Hospital	Call For Hours	Yes	Pre-Screening Required For Appointment. Open To Kaiser Permanente Members Only,	-	-	Kaiser Permanente French Campus	(415) 833-2000	California	Https://Thrive.Kaiserpermanente.Org/Care-Near-You/Northern-California/Sanfrancisco/Locations/French-Campus-2/	No	94118	37.78	-122.46
211 Eastmoor Ave., Daly City, 94015	Daly City	San Francisco	-	Drive-Thru	Monday - Friday 3-4 Pm	Yes	Testing Is Limited To North East Medical Services Patients Who Are Symptomatic And By Appointment Only. Tests Are Processed By Quest, And Results Can Take Several Days.	-	-	North East Medical Services	(415) 391-9686, (650) 550-3923 Or (408) 573-9686	California	Https://Www.Sfchronicle.Com/Health/Article/Where-Can-I-Get-A-Coronavirus-Test-In-The-Bay-15136054.Php	No	94015	37.68	-122.48
1450 Noriega St., San Francisco, 94122	San Francisco	San Francisco	-	Drive-Thru	Monday - Friday 2 -3 Pm	Yes	Testing Is Limited To North East Medical Services Patients Who Are Symptomatic And By Appointment Only. Tests Are Processed By Quest, And Results Can Take Several Days.	-	-	North East Medical Services	(415) 391-9686, (650) 550-3923 Or (408) 573-9686	California	Https://Www.Sfchronicle.Com/Health/Article/Where-Can-I-Get-A-Coronavirus-Test-In-The-Bay-15136054.Php	No	94122	37.76	-122.48
735 Vallejo St., San Francisco, 94133	San Francisco	San Francisco	-	Drive-Thru	Monday - Friday 3-4 Pm	Yes	Testing Is Limited To North East Medical Services Patients Who Are Symptomatic And By Appointment Only. Tests Are Processed By Quest, And Results Can Take Several Days.	-	-	North East Medical Services	(415) 391-9686, (650) 550-3923 Or (408) 573-9686	California	Https://Www.Sfchronicle.Com/Health/Article/Where-Can-I-Get-A-Coronavirus-Test-In-The-Bay-15136054.Php	No	94133	37.8	-122.44
1600 Divisadero St, San Francisco, Ca 94115	San Francisco	San Francisco	-	Hospital	24 Hours	Yes	Ucsf Health Has Been Actively Working To Develop On-Site Testing Capacity For Patients Who Are Suspected Of Having The Novel Coronavirus Disease, Covid-19. We Do Not Have The Capacity To Test The General Community At This Time. However, We Expect To Continue To Expand Our Testing Capabilities In The Coming Days And Weeks To Include More Outpatients With Covid-19 Symptoms.	-	-	Uc San Francisco	(415) 567-6600	California	Https://Www.Ucsf.Edu/News/2020/03/416901/Ucsf-Health-Statement-Coronavirus-Test-Availability	No	94115	37.79	-122.44
505 Parnassus Ave, San Francisco, Ca 94143	San Francisco	San Francisco	-	Hospital	24 Hours	Yes	Ucsf Health Has Been Actively Working To Develop On-Site Testing Capacity For Patients Who Are Suspected Of Having The Novel Coronavirus Disease, Covid-19. We Do Not Have The Capacity To Test The General Community At This Time. However, We Expect To Continue To Expand Our Testing Capabilities In The Coming Days And Weeks To Include More Outpatients With Covid-19 Symptoms.	-	-	Uc San Francisco	(415) 476-1000	California	Https://Www.Ucsf.Edu/News/2020/03/416901/Ucsf-Health-Statement-Coronavirus-Test-Availability	No	94143		
1825 4Th St, San Francisco, Ca  94158	San Francisco	San Francisco	-	Hospital	24 Hours	Yes	Ucsf Health Has Been Actively Working To Develop On-Site Testing Capacity For Patients Who Are Suspected Of Having The Novel Coronavirus Disease, Covid-19. We Do Not Have The Capacity To Test The General Community At This Time. However, We Expect To Continue To Expand Our Testing Capabilities In The Coming Days And Weeks To Include More Outpatients With Covid-19 Symptoms.	-	-	Uc San Francisco	(415) 353-3000	California	Https://Www.Ucsf.Edu/News/2020/03/416901/Ucsf-Health-Statement-Coronavirus-Test-Availability	No	94158	37.77	-122.391
Stockton, Ca	Stockton	San Joaquin	-	Drive-Thru	-	Yes	Visit Https://Www.Projectbaseline.Com/Study/Covid-19/ To Get Started With A Screening. Once You'Ve Taken The Screening, You Will Be Told If You Meet The Requirements For Testing Eligibility. You Will Then Be Given An Appointment At A Testing Site And Told When And Where To Go.	-	-	Project Baseline By Verily	-	California	Https://Www.Projectbaseline.Com/Study/Covid-19/	No	-	-	-
500 W Hospital Rd, French Camp, Ca, 95231	French Camp	San Joaquin	-	Hospital	By Appointment Only	Yes	Visit Https://Www.Projectbaseline.Com/Study/Covid-19/ To Get Started With A Screening. Once You'Ve Taken The Screening, You Will Be Told If You Meet The Requirements For Testing Eligibility. You Will Then Be Given An Appointment At A Testing Site And Told When And Where To Go.	-	-	San Joaquin General Hospital	-	California	Https://Www.Projectbaseline.Com/Study/Covid-19/	No	95231	37.88	-121.29
124 De Anza Blvd Crystal Springs Village		San Mateo	-	Drive-Thru	See Website For Available Appointment Times	-	Rapid Covid-19 Testing Will Be Available To Eligible Individuals Who Meet Criteria Established By The Centers For Disease Control And Prevention, In Addition To State Residency And Age Guidelines (Must Be 18 Or Older). Patients Will Need To Pre-Register In Advance On-Line At Https://Www.Cvs.Com/Minuteclinic/Covid-19-Testing In Order To Schedule A Slot To Be Tested. When Patients Arrive At The Test Site, They Are Required Stay In Their Vehicle. Team Members On Site Will Check Their Registration And Direct Them Through The Testing Process. For The Safety Of Patients And Health Care Providers On Site, Testing Is Limited To Drive-Thru Testing Only. For More Information About Test Site Locations, Hours Of Operations, And How To Register For A Test, Please Visit Https://Www.Cvs.Com/Minuteclinic/Covid-19-Testing.	-	-	Cvs Health Covid-19 Drive Thru Testing Site - By Appointment Only	-	California	Https://Www.Cvs.Com/Minuteclinic/Covid-19-Testing	-	94402	37.54	-122.33
San Mateo, Ca	San Mateo	San Mateo	-	Drive-Thru	-	Yes	Visit Https://Www.Projectbaseline.Com/Study/Covid-19/ To Get Started With A Screening. Once You'Ve Taken The Screening, You Will Be Told If You Meet The Requirements For Testing Eligibility. You Will Then Be Given An Appointment At A Testing Site And Told When And Where To Go.	-	-	Project Baseline By Verily	-	California	Https://Www.Projectbaseline.Com/Study/Covid-19/	No	-	-	-
1346 Saratoga Dr, San Mateo, Ca 94403	San Mateo	San Mateo	-	Drive-Thru	By Appointment Only	Yes	Patients Must Apply Online, Not Exhibit Symptoms Of The Disease, And Pass The Online Screening. Once Approved, Test Subjects Will Receive A Phone Call Or Email. Anyone Who Arrives At The Gates With No Appointment, Even If They Have Their Own DoctorS Note, Will Be Turned Away By The Heavy Security.	-	-	San Mateo County Event Center	-	California	Https://Www.Projectbaseline.Com/	No	94403	37.54	-122.3
3250 Alpine Rd, Portola Valley, Ca 94028	Portola Valley	San Mateo	-	Clinic	8 Am - 5 Pm, Monday - Friday	Yes	Patients Must Be Referred By Their Primary Care Physician. You Will Receive The Results Within 24 Hours.	-	-	Stanford Primary Care In Portola Valley	(650) 736-1384	California	Http://Med.Stanford.Edu/News/All-News/2020/03/Stanford-Provides-Covid-19-Testing-To-Bay-Area-Hospitals.Html	No	94028	37.37	-122.21
821 The Alameda	San Jose	Santa Clara	-	Drive-Thru	See Website For Available Appointment Times	-	Rapid Covid-19 Testing Will Be Available To Eligible Individuals Who Meet Criteria Established By The Centers For Disease Control And Prevention, In Addition To State Residency And Age Guidelines (Must Be 18 Or Older). Patients Will Need To Pre-Register In Advance On-Line At Https://Www.Cvs.Com/Minuteclinic/Covid-19-Testing In Order To Schedule A Slot To Be Tested. When Patients Arrive At The Test Site, They Are Required Stay In Their Vehicle. Team Members On Site Will Check Their Registration And Direct Them Through The Testing Process. For The Safety Of Patients And Health Care Providers On Site, Testing Is Limited To Drive-Thru Testing Only. For More Information About Test Site Locations, Hours Of Operations, And How To Register For A Test, Please Visit Https://Www.Cvs.Com/Minuteclinic/Covid-19-Testing.	-	-	Cvs Health Covid-19 Drive Thru Testing Site - By Appointment Only	-	California	Https://Www.Cvs.Com/Minuteclinic/Covid-19-Testing	-	95126	37.32	-121.91
16995 Walnut Grove Drive	Morgan Hill	Santa Clara	-	Drive-Thru	See Website For Available Appointment Times	-	Rapid Covid-19 Testing Will Be Available To Eligible Individuals Who Meet Criteria Established By The Centers For Disease Control And Prevention, In Addition To State Residency And Age Guidelines (Must Be 18 Or Older). Patients Will Need To Pre-Register In Advance On-Line At Https://Www.Cvs.Com/Minuteclinic/Covid-19-Testing In Order To Schedule A Slot To Be Tested. When Patients Arrive At The Test Site, They Are Required Stay In Their Vehicle. Team Members On Site Will Check Their Registration And Direct Them Through The Testing Process. For The Safety Of Patients And Health Care Providers On Site, Testing Is Limited To Drive-Thru Testing Only. For More Information About Test Site Locations, Hours Of Operations, And How To Register For A Test, Please Visit Https://Www.Cvs.Com/Minuteclinic/Covid-19-Testing.	-	-	Cvs Health Covid-19 Drive Thru Testing Site - By Appointment Only	-	California	Https://Www.Cvs.Com/Minuteclinic/Covid-19-Testing	-	95037	37.1	-121.7
1800 Saratoga Avenue	San Jose	Santa Clara	-	Drive-Thru	See Website For Available Appointment Times	-	Rapid Covid-19 Testing Will Be Available To Eligible Individuals Who Meet Criteria Established By The Centers For Disease Control And Prevention, In Addition To State Residency And Age Guidelines (Must Be 18 Or Older). Patients Will Need To Pre-Register In Advance On-Line At Https://Www.Cvs.Com/Minuteclinic/Covid-19-Testing In Order To Schedule A Slot To Be Tested. When Patients Arrive At The Test Site, They Are Required Stay In Their Vehicle. Team Members On Site Will Check Their Registration And Direct Them Through The Testing Process. For The Safety Of Patients And Health Care Providers On Site, Testing Is Limited To Drive-Thru Testing Only. For More Information About Test Site Locations, Hours Of Operations, And How To Register For A Test, Please Visit Https://Www.Cvs.Com/Minuteclinic/Covid-19-Testing.	-	-	Cvs Health Covid-19 Drive Thru Testing Site - By Appointment Only	-	California	Https://Www.Cvs.Com/Minuteclinic/Covid-19-Testing	-	95129	37.31	-122.0
1150 West El Camino Real, Mountain View, Ca 94040	Mountain View	Santa Clara	-	Urgent Care	9 Am - 7 Pm	Yes	If The Provider Believes The Covid-19 Test Is Appropriate For You After Your Free Virtual Screening Using The Coronavirus Assessment Tool, We Will Perform A Physical Evaluation, Conduct The Collection Onsite, And Send The Specimen To Either Quest Or Labcorp Depending On Your Insurance.	-	-	El Camino Health Urgent Care	(650) 695-5008	California	Https://Www.Businessinsider.Com/Carbon-Health-San-Francisco-Coronavirus-Testing-Bay-Area-2020-3	Yes	95688	38.4	-122.0
4150 N 1St St, San Jose, Ca 95134	San Jose	Santa Clara	-	Urgent Care	9 Am - 7 Pm	Yes	If The Provider Believes The Covid-19 Test Is Appropriate For You After Your Free Virtual Screening Using The Coronavirus Assessment Tool, We Will Perform A Physical Evaluation, Conduct The Collection Onsite, And Send The Specimen To Either Quest Or Labcorp Depending On Your Insurance.	-	-	El Camino Health Urgent Care	(669) 200-4558	California	Https://Www.Businessinsider.Com/Carbon-Health-San-Francisco-Coronavirus-Testing-Bay-Area-2020-3	Yes	95134	37.42	-121.97
19600 Vallco Pkwy Ste 170, Cupertino, Ca 95014	Cupertino	Santa Clara	-	Urgent Care	9 Am - 7 Pm	Yes	If The Provider Believes The Covid-19 Test Is Appropriate For You After Your Free Virtual Screening Using The Coronavirus Assessment Tool, We Will Perform A Physical Evaluation, Conduct The Collection Onsite, And Send The Specimen To Either Quest Or Labcorp Depending On Your Insurance.	-	-	El Camino Health Urgent Care	(650) 338-4776	California	Https://Www.Businessinsider.Com/Carbon-Health-San-Francisco-Coronavirus-Testing-Bay-Area-2020-3	Yes	95014	37.3	-122.07
1300 Crane Street, Menlo Park Ca 94025	Menlo Park	Santa Clara	-	Clinic	8:30 Am - 5:30 Pm Monday - Friday; 8:30 Am - 12:30 Pm Saturday	Yes	If The Provider Believes The Covid-19 Test Is Appropriate For You After Your Free Virtual Screening Using The Coronavirus Assessment Tool, We Will Perform A Physical Evaluation, Conduct The Collection Onsite, And Send The Specimen To Either Quest Or Labcorp Depending On Your Insurance.	-	-	Menlo Medical Clinic	(650) 498-6500	California	Http://Med.Stanford.Edu/News/All-News/2020/03/Stanford-Provides-Covid-19-Testing-To-Bay-Area-Hospitals.Html	Yes	94025	37.46	-122.18
321 Middlefield Rd., Menlo Park, Ca 94025	Menlo Park	Santa Clara	-	Clinic	8:30 Am - 5:30 Pm Monday - Friday; 8:30 Am - 12:30 Pm Saturday	Yes	If The Provider Believes The Covid-19 Test Is Appropriate For You After Your Free Virtual Screening Using The Coronavirus Assessment Tool, We Will Perform A Physical Evaluation, Conduct The Collection Onsite, And Send The Specimen To Either Quest Or Labcorp Depending On Your Insurance.	-	-	Menlo Medical Clinic	(650) 498-6500	California	Http://Med.Stanford.Edu/News/All-News/2020/03/Stanford-Provides-Covid-19-Testing-To-Bay-Area-Hospitals.Html	Yes	94025	37.46	-122.18
1870 Lundy Ave., San Jose, 95131	San Jose	Santa Clara	-	Drive-Thru	Monday - Friday 2 -3 Pm	Yes	Testing Is Limited To North East Medical Services Patients Who Are Symptomatic And By Appointment Only. Tests Are Processed By Quest, And Results Can Take Several Days.	-	-	North East Medical Services	(415) 391-9686, (650) 550-3923 Or (408) 573-9686	California	Https://Www.Sfchronicle.Com/Health/Article/Where-Can-I-Get-A-Coronavirus-Test-In-The-Bay-15136054.Php	No	95131	37.38	-121.89
San Jose, Ca	San Jose	Santa Clara	-	Drive-Thru	-	Yes	Visit Https://Www.Projectbaseline.Com/Study/Covid-19/ To Get Started With A Screening. Once You'Ve Taken The Screening, You Will Be Told If You Meet The Requirements For Testing Eligibility. You Will Then Be Given An Appointment At A Testing Site And Told When And Where To Go.	-	-	Project Baseline By Verily	-	California	Https://Www.Projectbaseline.Com/Study/Covid-19/	No	-	-	-
344 Tully Rd, San Jose, Ca 95111	San Jose	Santa Clara	-	Drive-Thru	By Appointment Only	Yes	Patients Must Apply Online, Not Exhibit Symptoms Of The Disease, And Pass The Online Screening. Once Approved, Test Subjects Will Receive A Phone Call Or Email. Anyone Who Arrives At The Gates With No Appointment, Even If They Have Their Own DoctorS Note, Will Be Turned Away By The Heavy Security.	-	-	Santa Clara Fairgrounds	-	California	Https://Www.Projectbaseline.Com/	No	95111	37.28	-121.83
211 Quarry Road Suite 102 Palo Alto, Ca  94304	Palo Alto	Santa Clara	-	Drive-Thru	9 Am - 6 Pm, Every Day	Yes	Patients Must Be Referred By Their Primary Care Physician. You Will Receive The Results Within 24 Hours.	-	-	Stanford Express Care Palo Alto	(650) 736-5211	California	Http://Med.Stanford.Edu/News/All-News/2020/03/Stanford-Offers-Drive-Through-Coronavirus-Test.Html	Yes	94304	37.42	-122.16
300 Pasteur Dr, Stanford, Ca  94305	Stanford	Santa Clara	-	Hospital	24 Hours	Yes	Patients Must Be Referred By Their Primary Care Physician. You Will Receive The Results Within 24 Hours.	-	-	Stanford Medical Center	(650) 723-4000	California	Http://Med.Stanford.Edu/News/All-News/2020/03/Stanford-Provides-Covid-19-Testing-To-Bay-Area-Hospitals.Html	No	94305	37.42	-122.17
960 N. San Antonio Road, Ste. 101, Los Altos, Ca 94022	Los Altos	Santa Clara	-	Clinic	8 Am - 5 Pm, Monday - Friday	Yes	Patients Must Be Referred By Their Primary Care Physician. You Will Receive The Results Within 24 Hours.	-	-	Stanford Primary Care In Los Altos	(650) 498-9000	California	Http://Med.Stanford.Edu/News/All-News/2020/03/Stanford-Provides-Covid-19-Testing-To-Bay-Area-Hospitals.Html	No	94022	37.36	-122.15
2518 Mission College Blvd #101, Santa Clara, Ca 95054	Santa Clara	Santa Clara	-	Clinic	8 Am - 5 Pm, Monday - Friday	Yes	Patients Must Be Referred By Their Primary Care Physician. You Will Receive The Results Within 24 Hours.	-	-	Stanford Primary Care In Santa Clara	(408) 688-9720	California	Http://Med.Stanford.Edu/News/All-News/2020/03/Stanford-Provides-Covid-19-Testing-To-Bay-Area-Hospitals.Html	No	95054	37.4	-121.96
1679 E Monte Vista Ave, Suite 104, Vacaville, Ca 95688	Vacaville	Solano	-	Clinic	9 Am - 7 Pm	Yes	If The Provider Believes The Covid-19 Test Is Appropriate For You After Your Free Virtual Screening Using The Coronavirus Assessment Tool, We Will Perform A Physical Evaluation, Conduct The Collection Onsite, And Send The Specimen To Either Quest Or Labcorp Depending On Your Insurance.	-	-	Carbon Health	(707) 624-7400	California	Https://Www.Businessinsider.Com/Carbon-Health-San-Francisco-Coronavirus-Testing-Bay-Area-2020-3	Yes	95688	38.4	-122.0
1320 Travis Blvd, Suite C, Fairfield, Ca 94533	Fairfield	Solano	-	Clinic	11 Am - 9 Pm	Yes	If The Provider Believes The Covid-19 Test Is Appropriate For You After Your Free Virtual Screening Using The Coronavirus Assessment Tool, We Will Perform A Physical Evaluation, Conduct The Collection Onsite, And Send The Specimen To Either Quest Or Labcorp Depending On Your Insurance.	-	-	Carbon Health	(707) 646-4000	California	Https://Www.Businessinsider.Com/Carbon-Health-San-Francisco-Coronavirus-Testing-Bay-Area-2020-3	Yes	94533	38.28	-122.02
1193 Admiral Callaghan Lane Vallejo, Ca 94589	Vallejo	Solano	-	Drive-Thru	See Website For Available Appointment Times	-	Rapid Covid-19 Testing Will Be Available To Eligible Individuals Who Meet Criteria Established By The Centers For Disease Control And Prevention, In Addition To State Residency And Age Guidelines (Must Be 18 Or Older). Patients Will Need To Pre-Register In Advance On-Line At Https://Www.Cvs.Com/Minuteclinic/Covid-19-Testing In Order To Schedule A Slot To Be Tested. When Patients Arrive At The Test Site, They Are Required Stay In Their Vehicle. Team Members On Site Will Check Their Registration And Direct Them Through The Testing Process. For The Safety Of Patients And Health Care Providers On Site, Testing Is Limited To Drive-Thru Testing Only. For More Information About Test Site Locations, Hours Of Operations, And How To Register For A Test, Please Visit Https://Www.Cvs.Com/Minuteclinic/Covid-19-Testing.	-	-	Cvs Health Covid-19 Drive Thru Testing Site - By Appointment Only	-	California	Https://Www.Cvs.Com/Minuteclinic/Covid-19-Testing	-	94589	38.14	-122.25
3340 North Texas Street	Fairfield	Solano	-	Drive-Thru	See Website For Available Appointment Times	-	Rapid Covid-19 Testing Will Be Available To Eligible Individuals Who Meet Criteria Established By The Centers For Disease Control And Prevention, In Addition To State Residency And Age Guidelines (Must Be 18 Or Older). Patients Will Need To Pre-Register In Advance On-Line At Https://Www.Cvs.Com/Minuteclinic/Covid-19-Testing In Order To Schedule A Slot To Be Tested. When Patients Arrive At The Test Site, They Are Required Stay In Their Vehicle. Team Members On Site Will Check Their Registration And Direct Them Through The Testing Process. For The Safety Of Patients And Health Care Providers On Site, Testing Is Limited To Drive-Thru Testing Only. For More Information About Test Site Locations, Hours Of Operations, And How To Register For A Test, Please Visit Https://Www.Cvs.Com/Minuteclinic/Covid-19-Testing.	-	-	Cvs Health Covid-19 Drive Thru Testing Site - By Appointment Only	-	California	Https://Www.Cvs.Com/Minuteclinic/Covid-19-Testing	-	94533	38.28	-122.02
1679 E Monte Vista Ave, Suite 104, Vacaville Ca 95688	Vacaville	Solano	-	Clinic	8 Am - 5 Pm Monday - Friday	Yes	At This Time Testing Is Limited In Solano County And Only Available For Those Who Are Critically Ill Or Very High Risk. If You Have Symptoms And Are Concerned About Coronavirus, We Encourage You To Use The Free Online Coronavirus Risk Assessment Screening Tool Through Carbon Health Or Make An Online Instant Visit Through Urgent Care.	-	-	Northbay Healthcare - Vacaville	(707) 624-7400	California	Https://Www.Northbay.Org/About/Covid-19-Questions-And-Answers.Cfm	Yes	95688	38.4	-122.0
2020 West Briggsmore Avenue Suite C Modesto, Ca 95350	Modesto	Stanislaus	-	Drive-Thru	See Website For Available Appointment Times	-	Rapid Covid-19 Testing Will Be Available To Eligible Individuals Who Meet Criteria Established By The Centers For Disease Control And Prevention, In Addition To State Residency And Age Guidelines (Must Be 18 Or Older). Patients Will Need To Pre-Register In Advance On-Line At Https://Www.Cvs.Com/Minuteclinic/Covid-19-Testing In Order To Schedule A Slot To Be Tested. When Patients Arrive At The Test Site, They Are Required Stay In Their Vehicle. Team Members On Site Will Check Their Registration And Direct Them Through The Testing Process. For The Safety Of Patients And Health Care Providers On Site, Testing Is Limited To Drive-Thru Testing Only. For More Information About Test Site Locations, Hours Of Operations, And How To Register For A Test, Please Visit Https://Www.Cvs.Com/Minuteclinic/Covid-19-Testing.	-	-	Cvs Health Covid-19 Drive Thru Testing Site - By Appointment Only	-	California	Https://Www.Cvs.Com/Minuteclinic/Covid-19-Testing	-	95350	37.67	-121.01
1080 Sperry Avenue Patterson, Ca 95363	Patterson	Stanislaus	-	Drive-Thru	See Website For Available Appointment Times	-	Rapid Covid-19 Testing Will Be Available To Eligible Individuals Who Meet Criteria Established By The Centers For Disease Control And Prevention, In Addition To State Residency And Age Guidelines (Must Be 18 Or Older). Patients Will Need To Pre-Register In Advance On-Line At Https://Www.Cvs.Com/Minuteclinic/Covid-19-Testing In Order To Schedule A Slot To Be Tested. When Patients Arrive At The Test Site, They Are Required Stay In Their Vehicle. Team Members On Site Will Check Their Registration And Direct Them Through The Testing Process. For The Safety Of Patients And Health Care Providers On Site, Testing Is Limited To Drive-Thru Testing Only. For More Information About Test Site Locations, Hours Of Operations, And How To Register For A Test, Please Visit Https://Www.Cvs.Com/Minuteclinic/Covid-19-Testing.	-	-	Cvs Health Covid-19 Drive Thru Testing Site - By Appointment Only	-	California	Https://Www.Cvs.Com/Minuteclinic/Covid-19-Testing	-	95363	37.4	-121.3
1520 East F Street	Oakdale	Stanislaus	-	Drive-Thru	See Website For Available Appointment Times	-	Rapid Covid-19 Testing Will Be Available To Eligible Individuals Who Meet Criteria Established By The Centers For Disease Control And Prevention, In Addition To State Residency And Age Guidelines (Must Be 18 Or Older). Patients Will Need To Pre-Register In Advance On-Line At Https://Www.Cvs.Com/Minuteclinic/Covid-19-Testing In Order To Schedule A Slot To Be Tested. When Patients Arrive At The Test Site, They Are Required Stay In Their Vehicle. Team Members On Site Will Check Their Registration And Direct Them Through The Testing Process. For The Safety Of Patients And Health Care Providers On Site, Testing Is Limited To Drive-Thru Testing Only. For More Information About Test Site Locations, Hours Of Operations, And How To Register For A Test, Please Visit Https://Www.Cvs.Com/Minuteclinic/Covid-19-Testing.	-	-	Cvs Health Covid-19 Drive Thru Testing Site - By Appointment Only	-	California	Https://Www.Cvs.Com/Minuteclinic/Covid-19-Testing	-	95361	37.8	-120.7
Salida, Ca	-	Stanislaus	-	Drive-Thru	-	Yes	Visit Https://Www.Projectbaseline.Com/Study/Covid-19/ To Get Started With A Screening. Once You'Ve Taken The Screening, You Will Be Told If You Meet The Requirements For Testing Eligibility. You Will Then Be Given An Appointment At A Testing Site And Told When And Where To Go.	-	-	Project Baseline By Verily	-	California	Https://Www.Projectbaseline.Com/Study/Covid-19/	No	-	-	-
800 North Westwood Street	Porterville	Tulare	-	Drive-Thru	See Website For Available Appointment Times	-	Rapid Covid-19 Testing Will Be Available To Eligible Individuals Who Meet Criteria Established By The Centers For Disease Control And Prevention, In Addition To State Residency And Age Guidelines (Must Be 18 Or Older). Patients Will Need To Pre-Register In Advance On-Line At Https://Www.Cvs.Com/Minuteclinic/Covid-19-Testing In Order To Schedule A Slot To Be Tested. When Patients Arrive At The Test Site, They Are Required Stay In Their Vehicle. Team Members On Site Will Check Their Registration And Direct Them Through The Testing Process. For The Safety Of Patients And Health Care Providers On Site, Testing Is Limited To Drive-Thru Testing Only. For More Information About Test Site Locations, Hours Of Operations, And How To Register For A Test, Please Visit Https://Www.Cvs.Com/Minuteclinic/Covid-19-Testing.	-	-	Cvs Health Covid-19 Drive Thru Testing Site - By Appointment Only	-	California	Https://Www.Cvs.Com/Minuteclinic/Covid-19-Testing	-	93257	36.0	-118.9
2175 East Bardsley Avenue	Tulare	Tulare	-	Drive-Thru	See Website For Available Appointment Times	-	Rapid Covid-19 Testing Will Be Available To Eligible Individuals Who Meet Criteria Established By The Centers For Disease Control And Prevention, In Addition To State Residency And Age Guidelines (Must Be 18 Or Older). Patients Will Need To Pre-Register In Advance On-Line At Https://Www.Cvs.Com/Minuteclinic/Covid-19-Testing In Order To Schedule A Slot To Be Tested. When Patients Arrive At The Test Site, They Are Required Stay In Their Vehicle. Team Members On Site Will Check Their Registration And Direct Them Through The Testing Process. For The Safety Of Patients And Health Care Providers On Site, Testing Is Limited To Drive-Thru Testing Only. For More Information About Test Site Locations, Hours Of Operations, And How To Register For A Test, Please Visit Https://Www.Cvs.Com/Minuteclinic/Covid-19-Testing.	-	-	Cvs Health Covid-19 Drive Thru Testing Site - By Appointment Only	-	California	Https://Www.Cvs.Com/Minuteclinic/Covid-19-Testing	-	93274	36.2	-119.4
1395 East Prosperity Avenue	Tulare	Tulare	-	Drive-Thru	See Website For Available Appointment Times	-	Rapid Covid-19 Testing Will Be Available To Eligible Individuals Who Meet Criteria Established By The Centers For Disease Control And Prevention, In Addition To State Residency And Age Guidelines (Must Be 18 Or Older). Patients Will Need To Pre-Register In Advance On-Line At Https://Www.Cvs.Com/Minuteclinic/Covid-19-Testing In Order To Schedule A Slot To Be Tested. When Patients Arrive At The Test Site, They Are Required Stay In Their Vehicle. Team Members On Site Will Check Their Registration And Direct Them Through The Testing Process. For The Safety Of Patients And Health Care Providers On Site, Testing Is Limited To Drive-Thru Testing Only. For More Information About Test Site Locations, Hours Of Operations, And How To Register For A Test, Please Visit Https://Www.Cvs.Com/Minuteclinic/Covid-19-Testing.	-	-	Cvs Health Covid-19 Drive Thru Testing Site - By Appointment Only	-	California	Https://Www.Cvs.Com/Minuteclinic/Covid-19-Testing	-	93274	36.2	-119.4
3619 West Caldwell Avenue	Visalia	Tulare	-	Drive-Thru	See Website For Available Appointment Times	-	Rapid Covid-19 Testing Will Be Available To Eligible Individuals Who Meet Criteria Established By The Centers For Disease Control And Prevention, In Addition To State Residency And Age Guidelines (Must Be 18 Or Older). Patients Will Need To Pre-Register In Advance On-Line At Https://Www.Cvs.Com/Minuteclinic/Covid-19-Testing In Order To Schedule A Slot To Be Tested. When Patients Arrive At The Test Site, They Are Required Stay In Their Vehicle. Team Members On Site Will Check Their Registration And Direct Them Through The Testing Process. For The Safety Of Patients And Health Care Providers On Site, Testing Is Limited To Drive-Thru Testing Only. For More Information About Test Site Locations, Hours Of Operations, And How To Register For A Test, Please Visit Https://Www.Cvs.Com/Minuteclinic/Covid-19-Testing.	-	-	Cvs Health Covid-19 Drive Thru Testing Site - By Appointment Only	-	California	Https://Www.Cvs.Com/Minuteclinic/Covid-19-Testing	-	93277	36.3	-119.38
400 W Mineral King Ave. Visalia, Ca 93291	Visalia	Tulare	-	Hospital	24 Hours	Yes	Call Your Physician Or The Tulare County Public Health Line, 2-1-1, Or Tulare County Public Health At 559-685-5720 Or 559-471-7092 After Hours And Weekends. If You Are Experiencing Severe Respiratory Distress Or Fever, Proceed To The Closest Emergency Department, But Call Ahead, Do Not Just Walk In. If Coming To Kaweah DeltaS Emergency Department, Call Ahead To 559-624-2862, Do Not Walk Into The Emergency Department.	-	-	Kaweah Delta Heatlh Care District	(559) 624-4110	California	Https://Www.Kaweahdelta.Org/Covid19.Aspx	No	93291	36.4	-119.38
1205 South Oxnard	Oxnard	Ventura	-	Drive-Thru	See Website For Available Appointment Times	-	Rapid Covid-19 Testing Will Be Available To Eligible Individuals Who Meet Criteria Established By The Centers For Disease Control And Prevention, In Addition To State Residency And Age Guidelines (Must Be 18 Or Older). Patients Will Need To Pre-Register In Advance On-Line At Https://Www.Cvs.Com/Minuteclinic/Covid-19-Testing In Order To Schedule A Slot To Be Tested. When Patients Arrive At The Test Site, They Are Required Stay In Their Vehicle. Team Members On Site Will Check Their Registration And Direct Them Through The Testing Process. For The Safety Of Patients And Health Care Providers On Site, Testing Is Limited To Drive-Thru Testing Only. For More Information About Test Site Locations, Hours Of Operations, And How To Register For A Test, Please Visit Https://Www.Cvs.Com/Minuteclinic/Covid-19-Testing.	-	-	Cvs Health Covid-19 Drive Thru Testing Site - By Appointment Only	-	California	Https://Www.Cvs.Com/Minuteclinic/Covid-19-Testing	-	93030	33.7	-119.3
906 E Street	Marysville	Yuba	-	Drive-Thru	See Website For Available Appointment Times	-	Rapid Covid-19 Testing Will Be Available To Eligible Individuals Who Meet Criteria Established By The Centers For Disease Control And Prevention, In Addition To State Residency And Age Guidelines (Must Be 18 Or Older). Patients Will Need To Pre-Register In Advance On-Line At Https://Www.Cvs.Com/Minuteclinic/Covid-19-Testing In Order To Schedule A Slot To Be Tested. When Patients Arrive At The Test Site, They Are Required Stay In Their Vehicle. Team Members On Site Will Check Their Registration And Direct Them Through The Testing Process. For The Safety Of Patients And Health Care Providers On Site, Testing Is Limited To Drive-Thru Testing Only. For More Information About Test Site Locations, Hours Of Operations, And How To Register For A Test, Please Visit Https://Www.Cvs.Com/Minuteclinic/Covid-19-Testing.	-	-	Cvs Health Covid-19 Drive Thru Testing Site - By Appointment Only	-	California	Https://Www.Cvs.Com/Minuteclinic/Covid-19-Testing	-	95901	39.2	-121.5
