address	city	county	facilityType	hours	inQZ	instructions	lat	lng	name	phone	state	url	virtualVisit	zip	zipCodeLat	zipCodeLng
5450 Ga-20, Cartersville, Ga, 30121	Cartersville	Bartow	Drive-Thru	9Am-5Pm, Monday-Friday; 9Am-1Pm, Saturday	No	"Testing At This Location Requires A Doctor'S Order. Your Doctor Must First Fill Out The Georgia Department Of Health Referral Form: Https://Dhpexternal.Dph.Ga.Gov/Spoc.Html
Followed By The Spoc Screening Form: Https://Sendss.State.Ga.Us/Sendss/Ncovspoc.Assess 
Based Upon The Cdc Criteria For Symptoms And Exposure, It Will Be Determined If You Are In Need Of Testing. If You Are Referred For Testing, You Will Be Given An Id Number And Directed To The Nearest Testing Location."	-	-	Clarence Brown Conference Center	-	Georgia	Https://Sendss.State.Ga.Us/Sendss/Ncovspoc.Assess	-	30121	34.2	-84.8
4080 Bloomfield Road Macon, Ga 31206	Macon	Bibb	Drive-Thru	See Website For Available Appointment Times	-	Rapid Covid-19 Testing Will Be Available To Eligible Individuals Who Meet Criteria Established By The Centers For Disease Control And Prevention, In Addition To State Residency And Age Guidelines (Must Be 18 Or Older). Patients Will Need To Pre-Register In Advance On-Line At Https://Www.Cvs.Com/Minuteclinic/Covid-19-Testing In Order To Schedule A Slot To Be Tested. When Patients Arrive At The Test Site, They Are Required Stay In Their Vehicle. Team Members On Site Will Check Their Registration And Direct Them Through The Testing Process. For The Safety Of Patients And Health Care Providers On Site, Testing Is Limited To Drive-Thru Testing Only. For More Information About Test Site Locations, Hours Of Operations, And How To Register For A Test, Please Visit Https://Www.Cvs.Com/Minuteclinic/Covid-19-Testing.	-	-	Cvs Health Covid-19 Drive Thru Testing Site - By Appointment Only	-	Georgia	Https://Www.Cvs.Com/Minuteclinic/Covid-19-Testing	-	31206	32.8	-83.69
2324 Us Highway 17, Richmond Hill, Ga 31324	Richmond Hill	Bryan	Drive-Thru	See Website For Available Appointment Times	-	Rapid Covid-19 Testing Will Be Available To Eligible Individuals Who Meet Criteria Established By The Centers For Disease Control And Prevention, In Addition To State Residency And Age Guidelines (Must Be 18 Or Older). Patients Will Need To Pre-Register In Advance On-Line At Https://Www.Cvs.Com/Minuteclinic/Covid-19-Testing In Order To Schedule A Slot To Be Tested. When Patients Arrive At The Test Site, They Are Required Stay In Their Vehicle. Team Members On Site Will Check Their Registration And Direct Them Through The Testing Process. For The Safety Of Patients And Health Care Providers On Site, Testing Is Limited To Drive-Thru Testing Only. For More Information About Test Site Locations, Hours Of Operations, And How To Register For A Test, Please Visit Https://Www.Cvs.Com/Minuteclinic/Covid-19-Testing.	-	-	Cvs Health Covid-19 Drive Thru Testing Site - By Appointment Only	-	Georgia	Https://Www.Cvs.Com/Minuteclinic/Covid-19-Testing	-	31324	31.9	-81.3
16942 Ga-67, Statesboro, Ga 30458	Statesboro	Bulloch	Drive-Thru	9Am-1Pm, Monday-Friday	No	"Testing At This Location Requires A Doctor'S Order. Your Doctor Must First Fill Out The Georgia Department Of Health Referral Form: Https://Dhpexternal.Dph.Ga.Gov/Spoc.Html
Followed By The Spoc Screening Form: Https://Sendss.State.Ga.Us/Sendss/Ncovspoc.Assess 
Based Upon The Cdc Criteria For Symptoms And Exposure, It Will Be Determined If You Are In Need Of Testing. If You Are Referred For Testing, You Will Be Given An Id Number And Directed To The Nearest Testing Location."	-	-	Kiwanis Ogeechee Fair	-	Georgia	Https://Sendss.State.Ga.Us/Sendss/Ncovspoc.Assess	-	30458	32.4	-81.9
5401 Abercorn Street, Savannah, Ga 31406	Savannah	Chatham	Drive-Thru	See Website For Available Appointment Times	-	Rapid Covid-19 Testing Will Be Available To Eligible Individuals Who Meet Criteria Established By The Centers For Disease Control And Prevention, In Addition To State Residency And Age Guidelines (Must Be 18 Or Older). Patients Will Need To Pre-Register In Advance On-Line At Https://Www.Cvs.Com/Minuteclinic/Covid-19-Testing In Order To Schedule A Slot To Be Tested. When Patients Arrive At The Test Site, They Are Required Stay In Their Vehicle. Team Members On Site Will Check Their Registration And Direct Them Through The Testing Process. For The Safety Of Patients And Health Care Providers On Site, Testing Is Limited To Drive-Thru Testing Only. For More Information About Test Site Locations, Hours Of Operations, And How To Register For A Test, Please Visit Https://Www.Cvs.Com/Minuteclinic/Covid-19-Testing.	-	-	Cvs Health Covid-19 Drive Thru Testing Site - By Appointment Only	-	Georgia	Https://Www.Cvs.Com/Minuteclinic/Covid-19-Testing	-	31406	31.97	-81.08
5690 Ogeechee Road, Savannah, Ga 31405	Savannah	Chatham	Drive-Thru	See Website For Available Appointment Times	-	Rapid Covid-19 Testing Will Be Available To Eligible Individuals Who Meet Criteria Established By The Centers For Disease Control And Prevention, In Addition To State Residency And Age Guidelines (Must Be 18 Or Older). Patients Will Need To Pre-Register In Advance On-Line At Https://Www.Cvs.Com/Minuteclinic/Covid-19-Testing In Order To Schedule A Slot To Be Tested. When Patients Arrive At The Test Site, They Are Required Stay In Their Vehicle. Team Members On Site Will Check Their Registration And Direct Them Through The Testing Process. For The Safety Of Patients And Health Care Providers On Site, Testing Is Limited To Drive-Thru Testing Only. For More Information About Test Site Locations, Hours Of Operations, And How To Register For A Test, Please Visit Https://Www.Cvs.Com/Minuteclinic/Covid-19-Testing.	-	-	Cvs Health Covid-19 Drive Thru Testing Site - By Appointment Only	-	Georgia	Https://Www.Cvs.Com/Minuteclinic/Covid-19-Testing	-	31405	32.04	-81.17
712 Stephenson Avenue Savannah, Ga 31405	Savannah	Chatham	Drive-Thru	See Website For Available Appointment Times	-	Rapid Covid-19 Testing Will Be Available To Eligible Individuals Who Meet Criteria Established By The Centers For Disease Control And Prevention, In Addition To State Residency And Age Guidelines (Must Be 18 Or Older). Patients Will Need To Pre-Register In Advance On-Line At Https://Www.Cvs.Com/Minuteclinic/Covid-19-Testing In Order To Schedule A Slot To Be Tested. When Patients Arrive At The Test Site, They Are Required Stay In Their Vehicle. Team Members On Site Will Check Their Registration And Direct Them Through The Testing Process. For The Safety Of Patients And Health Care Providers On Site, Testing Is Limited To Drive-Thru Testing Only. For More Information About Test Site Locations, Hours Of Operations, And How To Register For A Test, Please Visit Https://Www.Cvs.Com/Minuteclinic/Covid-19-Testing.	-	-	Cvs Health Covid-19 Drive Thru Testing Site - By Appointment Only	-	Georgia	Https://Www.Cvs.Com/Minuteclinic/Covid-19-Testing	-	31405	32.04	-81.17
12012 Abercorn Street	Savannah	Chatham	Drive-Thru	See Website For Available Appointment Times	-	Rapid Covid-19 Testing Will Be Available To Eligible Individuals Who Meet Criteria Established By The Centers For Disease Control And Prevention, In Addition To State Residency And Age Guidelines (Must Be 18 Or Older). Patients Will Need To Pre-Register In Advance On-Line At Https://Www.Cvs.Com/Minuteclinic/Covid-19-Testing In Order To Schedule A Slot To Be Tested. When Patients Arrive At The Test Site, They Are Required Stay In Their Vehicle. Team Members On Site Will Check Their Registration And Direct Them Through The Testing Process. For The Safety Of Patients And Health Care Providers On Site, Testing Is Limited To Drive-Thru Testing Only. For More Information About Test Site Locations, Hours Of Operations, And How To Register For A Test, Please Visit Https://Www.Cvs.Com/Minuteclinic/Covid-19-Testing.	-	-	Cvs Health Covid-19 Drive Thru Testing Site - By Appointment Only	-	Georgia	Https://Www.Cvs.Com/Minuteclinic/Covid-19-Testing	-	31419	32.0	-81.2
7221 Sallie Mood Drive, Savannah, Ga, 31406	Savannah	Chatham	Drive-Thru	9Am-4Pm, Monday-Friday	No	"Testing At This Location Requires A Doctor'S Order. Your Doctor Must First Fill Out The Georgia Department Of Health Referral Form: Https://Dhpexternal.Dph.Ga.Gov/Spoc.Html
Followed By The Spoc Screening Form: Https://Sendss.State.Ga.Us/Sendss/Ncovspoc.Assess 
Based Upon The Cdc Criteria For Symptoms And Exposure, It Will Be Determined If You Are In Need Of Testing. If You Are Referred For Testing, You Will Be Given An Id Number And Directed To The Nearest Testing Location."	-	-	Jennifer Ross Soccer Complex	-	Georgia	Https://Sendss.State.Ga.Us/Sendss/Ncovspoc.Assess	-	31406	31.97	-81.08
7545 Main Street, Woodstock, Ga, 30188	Woodstock	Cherokee	Drive-Thru	9Am-5Pm, Monday-Friday; 9Am-12Pm, Saturday	No	"Testing At This Location Requires A Doctor'S Order. Your Doctor Must First Fill Out The Georgia Department Of Health Referral Form: Https://Dhpexternal.Dph.Ga.Gov/Spoc.Html
Followed By The Spoc Screening Form: Https://Sendss.State.Ga.Us/Sendss/Ncovspoc.Assess 
Based Upon The Cdc Criteria For Symptoms And Exposure, It Will Be Determined If You Are In Need Of Testing. If You Are Referred For Testing, You Will Be Given An Id Number And Directed To The Nearest Testing Location."	-	-	Cherokee County Health Department	-	Georgia	Https://Sendss.State.Ga.Us/Sendss/Ncovspoc.Assess	-	30188	34.12	-84.45
3785 Sixes Road, Canton, Ga 30014	Canton	Cherokee	Drive-Thru	See Website For Available Appointment Times	-	Rapid Covid-19 Testing Will Be Available To Eligible Individuals Who Meet Criteria Established By The Centers For Disease Control And Prevention, In Addition To State Residency And Age Guidelines (Must Be 18 Or Older). Patients Will Need To Pre-Register In Advance On-Line At Https://Www.Cvs.Com/Minuteclinic/Covid-19-Testing In Order To Schedule A Slot To Be Tested. When Patients Arrive At The Test Site, They Are Required Stay In Their Vehicle. Team Members On Site Will Check Their Registration And Direct Them Through The Testing Process. For The Safety Of Patients And Health Care Providers On Site, Testing Is Limited To Drive-Thru Testing Only. For More Information About Test Site Locations, Hours Of Operations, And How To Register For A Test, Please Visit Https://Www.Cvs.Com/Minuteclinic/Covid-19-Testing.	-	-	Cvs Health Covid-19 Drive Thru Testing Site - By Appointment Only	-	Georgia	Https://Www.Cvs.Com/Minuteclinic/Covid-19-Testing	-	30014	33.6	-83.8
6120 Hickory Flat Highway, Canton, Ga 30115	Canton	Cherokee	Drive-Thru	See Website For Available Appointment Times	-	Rapid Covid-19 Testing Will Be Available To Eligible Individuals Who Meet Criteria Established By The Centers For Disease Control And Prevention, In Addition To State Residency And Age Guidelines (Must Be 18 Or Older). Patients Will Need To Pre-Register In Advance On-Line At Https://Www.Cvs.Com/Minuteclinic/Covid-19-Testing In Order To Schedule A Slot To Be Tested. When Patients Arrive At The Test Site, They Are Required Stay In Their Vehicle. Team Members On Site Will Check Their Registration And Direct Them Through The Testing Process. For The Safety Of Patients And Health Care Providers On Site, Testing Is Limited To Drive-Thru Testing Only. For More Information About Test Site Locations, Hours Of Operations, And How To Register For A Test, Please Visit Https://Www.Cvs.Com/Minuteclinic/Covid-19-Testing.	-	-	Cvs Health Covid-19 Drive Thru Testing Site - By Appointment Only	-	Georgia	Https://Www.Cvs.Com/Minuteclinic/Covid-19-Testing	-	30115	34.2	-84.4
186 Paradise Blvd, Athens, Ga, 30607	Athens	Clarke	Drive-Thru	9Am-3Pm, Monday-Friday	No	"Testing At This Location Requires A Doctor'S Order. Your Doctor Must First Fill Out The Georgia Department Of Health Referral Form: Https://Dhpexternal.Dph.Ga.Gov/Spoc.Html
Followed By The Spoc Screening Form: Https://Sendss.State.Ga.Us/Sendss/Ncovspoc.Assess 
Based Upon The Cdc Criteria For Symptoms And Exposure, It Will Be Determined If You Are In Need Of Testing. If You Are Referred For Testing, You Will Be Given An Id Number And Directed To The Nearest Testing Location."	-	-	Athens Environmental Health Service	-	Georgia	Https://Sendss.State.Ga.Us/Sendss/Ncovspoc.Assess	-	30607	34.03	-83.45
3595 Atlanta Highway, Athens, Ga 30606	Athens	Clarke	Drive-Thru	See Website For Available Appointment Times	-	Rapid Covid-19 Testing Will Be Available To Eligible Individuals Who Meet Criteria Established By The Centers For Disease Control And Prevention, In Addition To State Residency And Age Guidelines (Must Be 18 Or Older). Patients Will Need To Pre-Register In Advance On-Line At Https://Www.Cvs.Com/Minuteclinic/Covid-19-Testing In Order To Schedule A Slot To Be Tested. When Patients Arrive At The Test Site, They Are Required Stay In Their Vehicle. Team Members On Site Will Check Their Registration And Direct Them Through The Testing Process. For The Safety Of Patients And Health Care Providers On Site, Testing Is Limited To Drive-Thru Testing Only. For More Information About Test Site Locations, Hours Of Operations, And How To Register For A Test, Please Visit Https://Www.Cvs.Com/Minuteclinic/Covid-19-Testing.	-	-	Cvs Health Covid-19 Drive Thru Testing Site - By Appointment Only	-	Georgia	Https://Www.Cvs.Com/Minuteclinic/Covid-19-Testing	-	30606	33.94	-83.44
795 Oglethorpe Avenue Athens, Ga 30606	Athens	Clarke	Drive-Thru	See Website For Available Appointment Times	-	Rapid Covid-19 Testing Will Be Available To Eligible Individuals Who Meet Criteria Established By The Centers For Disease Control And Prevention, In Addition To State Residency And Age Guidelines (Must Be 18 Or Older). Patients Will Need To Pre-Register In Advance On-Line At Https://Www.Cvs.Com/Minuteclinic/Covid-19-Testing In Order To Schedule A Slot To Be Tested. When Patients Arrive At The Test Site, They Are Required Stay In Their Vehicle. Team Members On Site Will Check Their Registration And Direct Them Through The Testing Process. For The Safety Of Patients And Health Care Providers On Site, Testing Is Limited To Drive-Thru Testing Only. For More Information About Test Site Locations, Hours Of Operations, And How To Register For A Test, Please Visit Https://Www.Cvs.Com/Minuteclinic/Covid-19-Testing.	-	-	Cvs Health Covid-19 Drive Thru Testing Site - By Appointment Only	-	Georgia	Https://Www.Cvs.Com/Minuteclinic/Covid-19-Testing	-	30606	33.94	-83.44
1199 Prince Ave., Athens, Ga 30606	Athens	Clarke	Screening Hotline	7Am-7Pm, Monday-Friday	No	At This Time, Testing Is Being Completed With A Physician Order And For Patients Who Meet Certain Criteria, As Provided By The Cdc And The Georgia Department Of Public Health. If You Are Experiencing Symptoms And Would Like To Be Screened To See If You Are Eligible For Testing, Call Their Screening Hotline At (866) 460-1119. You Will Be Directed To Your Nearest Testing Facility.	-	-	Piedmont Athens Regional	(866) 460-1119	Georgia	Https://Www.Piedmont.Org/Patients-Visitors/Coronavirus	-	30606	33.94	-83.44
2201 Mt Zion Pkwy, Morrow, Ga 30260	Morrow	Clayton	Drive-Thru	Monday Thru Friday 8:30 Am-5 Pm	No	To Receive A Test At One Of These Facilities, Please Contact Your Medical Provider Or Local Public Health Officials For A Referral: District 3-3 Clayton County Health District: (678) 479-2223	-	-	Children'S At Mount Zion	-	Georgia	Https://Www.11Alive.Com/Article/News/Health/Coronavirus/Coronavirus-Testing-Sites-Georgia/85-81940317-58Ff-4Bfb-901E-Fc00Fb1Fc995	-	30260	33.58	-84.33
2201 Mt Zion Pkwy, Morrow, Ga, 30260	Morrow	Clayton	Drive-Thru	10Am-4Pm, Monday-Friday	No	"Testing At This Location Requires A Doctor'S Order. Your Doctor Must First Fill Out The Georgia Department Of Health Referral Form: Https://Dhpexternal.Dph.Ga.Gov/Spoc.Html
Followed By The Spoc Screening Form: Https://Sendss.State.Ga.Us/Sendss/Ncovspoc.Assess 
Based Upon The Cdc Criteria For Symptoms And Exposure, It Will Be Determined If You Are In Need Of Testing. If You Are Referred For Testing, You Will Be Given An Id Number And Directed To The Nearest Testing Location."	-	-	Childrens At Mount Zion - Morrow	-	Georgia	Https://Sendss.State.Ga.Us/Sendss/Ncovspoc.Assess	-	30260	33.58	-84.33
8139 Tara Boulevard Jonesboro, Ga 30236	Jonesboro	Clayton	Drive-Thru	See Website For Available Appointment Times	-	Rapid Covid-19 Testing Will Be Available To Eligible Individuals Who Meet Criteria Established By The Centers For Disease Control And Prevention, In Addition To State Residency And Age Guidelines (Must Be 18 Or Older). Patients Will Need To Pre-Register In Advance On-Line At Https://Www.Cvs.Com/Minuteclinic/Covid-19-Testing In Order To Schedule A Slot To Be Tested. When Patients Arrive At The Test Site, They Are Required Stay In Their Vehicle. Team Members On Site Will Check Their Registration And Direct Them Through The Testing Process. For The Safety Of Patients And Health Care Providers On Site, Testing Is Limited To Drive-Thru Testing Only. For More Information About Test Site Locations, Hours Of Operations, And How To Register For A Test, Please Visit Https://Www.Cvs.Com/Minuteclinic/Covid-19-Testing.	-	-	Cvs Health Covid-19 Drive Thru Testing Site - By Appointment Only	-	Georgia	Https://Www.Cvs.Com/Minuteclinic/Covid-19-Testing	-	30236	33.53	-84.33
4345 South Cobb Drive, Se, Smyrna, Ga 30080	Smyrna	Cobb	Drive-Thru	See Website For Available Appointment Times	-	Rapid Covid-19 Testing Will Be Available To Eligible Individuals Who Meet Criteria Established By The Centers For Disease Control And Prevention, In Addition To State Residency And Age Guidelines (Must Be 18 Or Older). Patients Will Need To Pre-Register In Advance On-Line At Https://Www.Cvs.Com/Minuteclinic/Covid-19-Testing In Order To Schedule A Slot To Be Tested. When Patients Arrive At The Test Site, They Are Required Stay In Their Vehicle. Team Members On Site Will Check Their Registration And Direct Them Through The Testing Process. For The Safety Of Patients And Health Care Providers On Site, Testing Is Limited To Drive-Thru Testing Only. For More Information About Test Site Locations, Hours Of Operations, And How To Register For A Test, Please Visit Https://Www.Cvs.Com/Minuteclinic/Covid-19-Testing.	-	-	Cvs Health Covid-19 Drive Thru Testing Site - By Appointment Only	-	Georgia	Https://Www.Cvs.Com/Minuteclinic/Covid-19-Testing	-	30080	33.87	-84.5
800 East West Connector Sw, Austell, Ga 30106	Austell	Cobb	Drive-Thru	See Website For Available Appointment Times	-	Rapid Covid-19 Testing Will Be Available To Eligible Individuals Who Meet Criteria Established By The Centers For Disease Control And Prevention, In Addition To State Residency And Age Guidelines (Must Be 18 Or Older). Patients Will Need To Pre-Register In Advance On-Line At Https://Www.Cvs.Com/Minuteclinic/Covid-19-Testing In Order To Schedule A Slot To Be Tested. When Patients Arrive At The Test Site, They Are Required Stay In Their Vehicle. Team Members On Site Will Check Their Registration And Direct Them Through The Testing Process. For The Safety Of Patients And Health Care Providers On Site, Testing Is Limited To Drive-Thru Testing Only. For More Information About Test Site Locations, Hours Of Operations, And How To Register For A Test, Please Visit Https://Www.Cvs.Com/Minuteclinic/Covid-19-Testing.	-	-	Cvs Health Covid-19 Drive Thru Testing Site - By Appointment Only	-	Georgia	Https://Www.Cvs.Com/Minuteclinic/Covid-19-Testing	-	30106	33.83	-84.64
2994 Atlanta Road, Smyrna, Ga 30080	Smyrna	Cobb	Drive-Thru	See Website For Available Appointment Times	-	Rapid Covid-19 Testing Will Be Available To Eligible Individuals Who Meet Criteria Established By The Centers For Disease Control And Prevention, In Addition To State Residency And Age Guidelines (Must Be 18 Or Older). Patients Will Need To Pre-Register In Advance On-Line At Https://Www.Cvs.Com/Minuteclinic/Covid-19-Testing In Order To Schedule A Slot To Be Tested. When Patients Arrive At The Test Site, They Are Required Stay In Their Vehicle. Team Members On Site Will Check Their Registration And Direct Them Through The Testing Process. For The Safety Of Patients And Health Care Providers On Site, Testing Is Limited To Drive-Thru Testing Only. For More Information About Test Site Locations, Hours Of Operations, And How To Register For A Test, Please Visit Https://Www.Cvs.Com/Minuteclinic/Covid-19-Testing.	-	-	Cvs Health Covid-19 Drive Thru Testing Site - By Appointment Only	-	Georgia	Https://Www.Cvs.Com/Minuteclinic/Covid-19-Testing	-	30080	33.87	-84.5
100 East Piedmont Road, Marietta, Ga 30066	Marietta	Cobb	Drive-Thru	See Website For Available Appointment Times	-	Rapid Covid-19 Testing Will Be Available To Eligible Individuals Who Meet Criteria Established By The Centers For Disease Control And Prevention, In Addition To State Residency And Age Guidelines (Must Be 18 Or Older). Patients Will Need To Pre-Register In Advance On-Line At Https://Www.Cvs.Com/Minuteclinic/Covid-19-Testing In Order To Schedule A Slot To Be Tested. When Patients Arrive At The Test Site, They Are Required Stay In Their Vehicle. Team Members On Site Will Check Their Registration And Direct Them Through The Testing Process. For The Safety Of Patients And Health Care Providers On Site, Testing Is Limited To Drive-Thru Testing Only. For More Information About Test Site Locations, Hours Of Operations, And How To Register For A Test, Please Visit Https://Www.Cvs.Com/Minuteclinic/Covid-19-Testing.	-	-	Cvs Health Covid-19 Drive Thru Testing Site - By Appointment Only	-	Georgia	Https://Www.Cvs.Com/Minuteclinic/Covid-19-Testing	-	30066	34.02	-84.5
2245 Callaway Rd Sw, Marietta, Ga 30008	Marietta	Cobb	Drive-Thru	Monday Thru Friday 8:30 Am-5 Pm, Saturday 9 Am-12 Pm	No	Testing Will Only Be Available To The Highest-Risk Individuals Whose Health May Impact The Entire Community, Like Healthcare Workers, First Responders, Teachers, And Nursing Home Residents. Testing Is Not Provided To The General Community At This Time.	-	-	Jim Miller Park	(844) 442-2681	Georgia	Https://Www.Cobbcounty.Org/Communications/News/Statement-Covid-19-Testing-Jim-R-Miller-Park	No	30008	33.9	-84.59
1101 Ocilla Rd, Douglas, Ga 31533	Douglas	Coffee	Drive-Thru	9Am-1Pm,Monday-Friday	No	"Testing At This Location Requires A Doctor'S Order. Your Doctor Must First Fill Out The Georgia Department Of Health Referral Form: Https://Dhpexternal.Dph.Ga.Gov/Spoc.Html
Followed By The Spoc Screening Form: Https://Sendss.State.Ga.Us/Sendss/Ncovspoc.Assess 
Based Upon The Cdc Criteria For Symptoms And Exposure, It Will Be Determined If You Are In Need Of Testing. If You Are Referred For Testing, You Will Be Given An Id Number And Directed To The Nearest Testing Location."	-	-	Coffee Regional Medical Center	(912) 384-1900	Georgia	Https://Sendss.State.Ga.Us/Sendss/Ncovspoc.Assess	-	31533	31.5	-82.8
275 Pine Rd, Newnan, Ga 30263	Newnan	Coweta	Drive-Thru	Monday Thru Friday 8:30 Am-5 Pm, Saturday 9 Am-12 Pm	No	"Testing At This Location Requires A Doctor'S Order. Your Doctor Must First Fill Out The Georgia Department Of Health Referral Form: Https://Dhpexternal.Dph.Ga.Gov/Spoc.Html
Followed By The Spoc Screening Form: Https://Sendss.State.Ga.Us/Sendss/Ncovspoc.Assess 
Based Upon The Cdc Criteria For Symptoms And Exposure, It Will Be Determined If You Are In Need Of Testing. If You Are Referred For Testing, You Will Be Given An Id Number And Directed To The Nearest Testing Location."	-	-	Coweta County Fair Grounds	-	Georgia	Https://Sendss.State.Ga.Us/Sendss/Ncovspoc.Assess	-	30263	33.4	-84.9
745 Poplar Road, Newnan, Ga 30265	Newnan	Coweta	Screening Hotline	7Am-7Pm, Monday-Friday	No	At This Time, Testing Is Being Completed With A Physician Order And For Patients Who Meet Certain Criteria, As Provided By The Cdc And The Georgia Department Of Public Health. If You Are Experiencing Symptoms And Would Like To Be Screened To See If You Are Eligible For Testing, Call Their Screening Hotline At (866) 460-1119. You Will Be Directed To Your Nearest Testing Facility.	-	-	Piedmont Newnan	(866) 460-1119	Georgia	Https://Www.Piedmont.Org/Patients-Visitors/Coronavirus	-	30265	33.42	-84.7
2738 North Decatur Road, Decatur, Ga 30003	Decatur	Dekalb	Drive-Thru	See Website For Available Appointment Times	-	Rapid Covid-19 Testing Will Be Available To Eligible Individuals Who Meet Criteria Established By The Centers For Disease Control And Prevention, In Addition To State Residency And Age Guidelines (Must Be 18 Or Older). Patients Will Need To Pre-Register In Advance On-Line At Https://Www.Cvs.Com/Minuteclinic/Covid-19-Testing In Order To Schedule A Slot To Be Tested. When Patients Arrive At The Test Site, They Are Required Stay In Their Vehicle. Team Members On Site Will Check Their Registration And Direct Them Through The Testing Process. For The Safety Of Patients And Health Care Providers On Site, Testing Is Limited To Drive-Thru Testing Only. For More Information About Test Site Locations, Hours Of Operations, And How To Register For A Test, Please Visit Https://Www.Cvs.Com/Minuteclinic/Covid-19-Testing.	-	-	Cvs Health Covid-19 Drive Thru Testing Site - By Appointment Only	-	Georgia	Https://Www.Cvs.Com/Minuteclinic/Covid-19-Testing	-	30003		
3435 Ashford Dunwoody Road Ne Atlanta, Ga 30319	Atlanta	Dekalb	Drive-Thru	See Website For Available Appointment Times	-	Rapid Covid-19 Testing Will Be Available To Eligible Individuals Who Meet Criteria Established By The Centers For Disease Control And Prevention, In Addition To State Residency And Age Guidelines (Must Be 18 Or Older). Patients Will Need To Pre-Register In Advance On-Line At Https://Www.Cvs.Com/Minuteclinic/Covid-19-Testing In Order To Schedule A Slot To Be Tested. When Patients Arrive At The Test Site, They Are Required Stay In Their Vehicle. Team Members On Site Will Check Their Registration And Direct Them Through The Testing Process. For The Safety Of Patients And Health Care Providers On Site, Testing Is Limited To Drive-Thru Testing Only. For More Information About Test Site Locations, Hours Of Operations, And How To Register For A Test, Please Visit Https://Www.Cvs.Com/Minuteclinic/Covid-19-Testing.	-	-	Cvs Health Covid-19 Drive Thru Testing Site - By Appointment Only	-	Georgia	Https://Www.Cvs.Com/Minuteclinic/Covid-19-Testing	-	30319	33.86	-84.35
3815 Clairmont Road	Atlanta	Dekalb	Drive-Thru	See Website For Available Appointment Times	-	Rapid Covid-19 Testing Will Be Available To Eligible Individuals Who Meet Criteria Established By The Centers For Disease Control And Prevention, In Addition To State Residency And Age Guidelines (Must Be 18 Or Older). Patients Will Need To Pre-Register In Advance On-Line At Https://Www.Cvs.Com/Minuteclinic/Covid-19-Testing In Order To Schedule A Slot To Be Tested. When Patients Arrive At The Test Site, They Are Required Stay In Their Vehicle. Team Members On Site Will Check Their Registration And Direct Them Through The Testing Process. For The Safety Of Patients And Health Care Providers On Site, Testing Is Limited To Drive-Thru Testing Only. For More Information About Test Site Locations, Hours Of Operations, And How To Register For A Test, Please Visit Https://Www.Cvs.Com/Minuteclinic/Covid-19-Testing.	-	-	Cvs Health Covid-19 Drive Thru Testing Site - By Appointment Only	-	Georgia	Https://Www.Cvs.Com/Minuteclinic/Covid-19-Testing	-	30319	33.86	-84.35
5809 Memorial Drive, Stone Mountain, Ga 30083	Stone Mountain	Dekalb	Drive-Thru	9Am-4Pm, Monday-Friday	No	"Testing At This Location Requires A Doctor'S Order. Your Doctor Must First Fill Out The Georgia Department Of Health Referral Form: Https://Dhpexternal.Dph.Ga.Gov/Spoc.Html
Followed By The Spoc Screening Form: Https://Sendss.State.Ga.Us/Sendss/Ncovspoc.Assess 
Based Upon The Cdc Criteria For Symptoms And Exposure, It Will Be Determined If You Are In Need Of Testing. If You Are Referred For Testing, You Will Be Given An Id Number And Directed To The Nearest Testing Location."	-	-	Dekalb County School System Transportation Dept	-	Georgia	Https://Sendss.State.Ga.Us/Sendss/Ncovspoc.Assess	-	30083	33.79	-84.2
135 Maple Street, Decatur, Ga 30030	Decatur	Dekalb	Clinic	By Appointment Only: Daily 3Pm-7Pm, Saturdays 10Am-5Pm	No	This Testing Site Is Only For Anyone With Symptoms Of Viral Illness Or Anyone With Exposure To A Person With Confirmed Covid-19 Infection. You Must Make An Appointment By Using Their Online Portal Https://Humanizingmedicine.Com/Covid-19-Testing/ Or Contacting Them Via Email At: Covidtesting@Humanizingmedicine.Com. At This Moment, There Is A Charge Of $150 To All Who Are Tested.	-	-	Humanizing Medicine	(470) 891-8140	Georgia	Https://Humanizingmedicine.Com/Covid-19-Testing/	-	30030	33.77	-84.29
4896 N Peachtree Rd., Dunwoody, Ga 30338	Dunwoody	Dekalb	Drive-Thru	Monday Thru Friday 8:30 Am-5 Pm, Saturday 9 Am-12 Pm	No	To Receive A Test At One Of These Facilities, Please Contact Your Medical Provider Or Local Public Health Officials For A Referral: District 3-5 Dekalb Health District: (404) 294-3701	-	-	Kingswood Church	-	Georgia	Https://Www.11Alive.Com/Article/News/Health/Coronavirus/Coronavirus-Testing-Sites-Georgia/85-81940317-58Ff-4Bfb-901E-Fc00Fb1Fc995	-	30338	33.94	-84.32
3702 2Nd Avenue, Columbus, Ga, 31094	Columbus	Dekalb	Drive-Thru	By Appointment Only.	No	This Testing Site Will Collect Samples For Testing By Appointment Only For Patients Who Meet The Cdc Criteria.	-	-	Mercy Med Of Columbus	(706) 507-9209	Georgia	Https://Mercymedcolumbus.Com/Coronavirus-Update-For-Parents/	-	31904	32.54	-85.01
2706 Bouldercrest Rd. Se, Atlanta, Ga 30316	Atlanta	Dekalb	Drive-Thru	Monday Thru Friday 8:30 Am-5 Pm, Saturday 9 Am-12 Pm	No	To Receive A Test At One Of These Facilities, Please Contact Your Medical Provider Or Local Public Health Officials For A Referral: District 3-5 Dekalb Health District: (404) 294-3700	-	-	Sugar Creek Golf Course	-	Georgia	Https://Www.11Alive.Com/Article/News/Health/Coronavirus/Coronavirus-Testing-Sites-Georgia/85-81940317-58Ff-4Bfb-901E-Fc00Fb1Fc995	-	30316	33.74	-84.34
100 W Oglethorpe Blvd, Albany, Ga 31701	Albany	Dougherty	Drive-Thru	Sunday - Saturday: 02:00 Pm - 06:00 Pm	No	Anyone Interested In Gettng Tested Can Just Drive Up And Be Seen. However, It Is More Beneficial To Set Up An Appointment. Walk-Ins Are Also Welcomed, But Only To Symptomatic People And Critical Infrastruscture Workers. Appointments Can Be Set Up By Calling This Number (706)-721-1852.	-	-	Albany Civic Center	-	Georgia	Https://Wfxl.Com/News/Local/National-Guard-Set-Up-Free-Covid-19-Testing-Site-In-Albany	-	31701	31.58	-84.15
1710 S Slappley Blvd, Albany, Ga, 31701	Albany	Dougherty	Drive-Thru	9:30Am-5Pm, Monday-Friday	No	"Testing At This Location Requires A Doctor'S Order. Your Doctor Must First Fill Out The Georgia Department Of Health Referral Form: Https://Dhpexternal.Dph.Ga.Gov/Spoc.Html
Followed By The Spoc Screening Form: Https://Sendss.State.Ga.Us/Sendss/Ncovspoc.Assess 
Based Upon The Cdc Criteria For Symptoms And Exposure, It Will Be Determined If You Are In Need Of Testing. If You Are Referred For Testing, You Will Be Given An Id Number And Directed To The Nearest Testing Location."	-	-	Dougherty County Health Department	-	Georgia	Https://Sendss.State.Ga.Us/Sendss/Ncovspoc.Assess	-	31701	31.58	-84.15
6031 Fairburn Road, Douglasville, Ga 30134	Douglasville	Douglas	Drive-Thru	See Website For Available Appointment Times	-	Rapid Covid-19 Testing Will Be Available To Eligible Individuals Who Meet Criteria Established By The Centers For Disease Control And Prevention, In Addition To State Residency And Age Guidelines (Must Be 18 Or Older). Patients Will Need To Pre-Register In Advance On-Line At Https://Www.Cvs.Com/Minuteclinic/Covid-19-Testing In Order To Schedule A Slot To Be Tested. When Patients Arrive At The Test Site, They Are Required Stay In Their Vehicle. Team Members On Site Will Check Their Registration And Direct Them Through The Testing Process. For The Safety Of Patients And Health Care Providers On Site, Testing Is Limited To Drive-Thru Testing Only. For More Information About Test Site Locations, Hours Of Operations, And How To Register For A Test, Please Visit Https://Www.Cvs.Com/Minuteclinic/Covid-19-Testing.	-	-	Cvs Health Covid-19 Drive Thru Testing Site - By Appointment Only	-	Georgia	Https://Www.Cvs.Com/Minuteclinic/Covid-19-Testing	-	30134	33.8	-84.8
8830 Gurly Rd Douglasville, Ga 30134	Douglasville	Douglas	Drive-Thru	Monday Thru Friday 8:30 Am-5 Pm, Saturday 9 Am-12 Pm	No	"To Receive A Test At One Of These Facilities, Please Contact Your Medical Provider Or Local Public Health Officials For A Referral:

District 3-1 Cobb & Douglas Health District: (770) 514-2300"	-	-	Hunter Memorial Park	-	Georgia	Https://Www.11Alive.Com/Article/News/Health/Coronavirus/Coronavirus-Testing-Sites-Georgia/85-81940317-58Ff-4Bfb-901E-Fc00Fb1Fc995	-	30134	33.8	-84.8
480 Glynn Street, Fayetteville, Ga 30214	Fayetteville	Fayette	Drive-Thru	See Website For Available Appointment Times	-	Rapid Covid-19 Testing Will Be Available To Eligible Individuals Who Meet Criteria Established By The Centers For Disease Control And Prevention, In Addition To State Residency And Age Guidelines (Must Be 18 Or Older). Patients Will Need To Pre-Register In Advance On-Line At Https://Www.Cvs.Com/Minuteclinic/Covid-19-Testing In Order To Schedule A Slot To Be Tested. When Patients Arrive At The Test Site, They Are Required Stay In Their Vehicle. Team Members On Site Will Check Their Registration And Direct Them Through The Testing Process. For The Safety Of Patients And Health Care Providers On Site, Testing Is Limited To Drive-Thru Testing Only. For More Information About Test Site Locations, Hours Of Operations, And How To Register For A Test, Please Visit Https://Www.Cvs.Com/Minuteclinic/Covid-19-Testing.	-	-	Cvs Health Covid-19 Drive Thru Testing Site - By Appointment Only	-	Georgia	Https://Www.Cvs.Com/Minuteclinic/Covid-19-Testing	-	30214	33.49	-84.48
1255 Highway 54 West, Fayetteville, Ga 30214	Fayetteville	Fayette	Screening Hotline	7Am-7Pm, Monday-Friday	No	At This Time, Testing Is Being Completed With A Physician Order And For Patients Who Meet Certain Criteria, As Provided By The Cdc And The Georgia Department Of Public Health. If You Are Experiencing Symptoms And Would Like To Be Screened To See If You Are Eligible For Testing, Call Their Screening Hotline At (866) 460-1119. You Will Be Directed To Your Nearest Testing Facility.	-	-	Piedmont Fayette	(866) 460-1119	Georgia	Https://Www.Piedmont.Org/Patients-Visitors/Coronavirus	-	30214	33.49	-84.48
914 Shorter Ave Nw, Rome, Ga, 30165	Rome	Floyd	Drive-Thru	"Monday - Friday: 
09:00 A.M. - 05:00 P.M.
Saturday: 09:00 A.M. - 01:00 P.M.
Sunday: 
Closed"	No	"Testing At This Location Requires A Doctor'S Order. Your Doctor Must Fill Out The Spoc Screening Form: Https://Sendss.State.Ga.Us/Sendss/Ncovspoc.Assess
Based Upon The Cdc Criteria For Symptoms And Exposure, It Will Be Determined If You Are In Need Of Testing. If You Are Referred For Testing, You Will Be Given An Id Number And Directed To The Nearest Testing Location."	-	-	West Rome Baptist Church	-	Georgia	Https://Sendss.State.Ga.Us/Sendss/Ncovspoc.Assess	-	30165	34.3	-85.3
4895 Post Road, Cumming, Ga 30040	Cumming	Forsyth	Drive-Thru	See Website For Available Appointment Times	-	Rapid Covid-19 Testing Will Be Available To Eligible Individuals Who Meet Criteria Established By The Centers For Disease Control And Prevention, In Addition To State Residency And Age Guidelines (Must Be 18 Or Older). Patients Will Need To Pre-Register In Advance On-Line At Https://Www.Cvs.Com/Minuteclinic/Covid-19-Testing In Order To Schedule A Slot To Be Tested. When Patients Arrive At The Test Site, They Are Required Stay In Their Vehicle. Team Members On Site Will Check Their Registration And Direct Them Through The Testing Process. For The Safety Of Patients And Health Care Providers On Site, Testing Is Limited To Drive-Thru Testing Only. For More Information About Test Site Locations, Hours Of Operations, And How To Register For A Test, Please Visit Https://Www.Cvs.Com/Minuteclinic/Covid-19-Testing.	-	-	Cvs Health Covid-19 Drive Thru Testing Site - By Appointment Only	-	Georgia	Https://Www.Cvs.Com/Minuteclinic/Covid-19-Testing	-	30040	34.2	-84.2
3867 Roswell Rd Ne, Atlanta, Ga, 30342	Atlanta	Fulton	Drive-Thru	4 Pm - 4:30 Pm Monday - Friday; 2 Pm - 2:30 Pm Saturday & Sunday	-	You Must Have An Appointment To Be Tested At This Drive-Thru Location. In Order To Schedule An Appointment, You Must Be Screened In A Telemedicine Visit First. After Your Video Visit (Telemedicine) Buckhead Staff Will Print Your Order And Prepare Your Laboratory Supplies Needed For The Test. We Will Meet You At The Rear Parking Lot Of The Building On Roswell Ave Ne.  We Will Be Meeting You Only During The 30-Minute Window Mon-Fri: 4Pm-4:30Pm, Sat-Sun: 2Pm-2:30Pm. You Will Stay In Your Car The Entire Time, You Will Not Exit Your Car For The Test. We Will Still Need To See Your Id To Prevent Test-Result Mixup.	-	-	Allcare - Buckhead	(678) 904-5611	Georgia	Https://Allcarefamilymed.Com/Coronavirus	-	30342	33.88	-84.38
3900 Aviation Circle Nw, Atlanta, Ga, 30336	Atlanta	Fulton	Drive-Thru	10Am-4Pm Monday-Friday; 10A-2P Saturday	No	"Testing At This Location Requires A Doctor'S Order. Your Doctor Must First Fill Out The Georgia Department Of Health Referral Form: Https://Dhpexternal.Dph.Ga.Gov/Spoc.Html
Followed By The Spoc Screening Form: Https://Sendss.State.Ga.Us/Sendss/Ncovspoc.Assess 
Based Upon The Cdc Criteria For Symptoms And Exposure, It Will Be Determined If You Are In Need Of Testing. If You Are Referred For Testing, You Will Be Given An Id Number And Directed To The Nearest Testing Location."	-	-	Aviation Cultural Center	-	Georgia	Https://Sendss.State.Ga.Us/Sendss/Ncovspoc.Assess	-	30336	33.74	-84.57
11710 Alpharetta Highway, Roswell, Ga 30076	Roswell	Fulton	Drive-Thru	See Website For Available Appointment Times	-	Rapid Covid-19 Testing Will Be Available To Eligible Individuals Who Meet Criteria Established By The Centers For Disease Control And Prevention, In Addition To State Residency And Age Guidelines (Must Be 18 Or Older). Patients Will Need To Pre-Register In Advance On-Line At Https://Www.Cvs.Com/Minuteclinic/Covid-19-Testing In Order To Schedule A Slot To Be Tested. When Patients Arrive At The Test Site, They Are Required Stay In Their Vehicle. Team Members On Site Will Check Their Registration And Direct Them Through The Testing Process. For The Safety Of Patients And Health Care Providers On Site, Testing Is Limited To Drive-Thru Testing Only. For More Information About Test Site Locations, Hours Of Operations, And How To Register For A Test, Please Visit Https://Www.Cvs.Com/Minuteclinic/Covid-19-Testing.	-	-	Cvs Health Covid-19 Drive Thru Testing Site - By Appointment Only	-	Georgia	Https://Www.Cvs.Com/Minuteclinic/Covid-19-Testing	-	30076	34.02	-84.31
1455 Moreland Avenue Atlanta, Ga 30316	Atlanta	Fulton	Drive-Thru	See Website For Available Appointment Times	-	Rapid Covid-19 Testing Will Be Available To Eligible Individuals Who Meet Criteria Established By The Centers For Disease Control And Prevention, In Addition To State Residency And Age Guidelines (Must Be 18 Or Older). Patients Will Need To Pre-Register In Advance On-Line At Https://Www.Cvs.Com/Minuteclinic/Covid-19-Testing In Order To Schedule A Slot To Be Tested. When Patients Arrive At The Test Site, They Are Required Stay In Their Vehicle. Team Members On Site Will Check Their Registration And Direct Them Through The Testing Process. For The Safety Of Patients And Health Care Providers On Site, Testing Is Limited To Drive-Thru Testing Only. For More Information About Test Site Locations, Hours Of Operations, And How To Register For A Test, Please Visit Https://Www.Cvs.Com/Minuteclinic/Covid-19-Testing.	-	-	Cvs Health Covid-19 Drive Thru Testing Site - By Appointment Only	-	Georgia	Https://Www.Cvs.Com/Minuteclinic/Covid-19-Testing	-	30316	33.74	-84.34
2350 Cheshire Bridge Road Ne Atlanta, Ga 30324	Atlanta	Fulton	Drive-Thru	See Website For Available Appointment Times	-	Rapid Covid-19 Testing Will Be Available To Eligible Individuals Who Meet Criteria Established By The Centers For Disease Control And Prevention, In Addition To State Residency And Age Guidelines (Must Be 18 Or Older). Patients Will Need To Pre-Register In Advance On-Line At Https://Www.Cvs.Com/Minuteclinic/Covid-19-Testing In Order To Schedule A Slot To Be Tested. When Patients Arrive At The Test Site, They Are Required Stay In Their Vehicle. Team Members On Site Will Check Their Registration And Direct Them Through The Testing Process. For The Safety Of Patients And Health Care Providers On Site, Testing Is Limited To Drive-Thru Testing Only. For More Information About Test Site Locations, Hours Of Operations, And How To Register For A Test, Please Visit Https://Www.Cvs.Com/Minuteclinic/Covid-19-Testing.	-	-	Cvs Health Covid-19 Drive Thru Testing Site - By Appointment Only	-	Georgia	Https://Www.Cvs.Com/Minuteclinic/Covid-19-Testing	-	30324	33.82	-84.36
1610 Mount Vernon Road Suite 100 Atlanta, Ga 30338	Atlanta	Fulton	Drive-Thru	See Website For Available Appointment Times	-	Rapid Covid-19 Testing Will Be Available To Eligible Individuals Who Meet Criteria Established By The Centers For Disease Control And Prevention, In Addition To State Residency And Age Guidelines (Must Be 18 Or Older). Patients Will Need To Pre-Register In Advance On-Line At Https://Www.Cvs.Com/Minuteclinic/Covid-19-Testing In Order To Schedule A Slot To Be Tested. When Patients Arrive At The Test Site, They Are Required Stay In Their Vehicle. Team Members On Site Will Check Their Registration And Direct Them Through The Testing Process. For The Safety Of Patients And Health Care Providers On Site, Testing Is Limited To Drive-Thru Testing Only. For More Information About Test Site Locations, Hours Of Operations, And How To Register For A Test, Please Visit Https://Www.Cvs.Com/Minuteclinic/Covid-19-Testing.	-	-	Cvs Health Covid-19 Drive Thru Testing Site - By Appointment Only	-	Georgia	Https://Www.Cvs.Com/Minuteclinic/Covid-19-Testing	-	30338	33.94	-84.32
439 North Highland Avenue Atlanta, Ga 30312	Atlanta	Fulton	Drive-Thru	See Website For Available Appointment Times	-	Rapid Covid-19 Testing Will Be Available To Eligible Individuals Who Meet Criteria Established By The Centers For Disease Control And Prevention, In Addition To State Residency And Age Guidelines (Must Be 18 Or Older). Patients Will Need To Pre-Register In Advance On-Line At Https://Www.Cvs.Com/Minuteclinic/Covid-19-Testing In Order To Schedule A Slot To Be Tested. When Patients Arrive At The Test Site, They Are Required Stay In Their Vehicle. Team Members On Site Will Check Their Registration And Direct Them Through The Testing Process. For The Safety Of Patients And Health Care Providers On Site, Testing Is Limited To Drive-Thru Testing Only. For More Information About Test Site Locations, Hours Of Operations, And How To Register For A Test, Please Visit Https://Www.Cvs.Com/Minuteclinic/Covid-19-Testing.	-	-	Cvs Health Covid-19 Drive Thru Testing Site - By Appointment Only	-	Georgia	Https://Www.Cvs.Com/Minuteclinic/Covid-19-Testing	-	30312	33.74	-84.38
2237 Cascade Road Sw Atlanta, Ga 30311-2832	Atlanta	Fulton	Drive-Thru	See Website For Available Appointment Times	-	Rapid Covid-19 Testing Will Be Available To Eligible Individuals Who Meet Criteria Established By The Centers For Disease Control And Prevention, In Addition To State Residency And Age Guidelines (Must Be 18 Or Older). Patients Will Need To Pre-Register In Advance On-Line At Https://Www.Cvs.Com/Minuteclinic/Covid-19-Testing In Order To Schedule A Slot To Be Tested. When Patients Arrive At The Test Site, They Are Required Stay In Their Vehicle. Team Members On Site Will Check Their Registration And Direct Them Through The Testing Process. For The Safety Of Patients And Health Care Providers On Site, Testing Is Limited To Drive-Thru Testing Only. For More Information About Test Site Locations, Hours Of Operations, And How To Register For A Test, Please Visit Https://Www.Cvs.Com/Minuteclinic/Covid-19-Testing.	-	-	Cvs Health Covid-19 Drive Thru Testing Site - By Appointment Only	-	Georgia	Https://Www.Cvs.Com/Minuteclinic/Covid-19-Testing	-	30311	33.73	-84.47
3221 Peachtree Road Ne Atlanta, Ga 30305	Atlanta	Fulton	Drive-Thru	See Website For Available Appointment Times	-	Rapid Covid-19 Testing Will Be Available To Eligible Individuals Who Meet Criteria Established By The Centers For Disease Control And Prevention, In Addition To State Residency And Age Guidelines (Must Be 18 Or Older). Patients Will Need To Pre-Register In Advance On-Line At Https://Www.Cvs.Com/Minuteclinic/Covid-19-Testing In Order To Schedule A Slot To Be Tested. When Patients Arrive At The Test Site, They Are Required Stay In Their Vehicle. Team Members On Site Will Check Their Registration And Direct Them Through The Testing Process. For The Safety Of Patients And Health Care Providers On Site, Testing Is Limited To Drive-Thru Testing Only. For More Information About Test Site Locations, Hours Of Operations, And How To Register For A Test, Please Visit Https://Www.Cvs.Com/Minuteclinic/Covid-19-Testing.	-	-	Cvs Health Covid-19 Drive Thru Testing Site - By Appointment Only	-	Georgia	Https://Www.Cvs.Com/Minuteclinic/Covid-19-Testing	-	30305	33.84	-84.38
10710 State Bridge Rd Alpharetta, Ga 30022	Alpharetta	Fulton	Drive-Thru	See Website For Available Appointment Times	-	Rapid Covid-19 Testing Will Be Available To Eligible Individuals Who Meet Criteria Established By The Centers For Disease Control And Prevention, In Addition To State Residency And Age Guidelines (Must Be 18 Or Older). Patients Will Need To Pre-Register In Advance On-Line At Https://Www.Cvs.Com/Minuteclinic/Covid-19-Testing In Order To Schedule A Slot To Be Tested. When Patients Arrive At The Test Site, They Are Required Stay In Their Vehicle. Team Members On Site Will Check Their Registration And Direct Them Through The Testing Process. For The Safety Of Patients And Health Care Providers On Site, Testing Is Limited To Drive-Thru Testing Only. For More Information About Test Site Locations, Hours Of Operations, And How To Register For A Test, Please Visit Https://Www.Cvs.Com/Minuteclinic/Covid-19-Testing.	-	-	Cvs Health Covid-19 Drive Thru Testing Site - By Appointment Only	-	Georgia	Https://Www.Cvs.Com/Minuteclinic/Covid-19-Testing	-	30022	34.02	-84.25
680 Ponce De Leon Avenue Ne	Atlanta	Fulton	Drive-Thru	See Website For Available Appointment Times	-	Rapid Covid-19 Testing Will Be Available To Eligible Individuals Who Meet Criteria Established By The Centers For Disease Control And Prevention, In Addition To State Residency And Age Guidelines (Must Be 18 Or Older). Patients Will Need To Pre-Register In Advance On-Line At Https://Www.Cvs.Com/Minuteclinic/Covid-19-Testing In Order To Schedule A Slot To Be Tested. When Patients Arrive At The Test Site, They Are Required Stay In Their Vehicle. Team Members On Site Will Check Their Registration And Direct Them Through The Testing Process. For The Safety Of Patients And Health Care Providers On Site, Testing Is Limited To Drive-Thru Testing Only. For More Information About Test Site Locations, Hours Of Operations, And How To Register For A Test, Please Visit Https://Www.Cvs.Com/Minuteclinic/Covid-19-Testing.	-	-	Cvs Health Covid-19 Drive Thru Testing Site - By Appointment Only	-	Georgia	Https://Www.Cvs.Com/Minuteclinic/Covid-19-Testing	-	30308	33.77	-84.38
2429 Martin Luther King Jr. Drive	Atlanta	Fulton	Drive-Thru	See Website For Available Appointment Times	-	Rapid Covid-19 Testing Will Be Available To Eligible Individuals Who Meet Criteria Established By The Centers For Disease Control And Prevention, In Addition To State Residency And Age Guidelines (Must Be 18 Or Older). Patients Will Need To Pre-Register In Advance On-Line At Https://Www.Cvs.Com/Minuteclinic/Covid-19-Testing In Order To Schedule A Slot To Be Tested. When Patients Arrive At The Test Site, They Are Required Stay In Their Vehicle. Team Members On Site Will Check Their Registration And Direct Them Through The Testing Process. For The Safety Of Patients And Health Care Providers On Site, Testing Is Limited To Drive-Thru Testing Only. For More Information About Test Site Locations, Hours Of Operations, And How To Register For A Test, Please Visit Https://Www.Cvs.Com/Minuteclinic/Covid-19-Testing.	-	-	Cvs Health Covid-19 Drive Thru Testing Site - By Appointment Only	-	Georgia	Https://Www.Cvs.Com/Minuteclinic/Covid-19-Testing	-	30311	33.73	-84.47
Georgia Tech, North Campus Parking Deck, 352 Peachtree Place , Atlanta , Ga 30332	Atlanta	Fulton	Drive-Thru	9Am-6Pm, Monday-Friday; 10Am-5Pm, Saturday; 10Am-4Pm, Sunday	No	"Rapid Covid-19 Testing Will Be Available To Eligible Individuals Who Meet Criteria Established By The Centers For Disease Control And Prevention, In Addition To State Residency And Age Guidelines (Must Be 18 Or Older). Patients Will Need To Pre-Register In Advance On-Line At Https://Www.Cvs.Com/Minuteclinic/Covid-19-Testing In Order To Schedule A Slot To Be Tested.
When Patients Arrive At The Test Site, They Are Required Stay In Their Vehicle. Team Members On Site Will Check Their Registration And Direct Them Through The Testing Process. For The Safety Of Patients And Health Care Providers On Site, Testing Is Limited To Drive-Thru Testing Only.
For More Information About Test Site Locations, Hours Of Operations, And How To Register For A Test, Please Visit Https://Www.Cvs.Com/Minuteclinic/Covid-19-Testing."	-	-	Cvs Health Covid-19 Testing Site â€“ By Appointment Only	-	Georgia	Https://Www.Cvs.Com/Minuteclinic/Covid-19-Testing	-	30332	33.75	-84.39
550 Peachtree St Ne Atlanta, Ga 30308	Atlanta	Fulton	Hospital	8Am-10Pm Monday-Friday; 8Am-5Pm, Sunday	No	Emory Healthcare Has Limited Covid-19 Testing Available And Tests Are Prioritized For The Most Critical Cases. Priority Is Given To Those At High Risk For Spreading Covid-19 To Others Because Of Where They Work Or Live, Or Who Are At-Risk For More Severe Illness. Testing Is Provided Only By Appointment. Patients Who Are Symptomatic May Call 404-712-6843 Monday - Friday 8 A.M. -10 P.M. And Sunday 8 A.M. - 5 P.M. To Evaluate Your Condition And Determine If You Meet The Criteria For Testing. Walk-In Appointments Are Not Available.	-	-	Emory Hospital Midtown	(404) 712-6843	Georgia	Https://Www.Emoryhealthcare.Org/Covid/Symptom-Checker.Html	No	30308	33.77	-84.38
1968 Peachtree Road Nw Atlanta, Ga 30309	Atlanta	Fulton	Screening Hotline	7Am-7Pm, Monday-Friday	No	At This Time, Testing Is Being Completed With A Physician Order And For Patients Who Meet Certain Criteria, As Provided By The Cdc And The Georgia Department Of Public Health. If You Are Experiencing Symptoms And Would Like To Be Screened To See If You Are Eligible For Testing, Call Their Screening Hotline At (866) 460-1119. You Will Be Directed To Your Nearest Testing Facility.	-	-	Piedmont Healthcare - Atlanta	(866) 460-1119	Georgia	Https://Www.Piedmont.Org/Patients-Visitors/Coronavirus	-	30309	33.8	-84.39
11855 Jones Bridge Rd., Alpharetta, Ga 30005	Alpharetta	Fulton	Drive-Thru	Every Day 9 Am-5 Pm	No	For More Information And To Register For A Test, Visit Walgreens.Com/Coronavirus	-	-	Walgreens Drive-Thru Rapid Covid-19 Testing Site (Alpharetta)	-	Georgia	Https://Www.11Alive.Com/Article/News/Health/Coronavirus/Coronavirus-Testing-Sites-Georgia/85-81940317-58Ff-4Bfb-901E-Fc00Fb1Fc995	-	30005	34.09	-84.22
1041 Legion Rd. Ellijay, Ga 30540	Ellijay	Gilmer	Drive-Thru	Monday Thru Friday 9 Am-12 Pm	No	"Visits To The Sites Are By Referral Or Appointment Only According To A Release From Governor Brian Kemp'S Office. Residents Will Need To Speak With The Medical Providers, Local Public Health Officials Or Another Authority To Get Tested At These Locations. To Receive A Test At One Of These Facilities, Please Contact Your Medical Provider Or Local Public Health Officials For A Referral:

District 1-2 North Georgia Health District (Dalton): 1 (888) 881-1474"	-	-	Ect Pavilion	-	Georgia	Https://Www.11Alive.Com/Article/News/Health/Coronavirus/Coronavirus-Testing-Sites-Georgia/85-81940317-58Ff-4Bfb-901E-Fc00Fb1Fc995	-	30540	34.7	-84.5
2747 4Th Street, Brunswick, Ga, 31520	Brunswick	Glynn	Drive-Thru	9Am-1Pm, Monday-Friday	No	"Testing At This Location Requires A Doctor'S Order. Your Doctor Must First Fill Out The Georgia Department Of Health Referral Form: Https://Dhpexternal.Dph.Ga.Gov/Spoc.Html
Followed By The Spoc Screening Form: Https://Sendss.State.Ga.Us/Sendss/Ncovspoc.Assess 
Based Upon The Cdc Criteria For Symptoms And Exposure, It Will Be Determined If You Are In Need Of Testing. If You Are Referred For Testing, You Will Be Given An Id Number And Directed To The Nearest Testing Location."	-	-	Glynn County Health Department	(912) 264-3961	Georgia	Https://Sendss.State.Ga.Us/Sendss/Ncovspoc.Assess	-	31520	31.18	-81.48
5095 Peachtree Parkway, Norcross, Ga 30092	Norcross	Gwinnett	Drive-Thru	See Website For Available Appointment Times	-	Rapid Covid-19 Testing Will Be Available To Eligible Individuals Who Meet Criteria Established By The Centers For Disease Control And Prevention, In Addition To State Residency And Age Guidelines (Must Be 18 Or Older). Patients Will Need To Pre-Register In Advance On-Line At Https://Www.Cvs.Com/Minuteclinic/Covid-19-Testing In Order To Schedule A Slot To Be Tested. When Patients Arrive At The Test Site, They Are Required Stay In Their Vehicle. Team Members On Site Will Check Their Registration And Direct Them Through The Testing Process. For The Safety Of Patients And Health Care Providers On Site, Testing Is Limited To Drive-Thru Testing Only. For More Information About Test Site Locations, Hours Of Operations, And How To Register For A Test, Please Visit Https://Www.Cvs.Com/Minuteclinic/Covid-19-Testing.	-	-	Cvs Health Covid-19 Drive Thru Testing Site - By Appointment Only	-	Georgia	Https://Www.Cvs.Com/Minuteclinic/Covid-19-Testing	-	30092	33.97	-84.23
5370 Laurel Springs Parkway, Suwanee, Ga 30024	Suwanee	Gwinnett	Drive-Thru	See Website For Available Appointment Times	-	Rapid Covid-19 Testing Will Be Available To Eligible Individuals Who Meet Criteria Established By The Centers For Disease Control And Prevention, In Addition To State Residency And Age Guidelines (Must Be 18 Or Older). Patients Will Need To Pre-Register In Advance On-Line At Https://Www.Cvs.Com/Minuteclinic/Covid-19-Testing In Order To Schedule A Slot To Be Tested. When Patients Arrive At The Test Site, They Are Required Stay In Their Vehicle. Team Members On Site Will Check Their Registration And Direct Them Through The Testing Process. For The Safety Of Patients And Health Care Providers On Site, Testing Is Limited To Drive-Thru Testing Only. For More Information About Test Site Locations, Hours Of Operations, And How To Register For A Test, Please Visit Https://Www.Cvs.Com/Minuteclinic/Covid-19-Testing.	-	-	Cvs Health Covid-19 Drive Thru Testing Site - By Appointment Only	-	Georgia	Https://Www.Cvs.Com/Minuteclinic/Covid-19-Testing	-	30024	34.07	-84.1
5710 Sugarloaf Parkway Nw, Lawrenceville, Ga 30043	Lawrenceville	Gwinnett	Drive-Thru	See Website For Available Appointment Times	-	Rapid Covid-19 Testing Will Be Available To Eligible Individuals Who Meet Criteria Established By The Centers For Disease Control And Prevention, In Addition To State Residency And Age Guidelines (Must Be 18 Or Older). Patients Will Need To Pre-Register In Advance On-Line At Https://Www.Cvs.Com/Minuteclinic/Covid-19-Testing In Order To Schedule A Slot To Be Tested. When Patients Arrive At The Test Site, They Are Required Stay In Their Vehicle. Team Members On Site Will Check Their Registration And Direct Them Through The Testing Process. For The Safety Of Patients And Health Care Providers On Site, Testing Is Limited To Drive-Thru Testing Only. For More Information About Test Site Locations, Hours Of Operations, And How To Register For A Test, Please Visit Https://Www.Cvs.Com/Minuteclinic/Covid-19-Testing.	-	-	Cvs Health Covid-19 Drive Thru Testing Site - By Appointment Only	-	Georgia	Https://Www.Cvs.Com/Minuteclinic/Covid-19-Testing	-	30043	34.01	-84.01
3027 Jim Moore Road, Dacula, Ga 30019	Dacula	Gwinnett	Drive-Thru	See Website For Available Appointment Times	-	Rapid Covid-19 Testing Will Be Available To Eligible Individuals Who Meet Criteria Established By The Centers For Disease Control And Prevention, In Addition To State Residency And Age Guidelines (Must Be 18 Or Older). Patients Will Need To Pre-Register In Advance On-Line At Https://Www.Cvs.Com/Minuteclinic/Covid-19-Testing In Order To Schedule A Slot To Be Tested. When Patients Arrive At The Test Site, They Are Required Stay In Their Vehicle. Team Members On Site Will Check Their Registration And Direct Them Through The Testing Process. For The Safety Of Patients And Health Care Providers On Site, Testing Is Limited To Drive-Thru Testing Only. For More Information About Test Site Locations, Hours Of Operations, And How To Register For A Test, Please Visit Https://Www.Cvs.Com/Minuteclinic/Covid-19-Testing.	-	-	Cvs Health Covid-19 Drive Thru Testing Site - By Appointment Only	-	Georgia	Https://Www.Cvs.Com/Minuteclinic/Covid-19-Testing	-	30019	34.0	-83.9
1950 Buford Highway, Buford, Ga 30518-3673	Buford	Gwinnett	Drive-Thru	See Website For Available Appointment Times	-	Rapid Covid-19 Testing Will Be Available To Eligible Individuals Who Meet Criteria Established By The Centers For Disease Control And Prevention, In Addition To State Residency And Age Guidelines (Must Be 18 Or Older). Patients Will Need To Pre-Register In Advance On-Line At Https://Www.Cvs.Com/Minuteclinic/Covid-19-Testing In Order To Schedule A Slot To Be Tested. When Patients Arrive At The Test Site, They Are Required Stay In Their Vehicle. Team Members On Site Will Check Their Registration And Direct Them Through The Testing Process. For The Safety Of Patients And Health Care Providers On Site, Testing Is Limited To Drive-Thru Testing Only. For More Information About Test Site Locations, Hours Of Operations, And How To Register For A Test, Please Visit Https://Www.Cvs.Com/Minuteclinic/Covid-19-Testing.	-	-	Cvs Health Covid-19 Drive Thru Testing Site - By Appointment Only	-	Georgia	Https://Www.Cvs.Com/Minuteclinic/Covid-19-Testing	-	30518	34.12	-84.01
1187 Grayson Highway Lawrenceville, Ga 30045	Lawrenceville	Gwinnett	Drive-Thru	See Website For Available Appointment Times	-	Rapid Covid-19 Testing Will Be Available To Eligible Individuals Who Meet Criteria Established By The Centers For Disease Control And Prevention, In Addition To State Residency And Age Guidelines (Must Be 18 Or Older). Patients Will Need To Pre-Register In Advance On-Line At Https://Www.Cvs.Com/Minuteclinic/Covid-19-Testing In Order To Schedule A Slot To Be Tested. When Patients Arrive At The Test Site, They Are Required Stay In Their Vehicle. Team Members On Site Will Check Their Registration And Direct Them Through The Testing Process. For The Safety Of Patients And Health Care Providers On Site, Testing Is Limited To Drive-Thru Testing Only. For More Information About Test Site Locations, Hours Of Operations, And How To Register For A Test, Please Visit Https://Www.Cvs.Com/Minuteclinic/Covid-19-Testing.	-	-	Cvs Health Covid-19 Drive Thru Testing Site - By Appointment Only	-	Georgia	Https://Www.Cvs.Com/Minuteclinic/Covid-19-Testing	-	30045	33.93	-83.92
2570 Riverside Parkway Lawrenceville, Ga, 30046	Lawrenceville	Gwinnett	Drive-Thru	Monday Thru Friday 9 Am-5 Pm, Saturday 9 Am-12 Pm	No	"Testing At This Location Requires A Doctor'S Order. Your Doctor Must First Fill Out The Georgia Department Of Health Referral Form: Https://Dhpexternal.Dph.Ga.Gov/Spoc.Html
Followed By The Spoc Screening Form: Https://Sendss.State.Ga.Us/Sendss/Ncovspoc.Assess 
Based Upon The Cdc Criteria For Symptoms And Exposure, It Will Be Determined If You Are In Need Of Testing. If You Are Referred For Testing, You Will Be Given An Id Number And Directed To The Nearest Testing Location."	-	-	Gwinnett County Health Department	-	Georgia	Https://Sendss.State.Ga.Us/Sendss/Ncovspoc.Assess	-	30046	33.95	-84.0
2500 Allen Creek Rd., Gainesville, Ga, 30507	Gainesville	Hall	Drive-Thru	"Sunday: Closed
Monday - Friday: 
08:30 A.M. - 05:00 P.M.
Saturday: 
09:00 A.M. - 12:00 P.M."	No	To Receive A Test At This Facility, Please Contact The North Health District (Gainesville) Office At (770) 535-5743, One Of The Local Health Departments, Or Your Medical Provider For A Referral.	-	-	Allen Creek Soccer Complex	-	Georgia	Https://Sendss.State.Ga.Us/Sendss/Ncovspoc.Assess	-	30507	34.3	-83.8
2098 Highway 20 West Mcdonough, Ga 30253	Mcdonough	Henry	Drive-Thru	See Website For Available Appointment Times	-	Rapid Covid-19 Testing Will Be Available To Eligible Individuals Who Meet Criteria Established By The Centers For Disease Control And Prevention, In Addition To State Residency And Age Guidelines (Must Be 18 Or Older). Patients Will Need To Pre-Register In Advance On-Line At Https://Www.Cvs.Com/Minuteclinic/Covid-19-Testing In Order To Schedule A Slot To Be Tested. When Patients Arrive At The Test Site, They Are Required Stay In Their Vehicle. Team Members On Site Will Check Their Registration And Direct Them Through The Testing Process. For The Safety Of Patients And Health Care Providers On Site, Testing Is Limited To Drive-Thru Testing Only. For More Information About Test Site Locations, Hours Of Operations, And How To Register For A Test, Please Visit Https://Www.Cvs.Com/Minuteclinic/Covid-19-Testing.	-	-	Cvs Health Covid-19 Drive Thru Testing Site - By Appointment Only	-	Georgia	Https://Www.Cvs.Com/Minuteclinic/Covid-19-Testing	-	30253	33.45	-84.19
2720 Highway 42 North Mcdonough, Ga 30253	Mcdonough	Henry	Drive-Thru	See Website For Available Appointment Times	-	Rapid Covid-19 Testing Will Be Available To Eligible Individuals Who Meet Criteria Established By The Centers For Disease Control And Prevention, In Addition To State Residency And Age Guidelines (Must Be 18 Or Older). Patients Will Need To Pre-Register In Advance On-Line At Https://Www.Cvs.Com/Minuteclinic/Covid-19-Testing In Order To Schedule A Slot To Be Tested. When Patients Arrive At The Test Site, They Are Required Stay In Their Vehicle. Team Members On Site Will Check Their Registration And Direct Them Through The Testing Process. For The Safety Of Patients And Health Care Providers On Site, Testing Is Limited To Drive-Thru Testing Only. For More Information About Test Site Locations, Hours Of Operations, And How To Register For A Test, Please Visit Https://Www.Cvs.Com/Minuteclinic/Covid-19-Testing.	-	-	Cvs Health Covid-19 Drive Thru Testing Site - By Appointment Only	-	Georgia	Https://Www.Cvs.Com/Minuteclinic/Covid-19-Testing	-	30253	33.45	-84.19
1050 Florence Mcgarity Blvd., Mcdonough, Ga 30252	Mcdonough	Henry	Drive-Thru	Monday Thru Friday 8:30 Am-5 Pm, Saturday 9 Am-12 Pm	No	"To Receive A Test At One Of These Facilities, Please Contact Your Medical Provider Or Local Public Health Officials For A Referral:

District 4 Lagrange Health District: 1 (800) 847-4262"	-	-	Heritage Senior Center	-	Georgia	Https://Www.11Alive.Com/Article/News/Health/Coronavirus/Coronavirus-Testing-Sites-Georgia/85-81940317-58Ff-4Bfb-901E-Fc00Fb1Fc995	-	30252	33.5	-84.0
1133 Eagles Landing Parkway, Stockbridge, Ga 30281	Stockbridge	Henry	Screening Hotline	7Am-7Pm, Monday-Friday	No	At This Time, Testing Is Being Completed With A Physician Order And For Patients Who Meet Certain Criteria, As Provided By The Cdc And The Georgia Department Of Public Health. If You Are Experiencing Symptoms And Would Like To Be Screened To See If You Are Eligible For Testing, Call Their Screening Hotline At (866) 460-1119. You Will Be Directed To Your Nearest Testing Facility.	-	-	Piedmont Henry	(866) 460-1119	Georgia	Https://Www.Piedmont.Org/Patients-Visitors/Coronavirus	-	30281	33.6	-84.2
3001 Richard B. Russell Parkway, Warner Robins, Ga 31088	Warner Robins	Houston	Drive-Thru	See Website For Available Appointment Times	-	Rapid Covid-19 Testing Will Be Available To Eligible Individuals Who Meet Criteria Established By The Centers For Disease Control And Prevention, In Addition To State Residency And Age Guidelines (Must Be 18 Or Older). Patients Will Need To Pre-Register In Advance On-Line At Https://Www.Cvs.Com/Minuteclinic/Covid-19-Testing In Order To Schedule A Slot To Be Tested. When Patients Arrive At The Test Site, They Are Required Stay In Their Vehicle. Team Members On Site Will Check Their Registration And Direct Them Through The Testing Process. For The Safety Of Patients And Health Care Providers On Site, Testing Is Limited To Drive-Thru Testing Only. For More Information About Test Site Locations, Hours Of Operations, And How To Register For A Test, Please Visit Https://Www.Cvs.Com/Minuteclinic/Covid-19-Testing.	-	-	Cvs Health Covid-19 Drive Thru Testing Site - By Appointment Only	-	Georgia	Https://Www.Cvs.Com/Minuteclinic/Covid-19-Testing	-	31088	32.58	-83.65
98 Cohen Walker Dr, Warner Robins, Ga, 31088	Warner Robins	Houston	Drive-Thru	9Am-4Pm, Monday-Friday	No	"Testing At This Location Requires A Doctor'S Order. Your Doctor Must First Fill Out The Georgia Department Of Health Referral Form: Https://Dhpexternal.Dph.Ga.Gov/Spoc.Html
Followed By The Spoc Screening Form: Https://Sendss.State.Ga.Us/Sendss/Ncovspoc.Assess 
Based Upon The Cdc Criteria For Symptoms And Exposure, It Will Be Determined If You Are In Need Of Testing. If You Are Referred For Testing, You Will Be Given An Id Number And Directed To The Nearest Testing Location."	-	-	Houston County Health Department	-	Georgia	Https://Sendss.State.Ga.Us/Sendss/Ncovspoc.Assess	-	31088	32.58	-83.65
660 Firetower Rd, Dublin, Ga, 31021	Dublin	Laurens	Drive-Thru	8Am-5Pm, Monday-Friday	No	Call Columbus Health Department (706.321.6300) To Get Triaged, If You Meet The Criteria For Testing, An Appointment Time And Number Will Be Given To You.	-	-	Dublin Laurens County Recreation Center	-	Georgia	Https://Sendss.State.Ga.Us/Sendss/Ncovspoc.Assess	-	31021	32.5	-82.9
2205 North Ashley Street Valdosta, Ga 31602	Valdosta	Lowndes	Drive-Thru	See Website For Available Appointment Times	-	Rapid Covid-19 Testing Will Be Available To Eligible Individuals Who Meet Criteria Established By The Centers For Disease Control And Prevention, In Addition To State Residency And Age Guidelines (Must Be 18 Or Older). Patients Will Need To Pre-Register In Advance On-Line At Https://Www.Cvs.Com/Minuteclinic/Covid-19-Testing In Order To Schedule A Slot To Be Tested. When Patients Arrive At The Test Site, They Are Required Stay In Their Vehicle. Team Members On Site Will Check Their Registration And Direct Them Through The Testing Process. For The Safety Of Patients And Health Care Providers On Site, Testing Is Limited To Drive-Thru Testing Only. For More Information About Test Site Locations, Hours Of Operations, And How To Register For A Test, Please Visit Https://Www.Cvs.Com/Minuteclinic/Covid-19-Testing.	-	-	Cvs Health Covid-19 Drive Thru Testing Site - By Appointment Only	-	Georgia	Https://Www.Cvs.Com/Minuteclinic/Covid-19-Testing	-	31602	30.9	-83.3
2108 E Hill Ave Valdosta, Ga, 31601	Valdosta	Lowndes	Drive-Thru	9Am-1Pm, Monday-Friday	No	"Testing At This Location Requires A Doctor'S Order. Your Doctor Must First Fill Out The Georgia Department Of Health Referral Form: Https://Dhpexternal.Dph.Ga.Gov/Spoc.Html
Followed By The Spoc Screening Form: Https://Sendss.State.Ga.Us/Sendss/Ncovspoc.Assess 
Based Upon The Cdc Criteria For Symptoms And Exposure, It Will Be Determined If You Are In Need Of Testing. If You Are Referred For Testing, You Will Be Given An Id Number And Directed To The Nearest Testing Location."	-	-	Lowndes County Civic Center	-	Georgia	Https://Sendss.State.Ga.Us/Sendss/Ncovspoc.Assess	-	31601	30.8	-83.4
4280 North Valdosta Road Valdosta, Ga 31602	Valdosta	Lowndes	Urgent Care	9Am - 8Pm, Monday - Sunday	No	This Is A Screening Site Where You Will Be Able To Be Evaluated In Person To Determine If You Are Eligible For Testing.	-	-	Sgmc Urgent Care	(229) 433-8200	Georgia	Https://Www.Sgmc.Org/Sgmc-Announces-Opening-Of-Covid-19-Screening-Station/	-	31602	30.9	-83.3
1544 Bass Road, Macon, Ga 31210	Macon	Macon	Drive-Thru	See Website For Available Appointment Times	-	Rapid Covid-19 Testing Will Be Available To Eligible Individuals Who Meet Criteria Established By The Centers For Disease Control And Prevention, In Addition To State Residency And Age Guidelines (Must Be 18 Or Older). Patients Will Need To Pre-Register In Advance On-Line At Https://Www.Cvs.Com/Minuteclinic/Covid-19-Testing In Order To Schedule A Slot To Be Tested. When Patients Arrive At The Test Site, They Are Required Stay In Their Vehicle. Team Members On Site Will Check Their Registration And Direct Them Through The Testing Process. For The Safety Of Patients And Health Care Providers On Site, Testing Is Limited To Drive-Thru Testing Only. For More Information About Test Site Locations, Hours Of Operations, And How To Register For A Test, Please Visit Https://Www.Cvs.Com/Minuteclinic/Covid-19-Testing.	-	-	Cvs Health Covid-19 Drive Thru Testing Site - By Appointment Only	-	Georgia	Https://Www.Cvs.Com/Minuteclinic/Covid-19-Testing	-	31210	32.9	-83.75
2100 Comer Ave, Columbus, Ga, 31904	Columbus	Muscogee	Drive-Thru	9Am-4Pm, Monday-Friday	No	"Testing At This Location Requires A Doctor'S Order. Your Doctor Must First Fill Out The Georgia Department Of Health Referral Form: Https://Dhpexternal.Dph.Ga.Gov/Spoc.Html
Followed By The Spoc Screening Form: Https://Sendss.State.Ga.Us/Sendss/Ncovspoc.Assess 
Based Upon The Cdc Criteria For Symptoms And Exposure, It Will Be Determined If You Are In Need Of Testing. If You Are Referred For Testing, You Will Be Given An Id Number And Directed To The Nearest Testing Location."	-	-	Columbus Health Department	(706) 321-6300	Georgia	Https://Sendss.State.Ga.Us/Sendss/Ncovspoc.Assess	-	31904	32.54	-85.01
1622 S. Lumpkin Road Columbus, Ga 31903	Columbus	Muscogee	Drive-Thru	See Website For Available Appointment Times	-	Rapid Covid-19 Testing Will Be Available To Eligible Individuals Who Meet Criteria Established By The Centers For Disease Control And Prevention, In Addition To State Residency And Age Guidelines (Must Be 18 Or Older). Patients Will Need To Pre-Register In Advance On-Line At Https://Www.Cvs.Com/Minuteclinic/Covid-19-Testing In Order To Schedule A Slot To Be Tested. When Patients Arrive At The Test Site, They Are Required Stay In Their Vehicle. Team Members On Site Will Check Their Registration And Direct Them Through The Testing Process. For The Safety Of Patients And Health Care Providers On Site, Testing Is Limited To Drive-Thru Testing Only. For More Information About Test Site Locations, Hours Of Operations, And How To Register For A Test, Please Visit Https://Www.Cvs.Com/Minuteclinic/Covid-19-Testing.	-	-	Cvs Health Covid-19 Drive Thru Testing Site - By Appointment Only	-	Georgia	Https://Www.Cvs.Com/Minuteclinic/Covid-19-Testing	-	31903	32.41	-84.95
4561 River Road Columbus, Ga 31904	Columbus	Muscogee	Drive-Thru	See Website For Available Appointment Times	-	Rapid Covid-19 Testing Will Be Available To Eligible Individuals Who Meet Criteria Established By The Centers For Disease Control And Prevention, In Addition To State Residency And Age Guidelines (Must Be 18 Or Older). Patients Will Need To Pre-Register In Advance On-Line At Https://Www.Cvs.Com/Minuteclinic/Covid-19-Testing In Order To Schedule A Slot To Be Tested. When Patients Arrive At The Test Site, They Are Required Stay In Their Vehicle. Team Members On Site Will Check Their Registration And Direct Them Through The Testing Process. For The Safety Of Patients And Health Care Providers On Site, Testing Is Limited To Drive-Thru Testing Only. For More Information About Test Site Locations, Hours Of Operations, And How To Register For A Test, Please Visit Https://Www.Cvs.Com/Minuteclinic/Covid-19-Testing.	-	-	Cvs Health Covid-19 Drive Thru Testing Site - By Appointment Only	-	Georgia	Https://Www.Cvs.Com/Minuteclinic/Covid-19-Testing	-	31904	32.54	-85.01
710 Center St., Columbus, Ga 31901	Columbus	Muscogee	Screening Hotline	7Am-7Pm, Monday-Friday	No	At This Time, Testing Is Being Completed With A Physician Order And For Patients Who Meet Certain Criteria, As Provided By The Cdc And The Georgia Department Of Public Health. If You Are Experiencing Symptoms And Would Like To Be Screened To See If You Are Eligible For Testing, Call Their Screening Hotline At (866) 460-1119. You Will Be Directed To Your Nearest Testing Facility.	-	-	Piedmont Columbus Regional - Midtown	(866) 460-1119	Georgia	Https://Www.Piedmont.Org/Patients-Visitors/Coronavirus	-	31901	32.47	-84.98
8187 Carlton Trl. Nw, Covington, Ga 30014	Covington	Newton	Drive-Thru	Monday 9 Am-5 Pm	No	To Receive A Test At One Of These Facilities, Please Contact Your Medical Provider Or Local Public Health Officials For A Referral: District 3-4 East Metro Health District (Lawrenceville): (770) 513-5631	-	-	Cousins Middle School	-	Georgia	Https://Www.11Alive.Com/Article/News/Health/Coronavirus/Coronavirus-Testing-Sites-Georgia/85-81940317-58Ff-4Bfb-901E-Fc00Fb1Fc995	-	30014	33.6	-83.8
4192 Salem Road, Covington, Ga 30019	Covington	Newton	Drive-Thru	See Website For Available Appointment Times	-	Rapid Covid-19 Testing Will Be Available To Eligible Individuals Who Meet Criteria Established By The Centers For Disease Control And Prevention, In Addition To State Residency And Age Guidelines (Must Be 18 Or Older). Patients Will Need To Pre-Register In Advance On-Line At Https://Www.Cvs.Com/Minuteclinic/Covid-19-Testing In Order To Schedule A Slot To Be Tested. When Patients Arrive At The Test Site, They Are Required Stay In Their Vehicle. Team Members On Site Will Check Their Registration And Direct Them Through The Testing Process. For The Safety Of Patients And Health Care Providers On Site, Testing Is Limited To Drive-Thru Testing Only. For More Information About Test Site Locations, Hours Of Operations, And How To Register For A Test, Please Visit Https://Www.Cvs.Com/Minuteclinic/Covid-19-Testing.	-	-	Cvs Health Covid-19 Drive Thru Testing Site - By Appointment Only	-	Georgia	Https://Www.Cvs.Com/Minuteclinic/Covid-19-Testing	-	30019	34.0	-83.9
5126 Hospital Dr Ne, Covington, Ga 30014	Covington	Newton	Screening Hotline	7Am-7Pm, Monday-Friday	No	At This Time, Testing Is Being Completed With A Physician Order And For Patients Who Meet Certain Criteria, As Provided By The Cdc And The Georgia Department Of Public Health. If You Are Experiencing Symptoms And Would Like To Be Screened To See If You Are Eligible For Testing, Call Their Screening Hotline At (866) 460-1119. You Will Be Directed To Your Nearest Testing Facility.	-	-	Piedmont Newton	(866) 460-1119	Georgia	Https://Www.Piedmont.Org/Patients-Visitors/Coronavirus	-	30014	33.6	-83.8
1305 Jennings Mill Road, Watkinsville, Ga 30677	Watkinsville	Oconee	Drive-Thru	9 Am-3 Pm, Monday-Friday	No	Individuals Must Meet Cdc Criteria For Covid-19 Screening. No Drop Ins Welcome. Please Call Ahead To Schedule An Appointment.	-	-	Oconee Health Campus	(866) 460-1119	Georgia	Https://Www.Onlineathens.Com/News/20200319/Piedmont-Athens-Operating-Coronavirus-Drive-Through-Testing-Site	No	30677	33.8	-83.4
120 Greystone Power Blvd., Dallas, Ga 30157	Dallas	Paulding	Drive-Thru	Monday Thru Friday 9 Am-5 Pm, Saturday 9 Am-1 Pm	No	"Visits To The Sites Are By Referral Or Appointment Only According To A Release From Governor Brian Kemp'S Office. Residents Will Need To Speak With The Medical Providers, Local Public Health Officials Or Another Authority To Get Tested At These Locations. To Receive A Test At One Of These Facilities, Please Contact Your Medical Provider Or Local Public Health Officials For A Referral:

District 1-1 Northwest Health District (Rome): (706) 802-5329, (706) 802-5885, (706) 802-5886, (706) 802-5888"	-	-	Greystone Building	-	Georgia	Https://Www.11Alive.Com/Article/News/Health/Coronavirus/Coronavirus-Testing-Sites-Georgia/85-81940317-58Ff-4Bfb-901E-Fc00Fb1Fc995	-	30157	33.9	-84.9
1266 Highway 515 South, Jasper, Ga 30143	Jasper	Pickens	Screening Hotline	7Am-7Pm, Monday-Friday	No	At This Time, Testing Is Being Completed With A Physician Order And For Patients Who Meet Certain Criteria, As Provided By The Cdc And The Georgia Department Of Public Health. If You Are Experiencing Symptoms And Would Like To Be Screened To See If You Are Eligible For Testing, Call Their Screening Hotline At (866) 460-1119. You Will Be Directed To Your Nearest Testing Facility.	-	-	Piedmont Mountainside	(866) 460-1119	Georgia	Https://Www.Piedmont.Org/Patients-Visitors/Coronavirus	-	30143	34.5	-84.4
3109 Wrightsboro Rd, Augusta, Ga, 30909	Augusta	Richmond	Drive-Thru	10Am-2Pm, Monday-Sunday	No	"Testing At This Location Requires A Doctor'S Order. Your Doctor Must First Fill Out The Georgia Department Of Health Referral Form: Https://Dhpexternal.Dph.Ga.Gov/Spoc.Html
Followed By The Spoc Screening Form: Https://Sendss.State.Ga.Us/Sendss/Ncovspoc.Assess 
Based Upon The Cdc Criteria For Symptoms And Exposure, It Will Be Determined If You Are In Need Of Testing. If You Are Referred For Testing, You Will Be Given An Id Number And Directed To The Nearest Testing Location."	-	-	Augusta Universityâ€™S Christenberry Fieldhouse	(706) 721-1852	Georgia	Https://Sendss.State.Ga.Us/Sendss/Ncovspoc.Assess	-	30909	33.48	-82.1
1520 Walton Way Augusta, Ga 30909	Augusta	Richmond	Drive-Thru	See Website For Available Appointment Times	-	Rapid Covid-19 Testing Will Be Available To Eligible Individuals Who Meet Criteria Established By The Centers For Disease Control And Prevention, In Addition To State Residency And Age Guidelines (Must Be 18 Or Older). Patients Will Need To Pre-Register In Advance On-Line At Https://Www.Cvs.Com/Minuteclinic/Covid-19-Testing In Order To Schedule A Slot To Be Tested. When Patients Arrive At The Test Site, They Are Required Stay In Their Vehicle. Team Members On Site Will Check Their Registration And Direct Them Through The Testing Process. For The Safety Of Patients And Health Care Providers On Site, Testing Is Limited To Drive-Thru Testing Only. For More Information About Test Site Locations, Hours Of Operations, And How To Register For A Test, Please Visit Https://Www.Cvs.Com/Minuteclinic/Covid-19-Testing.	-	-	Cvs Health Covid-19 Drive Thru Testing Site - By Appointment Only	-	Georgia	Https://Www.Cvs.Com/Minuteclinic/Covid-19-Testing	-	30909	33.48	-82.1
3231 Wrightsboro Road Augusta, Ga 30909	Augusta	Richmond	Drive-Thru	See Website For Available Appointment Times	-	Rapid Covid-19 Testing Will Be Available To Eligible Individuals Who Meet Criteria Established By The Centers For Disease Control And Prevention, In Addition To State Residency And Age Guidelines (Must Be 18 Or Older). Patients Will Need To Pre-Register In Advance On-Line At Https://Www.Cvs.Com/Minuteclinic/Covid-19-Testing In Order To Schedule A Slot To Be Tested. When Patients Arrive At The Test Site, They Are Required Stay In Their Vehicle. Team Members On Site Will Check Their Registration And Direct Them Through The Testing Process. For The Safety Of Patients And Health Care Providers On Site, Testing Is Limited To Drive-Thru Testing Only. For More Information About Test Site Locations, Hours Of Operations, And How To Register For A Test, Please Visit Https://Www.Cvs.Com/Minuteclinic/Covid-19-Testing.	-	-	Cvs Health Covid-19 Drive Thru Testing Site - By Appointment Only	-	Georgia	Https://Www.Cvs.Com/Minuteclinic/Covid-19-Testing	-	30909	33.48	-82.1
2703 Washington Road Augusta, Ga 30909	Augusta	Richmond	Drive-Thru	See Website For Available Appointment Times	-	Rapid Covid-19 Testing Will Be Available To Eligible Individuals Who Meet Criteria Established By The Centers For Disease Control And Prevention, In Addition To State Residency And Age Guidelines (Must Be 18 Or Older). Patients Will Need To Pre-Register In Advance On-Line At Https://Www.Cvs.Com/Minuteclinic/Covid-19-Testing In Order To Schedule A Slot To Be Tested. When Patients Arrive At The Test Site, They Are Required Stay In Their Vehicle. Team Members On Site Will Check Their Registration And Direct Them Through The Testing Process. For The Safety Of Patients And Health Care Providers On Site, Testing Is Limited To Drive-Thru Testing Only. For More Information About Test Site Locations, Hours Of Operations, And How To Register For A Test, Please Visit Https://Www.Cvs.Com/Minuteclinic/Covid-19-Testing.	-	-	Cvs Health Covid-19 Drive Thru Testing Site - By Appointment Only	-	Georgia	Https://Www.Cvs.Com/Minuteclinic/Covid-19-Testing	-	30909	33.48	-82.1
2559 Windsor Spring Road Augusta, Ga 30906	Augusta	Richmond	Drive-Thru	See Website For Available Appointment Times	-	Rapid Covid-19 Testing Will Be Available To Eligible Individuals Who Meet Criteria Established By The Centers For Disease Control And Prevention, In Addition To State Residency And Age Guidelines (Must Be 18 Or Older). Patients Will Need To Pre-Register In Advance On-Line At Https://Www.Cvs.Com/Minuteclinic/Covid-19-Testing In Order To Schedule A Slot To Be Tested. When Patients Arrive At The Test Site, They Are Required Stay In Their Vehicle. Team Members On Site Will Check Their Registration And Direct Them Through The Testing Process. For The Safety Of Patients And Health Care Providers On Site, Testing Is Limited To Drive-Thru Testing Only. For More Information About Test Site Locations, Hours Of Operations, And How To Register For A Test, Please Visit Https://Www.Cvs.Com/Minuteclinic/Covid-19-Testing.	-	-	Cvs Health Covid-19 Drive Thru Testing Site - By Appointment Only	-	Georgia	Https://Www.Cvs.Com/Minuteclinic/Covid-19-Testing	-	30906	33.3	-82.0
1412 Milstead Avenue, Conyers, Ga 30012	Conyers	Rockdale	Screening Hotline	7Am-7Pm, Monday-Friday	No	At This Time, Testing Is Being Completed With A Physician Order And For Patients Who Meet Certain Criteria, As Provided By The Cdc And The Georgia Department Of Public Health. If You Are Experiencing Symptoms And Would Like To Be Screened To See If You Are Eligible For Testing, Call Their Screening Hotline At (866) 460-1119. You Will Be Directed To Your Nearest Testing Facility.	-	-	Piedmont Rockdale	(866) 460-1119	Georgia	Https://Www.Piedmont.Org/Patients-Visitors/Coronavirus	-	30012	33.72	-84.01
1802 Roanoke Road Lagrange, Ga 30420	LaGrange	Tattnall	Drive-Thru	See Website For Available Appointment Times	-	Rapid Covid-19 Testing Will Be Available To Eligible Individuals Who Meet Criteria Established By The Centers For Disease Control And Prevention, In Addition To State Residency And Age Guidelines (Must Be 18 Or Older). Patients Will Need To Pre-Register In Advance On-Line At Https://Www.Cvs.Com/Minuteclinic/Covid-19-Testing In Order To Schedule A Slot To Be Tested. When Patients Arrive At The Test Site, They Are Required Stay In Their Vehicle. Team Members On Site Will Check Their Registration And Direct Them Through The Testing Process. For The Safety Of Patients And Health Care Providers On Site, Testing Is Limited To Drive-Thru Testing Only. For More Information About Test Site Locations, Hours Of Operations, And How To Register For A Test, Please Visit Https://Www.Cvs.Com/Minuteclinic/Covid-19-Testing.	-	-	Cvs Health Covid-19 Drive Thru Testing Site - By Appointment Only	-	Georgia	Https://Www.Cvs.Com/Minuteclinic/Covid-19-Testing	-	30420	32.26	-82.14
52 Tech Drive Tifton, Ga 31794	Tifton	Tift	Drive-Thru	9Am-1Pm, Monday-Friday	No	"Testing At This Location Requires A Doctor'S Order. Your Doctor Must First Fill Out The Georgia Department Of Health Referral Form: Https://Dhpexternal.Dph.Ga.Gov/Spoc.Html
Followed By The Spoc Screening Form: Https://Sendss.State.Ga.Us/Sendss/Ncovspoc.Assess 
Based Upon The Cdc Criteria For Symptoms And Exposure, It Will Be Determined If You Are In Need Of Testing. If You Are Referred For Testing, You Will Be Given An Id Number And Directed To The Nearest Testing Location."	-	-	Southern Regional Technical College, Tifton Campus	-	Georgia	Https://Sendss.State.Ga.Us/Sendss/Ncovspoc.Assess	-	31794	31.4	-83.4
1201 First Street East	Vidalia	Toombs	Drive-Thru	See Website For Available Appointment Times	-	Rapid Covid-19 Testing Will Be Available To Eligible Individuals Who Meet Criteria Established By The Centers For Disease Control And Prevention, In Addition To State Residency And Age Guidelines (Must Be 18 Or Older). Patients Will Need To Pre-Register In Advance On-Line At Https://Www.Cvs.Com/Minuteclinic/Covid-19-Testing In Order To Schedule A Slot To Be Tested. When Patients Arrive At The Test Site, They Are Required Stay In Their Vehicle. Team Members On Site Will Check Their Registration And Direct Them Through The Testing Process. For The Safety Of Patients And Health Care Providers On Site, Testing Is Limited To Drive-Thru Testing Only. For More Information About Test Site Locations, Hours Of Operations, And How To Register For A Test, Please Visit Https://Www.Cvs.Com/Minuteclinic/Covid-19-Testing.	-	-	Cvs Health Covid-19 Drive Thru Testing Site - By Appointment Only	-	Georgia	Https://Www.Cvs.Com/Minuteclinic/Covid-19-Testing	-	30474	32.2	-82.4
1597 Hogansville Rd.	LaGrange	Troup	Drive-Thru	See Website For Available Appointment Times	-	Rapid Covid-19 Testing Will Be Available To Eligible Individuals Who Meet Criteria Established By The Centers For Disease Control And Prevention, In Addition To State Residency And Age Guidelines (Must Be 18 Or Older). Patients Will Need To Pre-Register In Advance On-Line At Https://Www.Cvs.Com/Minuteclinic/Covid-19-Testing In Order To Schedule A Slot To Be Tested. When Patients Arrive At The Test Site, They Are Required Stay In Their Vehicle. Team Members On Site Will Check Their Registration And Direct Them Through The Testing Process. For The Safety Of Patients And Health Care Providers On Site, Testing Is Limited To Drive-Thru Testing Only. For More Information About Test Site Locations, Hours Of Operations, And How To Register For A Test, Please Visit Https://Www.Cvs.Com/Minuteclinic/Covid-19-Testing.	-	-	Cvs Health Covid-19 Drive Thru Testing Site - By Appointment Only	-	Georgia	Https://Www.Cvs.Com/Minuteclinic/Covid-19-Testing	-	30241	33.0	-85.0
10052 Us-27, Rock Spring, Ga 30739	Rock Spring	Walker	Drive-Thru	Monday Thru Friday 9 Am-5 Pm, Saturday 9 Am-1 Pm	No	"Visits To The Sites Are By Referral Or Appointment Only According To A Release From Governor Brian Kemp'S Office. Residents Will Need To Speak With The Medical Providers, Local Public Health Officials Or Another Authority To Get Tested At These Locations. To Receive A Test At One Of These Facilities, Please Contact Your Medical Provider Or Local Public Health Officials For A Referral:

District 1-1 Northwest Health District (Rome): (706) 802-5329, (706) 802-5885, (706) 802-5886, (706) 802-5888"	-	-	Walker County Civic Center	-	Georgia	Https://Www.11Alive.Com/Article/News/Health/Coronavirus/Coronavirus-Testing-Sites-Georgia/85-81940317-58Ff-4Bfb-901E-Fc00Fb1Fc995	-	30739	34.8	-85.22
603 E Villanow St, Lafayette, Ga 30728	Lafayette	Walker	Drive-Thru	Saturday And Sunday, 8:30 Am-12 Pm	No	This Site Only Testing Healthcare Personnel And First Responders.	-	-	Walker County Health Department	-	Georgia	Https://Www.11Alive.Com/Article/News/Health/Coronavirus/Coronavirus-Testing-Sites-Georgia/85-81940317-58Ff-4Bfb-901E-Fc00Fb1Fc995	-	30728	34.7	-85.2
2151 West Spring Street, Monroe, Ga 30655	Monroe	Walton	Screening Hotline	7Am-7Pm, Monday-Friday	No	At This Time, Testing Is Being Completed With A Physician Order And For Patients Who Meet Certain Criteria, As Provided By The Cdc And The Georgia Department Of Public Health. If You Are Experiencing Symptoms And Would Like To Be Screened To See If You Are Eligible For Testing, Call Their Screening Hotline At (866) 460-1119. You Will Be Directed To Your Nearest Testing Facility.	-	-	Piedmont Walton	(866) 460-1119	Georgia	Https://Www.Piedmont.Org/Patients-Visitors/Coronavirus	-	30655	33.8	-83.7
201 Morningside Dr., Sandersville, Ga, 31082	Sandersville	Washington	Drive-Thru	9Am-3Pm, Monday-Friday	No	"Testing At This Location Requires A Doctor'S Order. Your Doctor Must First Fill Out The Georgia Department Of Health Referral Form: Https://Dhpexternal.Dph.Ga.Gov/Spoc.Html
Followed By The Spoc Screening Form: Https://Sendss.State.Ga.Us/Sendss/Ncovspoc.Assess 
Based Upon The Cdc Criteria For Symptoms And Exposure, It Will Be Determined If You Are In Need Of Testing. If You Are Referred For Testing, You Will Be Given An Id Number And Directed To The Nearest Testing Location."	-	-	Washington County Health Department	-	Georgia	Https://Sendss.State.Ga.Us/Sendss/Ncovspoc.Assess	-	31082	33.0	-82.9
2501 East Walnut Ave	Dalton	Whitfield	Drive-Thru	See Website For Available Appointment Times	-	Rapid Covid-19 Testing Will Be Available To Eligible Individuals Who Meet Criteria Established By The Centers For Disease Control And Prevention, In Addition To State Residency And Age Guidelines (Must Be 18 Or Older). Patients Will Need To Pre-Register In Advance On-Line At Https://Www.Cvs.Com/Minuteclinic/Covid-19-Testing In Order To Schedule A Slot To Be Tested. When Patients Arrive At The Test Site, They Are Required Stay In Their Vehicle. Team Members On Site Will Check Their Registration And Direct Them Through The Testing Process. For The Safety Of Patients And Health Care Providers On Site, Testing Is Limited To Drive-Thru Testing Only. For More Information About Test Site Locations, Hours Of Operations, And How To Register For A Test, Please Visit Https://Www.Cvs.Com/Minuteclinic/Covid-19-Testing.	-	-	Cvs Health Covid-19 Drive Thru Testing Site - By Appointment Only	-	Georgia	Https://Www.Cvs.Com/Minuteclinic/Covid-19-Testing	-	30721	34.8	-84.9
800 Professional Blvd, Dalton, Ga, 30720	Dalton	Whitfield	Drive-Thru	Monday Thru Friday 8:30 Am-3 Pm, Saturday 9 Am-12 Pm	No	"Testing At This Location Requires A Doctor'S Order. Your Doctor Must First Fill Out The Georgia Department Of Health Referral Form: Https://Dhpexternal.Dph.Ga.Gov/Spoc.Html
Followed By The Spoc Screening Form: Https://Sendss.State.Ga.Us/Sendss/Ncovspoc.Assess 
Based Upon The Cdc Criteria For Symptoms And Exposure, It Will Be Determined If You Are In Need Of Testing. If You Are Referred For Testing, You Will Be Given An Id Number And Directed To The Nearest Testing Location."	-	-	Whitfield County Health Department	-	Georgia	Https://Sendss.State.Ga.Us/Sendss/Ncovspoc.Assess	-	30720	34.8	-85.0
