address	city	county	dateAvailable	facilityType	hours	inQZ	instructions	lat	lng	name	phone	state	url	virtualVisit	zip	zipCodeLat	zipCodeLng
Drive-Thru: 1429 N. Quincy St., Arlington, Va 22207	Arlington	Arlington	-	Drive-Thru	9 Am - 3Pm, Monday - Friday	-	To Be Tested At This Facility, You Must Have A Doctor'S Referral	-	-	Virigina Hospital Center	(703) 558-5000	Massachusetts	Https://Wtop.Com/Coronavirus/2020/03/Arlington-Hospital-Opens-Drive-Thru-Coronavirus-Sample-Collection-Site/	-	22207	38.91	-77.12
2240 Lyannough Rd, West Barnstable, Ma 02668	West Barnstable	Barnstable	-	Drive-Thru	8 Am - 6 Pm, Monday - Friday	-	To Be Tested At This Facility, You Must Have A Doctor'S Referral. If Your Provider Determines That You Qualify For Testing, You Will Be Contacted And Given A Date And Time For Your Appointment.	-	-	Cape Cod Community College	(508) 771-1800	Massachusetts	Https://Www.Capecodhealth.Org/Medical-Services/Infectious-Disease/Drive-Through-Covid-19-Testing-At-4Cs/	-	02668	41.71	-70.34
273 Teaticket Highway, Falmouth, Ma 02540	Falmouth	Barnstable	-	Urgent Care	Temporarily Closed	-	This Site Is Currently Closed	-	-	Cape Cod Healthcare Urgent Care - Falmouth	(508) 495-8000	Massachusetts	-	-	02540	41.57	-70.63
525 Long Pond Drive, Harwich Ma 02645	Harwich	Barnstable	-	Urgent Care	8 Am - 6 Pm, Monday - Friday; 8 Am - 4 Pm Saturday - Sunday	-	To Be Tested At This Facility, You Must Have A Doctor'S Referral And Appointment. Call Your Primary Care Provider If You'Re Experiencing Symptoms	-	-	Cape Cod Healthcare Urgent Care - Harwich	(508) 430-3330	Massachusetts	-	-	02645	41.7	-70.06
1220 Iyannough Road, Hyannis, Ma 02601	Hyannis	Barnstable	-	Urgent Care	9 Am - 7 Pm, Monday - Friday; 8 Am - 4 Pm Saturday - Sunday	-	To Be Tested At This Facility, You Must Have A Doctor'S Referral. Call Your Primary Care Provider If You'Re Experiencing Symptoms	-	-	Cape Cod Healthcare Urgent Care - Hyannis	(508) 862-7900	Massachusetts	-	-	02601	41.66	-70.3
2 Jan Sebastian Drive, Sandwich, Ma 02563	Sandwich	Barnstable	-	Urgent Care	9 Am - 7 Pm, Monday - Friday; 8 Am - 4 Pm Saturday - Sunday	-	To Be Tested At This Facility, You Must Have A Doctor'S Referral. Call Your Primary Care Provider If You'Re Experiencing Symptoms	-	-	Cape Cod Healthcare Urgent Care - Sandwich	(508) 833-2639	Massachusetts	-	-	02563	41.72	-70.48
27 Park St, Hyannis, Ma 02601	Hyannis	Barnstable	-	Hospital	Open 24 Hrs	-	To Prevent Further Spread Of Infection, Do Not Go Directly To Your Doctor’S Office, Urgent Care Or Emergency Centers, Contact Your Primary Care Physician By Phone First. Based On Your Symptoms, Your Doctor’S Office Will Ask A Series Of Questions About Your Health, Travel And Close Contacts To Confirm If You Need To Be Tested. If You Are Experiencing Serious Symptoms (High Fever, Shortness Of Breath, Persistent Pain In Chest, Dry Cough) And Do Not Have A Primary Care Provider, Please Visit The Triage Tents Located Outside Of Cape Cod Hospital And Falmouth Hospital For Screening. As Always, If You Are Experiencing A Medical Emergency, Please Call 911.	-	-	Cape Cod Hospital	(508) 771-1800	Massachusetts	Https://Www.Capecodhealth.Org/Locations/Profile/Cape-Cod-Hospital/	-	02601	41.66	-70.3
Patriot Square 484 Rte. 134 South Dennis, Ma 02660	South Dennis	Barnstable	-	Urgent Care	8Am-8Pm, Monday-Sunday; Check Website For Updates.	No	This Facility Follows Guidelines For Testing Based On The Centers For Disease Control And Prevention (Cdc) And The Massachusetts Department Of Public Health. They Advise To Call Your Provider, Or Their Urgent Care Facility For Evaluation Of Your Symptoms. From There, They Work With Both Commercial And State Labs To Facilitate The Testing.	-	-	Carewell Urgent Care-South Dennis	(508) 694-7901	Massachusetts	Https://Www.Carewellurgentcare.Com/Covid-19-Response-At-Carewell/	No	02660	41.71	-70.15
419 East Falmouth Highway, East Falmouth, Ma 02536	East Falmouth	Barnstable	-	Drive-Thru	See Website For Available Appointment Times	-	Rapid Covid-19 Testing Will Be Available To Eligible Individuals Who Meet Criteria Established By The Centers For Disease Control And Prevention, In Addition To State Residency And Age Guidelines (Must Be 18 Or Older). Patients Will Need To Pre-Register In Advance On-Line At Https://Www.Cvs.Com/Minuteclinic/Covid-19-Testing In Order To Schedule A Slot To Be Tested. When Patients Arrive At The Test Site, They Are Required Stay In Their Vehicle. Team Members On Site Will Check Their Registration And Direct Them Through The Testing Process. For The Safety Of Patients And Health Care Providers On Site, Testing Is Limited To Drive-Thru Testing Only. For More Information About Test Site Locations, Hours Of Operations, And How To Register For A Test, Please Visit Https://Www.Cvs.Com/Minuteclinic/Covid-19-Testing.	-	-	Cvs Health Covid-19 Drive Thru Testing Site - By Appointment Only	-	Massachusetts	Https://Www.Cvs.Com/Minuteclinic/Covid-19-Testing	-	02536	41.6	-70.56
100 Ter Heun Dr, Falmouth, Ma 02540	Falmouth	Barnstable	-	Hospital	Open 24 Hrs	-	To Prevent Further Spread Of Infection, Do Not Go Directly To Your Doctor’S Office, Urgent Care Or Emergency Centers, Contact Your Primary Care Physician By Phone First. Based On Your Symptoms, Your Doctor’S Office Will Ask A Series Of Questions About Your Health, Travel And Close Contacts To Confirm If You Need To Be Tested. If You Are Experiencing Serious Symptoms (High Fever, Shortness Of Breath, Persistent Pain In Chest, Dry Cough) And Do Not Have A Primary Care Provider, Please Visit The Triage Tents Located Outside Of Cape Cod Hospital And Falmouth Hospital For Screening. As Always, If You Are Experiencing A Medical Emergency, Please Call 911.	-	-	Falmouth Hospital	(508) 548-5300	Massachusetts	Https://Www.Capecodhealth.Org/Locations/Profile/Falmouth-Hospital/	-	02540	41.57	-70.63
107 West Street Pittsfield, Ma 01201	Pittsfield	Berkshire	-	Drive-Thru	See Website For Available Appointment Times	-	Rapid Covid-19 Testing Will Be Available To Eligible Individuals Who Meet Criteria Established By The Centers For Disease Control And Prevention, In Addition To State Residency And Age Guidelines (Must Be 18 Or Older). Patients Will Need To Pre-Register In Advance On-Line At Https://Www.Cvs.Com/Minuteclinic/Covid-19-Testing In Order To Schedule A Slot To Be Tested. When Patients Arrive At The Test Site, They Are Required Stay In Their Vehicle. Team Members On Site Will Check Their Registration And Direct Them Through The Testing Process. For The Safety Of Patients And Health Care Providers On Site, Testing Is Limited To Drive-Thru Testing Only. For More Information About Test Site Locations, Hours Of Operations, And How To Register For A Test, Please Visit Https://Www.Cvs.Com/Minuteclinic/Covid-19-Testing.	-	-	Cvs Health Covid-19 Drive Thru Testing Site - By Appointment Only	-	Massachusetts	Https://Www.Cvs.Com/Minuteclinic/Covid-19-Testing	-	01201	42.5	-73.3
136 Ashley Boulevard, New Bedford, Ma 02746	New Bedford	Bristol	-	Drive-Thru	See Website For Available Appointment Times	-	Rapid Covid-19 Testing Will Be Available To Eligible Individuals Who Meet Criteria Established By The Centers For Disease Control And Prevention, In Addition To State Residency And Age Guidelines (Must Be 18 Or Older). Patients Will Need To Pre-Register In Advance On-Line At Https://Www.Cvs.Com/Minuteclinic/Covid-19-Testing In Order To Schedule A Slot To Be Tested. When Patients Arrive At The Test Site, They Are Required Stay In Their Vehicle. Team Members On Site Will Check Their Registration And Direct Them Through The Testing Process. For The Safety Of Patients And Health Care Providers On Site, Testing Is Limited To Drive-Thru Testing Only. For More Information About Test Site Locations, Hours Of Operations, And How To Register For A Test, Please Visit Https://Www.Cvs.Com/Minuteclinic/Covid-19-Testing.	-	-	Cvs Health Covid-19 Drive Thru Testing Site - By Appointment Only	-	Massachusetts	Https://Www.Cvs.Com/Minuteclinic/Covid-19-Testing	-	02746	41.67	-70.94
599 State Road, Westport, Ma 02790	Westport	Bristol	-	Drive-Thru	See Website For Available Appointment Times	-	Rapid Covid-19 Testing Will Be Available To Eligible Individuals Who Meet Criteria Established By The Centers For Disease Control And Prevention, In Addition To State Residency And Age Guidelines (Must Be 18 Or Older). Patients Will Need To Pre-Register In Advance On-Line At Https://Www.Cvs.Com/Minuteclinic/Covid-19-Testing In Order To Schedule A Slot To Be Tested. When Patients Arrive At The Test Site, They Are Required Stay In Their Vehicle. Team Members On Site Will Check Their Registration And Direct Them Through The Testing Process. For The Safety Of Patients And Health Care Providers On Site, Testing Is Limited To Drive-Thru Testing Only. For More Information About Test Site Locations, Hours Of Operations, And How To Register For A Test, Please Visit Https://Www.Cvs.Com/Minuteclinic/Covid-19-Testing.	-	-	Cvs Health Covid-19 Testing Site – By Appointment Only	-	Massachusetts	Https://Www.Cvs.Com/Minuteclinic/Covid-19-Testing	-	02790	41.6	-71.1
266 Route 44, Raynham, Ma 02767	Raynham	Bristol	-	Drive-Thru	See Website For Available Appointment Times	-	Rapid Covid-19 Testing Will Be Available To Eligible Individuals Who Meet Criteria Established By The Centers For Disease Control And Prevention, In Addition To State Residency And Age Guidelines (Must Be 18 Or Older). Patients Will Need To Pre-Register In Advance On-Line At Https://Www.Cvs.Com/Minuteclinic/Covid-19-Testing In Order To Schedule A Slot To Be Tested. When Patients Arrive At The Test Site, They Are Required Stay In Their Vehicle. Team Members On Site Will Check Their Registration And Direct Them Through The Testing Process. For The Safety Of Patients And Health Care Providers On Site, Testing Is Limited To Drive-Thru Testing Only. For More Information About Test Site Locations, Hours Of Operations, And How To Register For A Test, Please Visit Https://Www.Cvs.Com/Minuteclinic/Covid-19-Testing.	-	-	Cvs Health Covid-19 Testing Site – By Appointment Only	-	Massachusetts	Https://Www.Cvs.Com/Minuteclinic/Covid-19-Testing	-	02767	41.94	-71.06
2 Essex Center Dr, Peabody, Ma 01960	Peabody	Essex	-	Drive-Thru	-	-	Call Your Primary Care Physician If You Are Experiencing Symptoms Of Shortness Of Breath, Fever Or Dry Cough Or Have Been Exposed To Someone With Covid-19.  If Your Symptoms Meet The Criteria For Testing, Your Physician Will Give You A Referral. The Drive-Through Testing Is Only For Atrius Patients Who Have Already Phoned, Been Evaluated And Given An Appointment.	-	-	Atrius Health: Peabody Site	-	Massachusetts	Https://Www.Wbur.Org/Commonhealth/2020/03/17/Drive-Through-Coronavirus-Tests-Boston	-	01960	42.53	-70.97
229 Andover Street (Rt 114) Peabody, Ma 01960	Peabody	Essex	-	Urgent Care	8Am-8Pm, Monday-Sunday; Check Website For Updates.	No	This Facility Follows Guidelines For Testing Based On The Centers For Disease Control And Prevention (Cdc) And The Massachusetts Department Of Public Health. They Advise To Call Your Provider, Or Their Urgent Care Facility For Evaluation Of Your Symptoms. From There, They Work With Both Commercial And State Labs To Facilitate The Testing.	-	-	Carewell Urgent Care-Peabody	(978) 826-5950	Massachusetts	Https://Www.Carewellurgentcare.Com/Covid-19-Response-At-Carewell/	No	01960	42.53	-70.97
2 Lafayette Road Salisbury, Ma 01952	Salisbury	Essex	-	Drive-Thru	See Website For Available Appointment Times	-	Rapid Covid-19 Testing Will Be Available To Eligible Individuals Who Meet Criteria Established By The Centers For Disease Control And Prevention, In Addition To State Residency And Age Guidelines (Must Be 18 Or Older). Patients Will Need To Pre-Register In Advance On-Line At Https://Www.Cvs.Com/Minuteclinic/Covid-19-Testing In Order To Schedule A Slot To Be Tested. When Patients Arrive At The Test Site, They Are Required Stay In Their Vehicle. Team Members On Site Will Check Their Registration And Direct Them Through The Testing Process. For The Safety Of Patients And Health Care Providers On Site, Testing Is Limited To Drive-Thru Testing Only. For More Information About Test Site Locations, Hours Of Operations, And How To Register For A Test, Please Visit Https://Www.Cvs.Com/Minuteclinic/Covid-19-Testing.	-	-	Cvs Health Covid-19 Drive Thru Testing Site - By Appointment Only	-	Massachusetts	Https://Www.Cvs.Com/Minuteclinic/Covid-19-Testing	-	01952	42.85	-70.86
114 Central Street Ipswich, Ma 01938	Ipswich	Essex	-	Drive-Thru	See Website For Available Appointment Times	-	Rapid Covid-19 Testing Will Be Available To Eligible Individuals Who Meet Criteria Established By The Centers For Disease Control And Prevention, In Addition To State Residency And Age Guidelines (Must Be 18 Or Older). Patients Will Need To Pre-Register In Advance On-Line At Https://Www.Cvs.Com/Minuteclinic/Covid-19-Testing In Order To Schedule A Slot To Be Tested. When Patients Arrive At The Test Site, They Are Required Stay In Their Vehicle. Team Members On Site Will Check Their Registration And Direct Them Through The Testing Process. For The Safety Of Patients And Health Care Providers On Site, Testing Is Limited To Drive-Thru Testing Only. For More Information About Test Site Locations, Hours Of Operations, And How To Register For A Test, Please Visit Https://Www.Cvs.Com/Minuteclinic/Covid-19-Testing.	-	-	Cvs Health Covid-19 Drive Thru Testing Site - By Appointment Only	-	Massachusetts	Https://Www.Cvs.Com/Minuteclinic/Covid-19-Testing	-	01938	42.7	-70.8
272 Highland Avenue, Salem, Ma 01970	Salem	Essex	-	Drive-Thru	See Website For Available Appointment Times	-	Rapid Covid-19 Testing Will Be Available To Eligible Individuals Who Meet Criteria Established By The Centers For Disease Control And Prevention, In Addition To State Residency And Age Guidelines (Must Be 18 Or Older). Patients Will Need To Pre-Register In Advance On-Line At Https://Www.Cvs.Com/Minuteclinic/Covid-19-Testing In Order To Schedule A Slot To Be Tested. When Patients Arrive At The Test Site, They Are Required Stay In Their Vehicle. Team Members On Site Will Check Their Registration And Direct Them Through The Testing Process. For The Safety Of Patients And Health Care Providers On Site, Testing Is Limited To Drive-Thru Testing Only. For More Information About Test Site Locations, Hours Of Operations, And How To Register For A Test, Please Visit Https://Www.Cvs.Com/Minuteclinic/Covid-19-Testing.	-	-	Cvs Health Covid-19 Drive Thru Testing Site - By Appointment Only	-	Massachusetts	Https://Www.Cvs.Com/Minuteclinic/Covid-19-Testing	-	01970	42.52	-70.91
150 Lafayette Square, Haverhill, Ma 01832	Haverhill	Essex	-	Drive-Thru	See Website For Available Appointment Times	-	Rapid Covid-19 Testing Will Be Available To Eligible Individuals Who Meet Criteria Established By The Centers For Disease Control And Prevention, In Addition To State Residency And Age Guidelines (Must Be 18 Or Older). Patients Will Need To Pre-Register In Advance On-Line At Https://Www.Cvs.Com/Minuteclinic/Covid-19-Testing In Order To Schedule A Slot To Be Tested. When Patients Arrive At The Test Site, They Are Required Stay In Their Vehicle. Team Members On Site Will Check Their Registration And Direct Them Through The Testing Process. For The Safety Of Patients And Health Care Providers On Site, Testing Is Limited To Drive-Thru Testing Only. For More Information About Test Site Locations, Hours Of Operations, And How To Register For A Test, Please Visit Https://Www.Cvs.Com/Minuteclinic/Covid-19-Testing.	-	-	Cvs Health Covid-19 Drive Thru Testing Site - By Appointment Only	-	Massachusetts	Https://Www.Cvs.Com/Minuteclinic/Covid-19-Testing	-	01832	42.79	-71.13
311 Newbury Street, Danvers, Ma 01923	Danvers	Essex	-	Drive-Thru	See Website For Available Appointment Times	-	Rapid Covid-19 Testing Will Be Available To Eligible Individuals Who Meet Criteria Established By The Centers For Disease Control And Prevention, In Addition To State Residency And Age Guidelines (Must Be 18 Or Older). Patients Will Need To Pre-Register In Advance On-Line At Https://Www.Cvs.Com/Minuteclinic/Covid-19-Testing In Order To Schedule A Slot To Be Tested. When Patients Arrive At The Test Site, They Are Required Stay In Their Vehicle. Team Members On Site Will Check Their Registration And Direct Them Through The Testing Process. For The Safety Of Patients And Health Care Providers On Site, Testing Is Limited To Drive-Thru Testing Only. For More Information About Test Site Locations, Hours Of Operations, And How To Register For A Test, Please Visit Https://Www.Cvs.Com/Minuteclinic/Covid-19-Testing.	-	-	Cvs Health Covid-19 Testing Site – By Appointment Only	-	Massachusetts	Https://Www.Cvs.Com/Minuteclinic/Covid-19-Testing	-	01923	42.58	-70.96
147 S Main St, Middleton, Ma 01949	Middleton	Essex	-	Drive-Thru	8 Am - 5:30 Pm Monday - Friday; 8 Am - 12 Pm Saturday - Sunday	-	Call The Middleton Family Medicine Office For A Telemedicine Pre-Screening. When A Patient Contacts The Office, A Telemedicine Call Is Set Up. Through The Practice’S Mobile App, They Can Visit With A Patient Virtually To Examine And Diagnose Symptoms. If A Doctor Believes The Symptoms Are Coronavirus Related, A Drive-Thru Test Is Scheduled, But Not For Covid-19 At First. They Will Perform On-Site In-Car Tests For The Flu, Strep Throat And Other Possible Illnesses. The Tests Are Conducted On-Site And Take About 15 Minutes. Depending On Those Results, The Physician Will Call The Patient And Advise Them On Whether A Coronavirus Test Is Needed.	-	-	Middleton Family Medicine	(978) 774-2555	Massachusetts	Https://Www.Masslive.Com/Coronavirus/2020/03/Coronavirus-Testing-Locations-Drive-Thru-Testing-Has-Begun-In-Massachusetts-But-Many-Require-Appointments-Prescription-From-Doctor.Html	-	01949	42.6	-71.01
235 Center Street	Chicopee	Hampden	-	Drive-Thru	See Website For Available Appointment Times	-	Rapid Covid-19 Testing Will Be Available To Eligible Individuals Who Meet Criteria Established By The Centers For Disease Control And Prevention, In Addition To State Residency And Age Guidelines (Must Be 18 Or Older). Patients Will Need To Pre-Register In Advance On-Line At Https://Www.Cvs.Com/Minuteclinic/Covid-19-Testing In Order To Schedule A Slot To Be Tested. When Patients Arrive At The Test Site, They Are Required Stay In Their Vehicle. Team Members On Site Will Check Their Registration And Direct Them Through The Testing Process. For The Safety Of Patients And Health Care Providers On Site, Testing Is Limited To Drive-Thru Testing Only. For More Information About Test Site Locations, Hours Of Operations, And How To Register For A Test, Please Visit Https://Www.Cvs.Com/Minuteclinic/Covid-19-Testing.	-	-	Cvs Health Covid-19 Drive Thru Testing Site - By Appointment Only	-	Massachusetts	Https://Www.Cvs.Com/Minuteclinic/Covid-19-Testing	-	01013	42.16	-72.6
770 Boston Road	Springfield	Hampden	-	Drive-Thru	See Website For Available Appointment Times	-	Rapid Covid-19 Testing Will Be Available To Eligible Individuals Who Meet Criteria Established By The Centers For Disease Control And Prevention, In Addition To State Residency And Age Guidelines (Must Be 18 Or Older). Patients Will Need To Pre-Register In Advance On-Line At Https://Www.Cvs.Com/Minuteclinic/Covid-19-Testing In Order To Schedule A Slot To Be Tested. When Patients Arrive At The Test Site, They Are Required Stay In Their Vehicle. Team Members On Site Will Check Their Registration And Direct Them Through The Testing Process. For The Safety Of Patients And Health Care Providers On Site, Testing Is Limited To Drive-Thru Testing Only. For More Information About Test Site Locations, Hours Of Operations, And How To Register For A Test, Please Visit Https://Www.Cvs.Com/Minuteclinic/Covid-19-Testing.	-	-	Cvs Health Covid-19 Drive Thru Testing Site - By Appointment Only	-	Massachusetts	Https://Www.Cvs.Com/Minuteclinic/Covid-19-Testing	-	01119	42.12	-72.51
928 Riverdale Street, West Springfield, Ma 01089	West Springfield	Hampden	-	Drive-Thru	See Website For Available Appointment Times	-	Rapid Covid-19 Testing Will Be Available To Eligible Individuals Who Meet Criteria Established By The Centers For Disease Control And Prevention, In Addition To State Residency And Age Guidelines (Must Be 18 Or Older). Patients Will Need To Pre-Register In Advance On-Line At Https://Www.Cvs.Com/Minuteclinic/Covid-19-Testing In Order To Schedule A Slot To Be Tested. When Patients Arrive At The Test Site, They Are Required Stay In Their Vehicle. Team Members On Site Will Check Their Registration And Direct Them Through The Testing Process. For The Safety Of Patients And Health Care Providers On Site, Testing Is Limited To Drive-Thru Testing Only. For More Information About Test Site Locations, Hours Of Operations, And How To Register For A Test, Please Visit Https://Www.Cvs.Com/Minuteclinic/Covid-19-Testing.	-	-	Cvs Health Covid-19 Testing Site – By Appointment Only	-	Massachusetts	Https://Www.Cvs.Com/Minuteclinic/Covid-19-Testing	-	01089	42.12	-72.64
30 Locust St, Northampton, Ma 01060	Northampton	Hampshire	-	Hosital	Open 24Hrs	-	To Be Tested At This Facility, You Must Have A Doctor'S Referral. Testing Is Currently Extremely Limited.  A More Extensive Testing Clinic Could Be Opened As Soon As The Quantity Of Testing Calls For It	-	-	Cooley Dickinson Hospital	(413) 582-2000	Massachusetts	Https://Www.Cooleydickinson.Org/2020/03/Thank-You-For-Helping-Us-Help-You-A-Message-From-Cooley-Dickinson-Leadership/	-	01060	42.33	-72.63
366 King Street, Northhampton, Ma 01060	Northampton	Hampshire	-	Drive-Thru	See Website For Available Appointment Times	-	Rapid Covid-19 Testing Will Be Available To Eligible Individuals Who Meet Criteria Established By The Centers For Disease Control And Prevention, In Addition To State Residency And Age Guidelines (Must Be 18 Or Older). Patients Will Need To Pre-Register In Advance On-Line At Https://Www.Cvs.Com/Minuteclinic/Covid-19-Testing In Order To Schedule A Slot To Be Tested. When Patients Arrive At The Test Site, They Are Required Stay In Their Vehicle. Team Members On Site Will Check Their Registration And Direct Them Through The Testing Process. For The Safety Of Patients And Health Care Providers On Site, Testing Is Limited To Drive-Thru Testing Only. For More Information About Test Site Locations, Hours Of Operations, And How To Register For A Test, Please Visit Https://Www.Cvs.Com/Minuteclinic/Covid-19-Testing.	-	-	Cvs Health Covid-19 Testing Site – By Appointment Only	-	Massachusetts	Https://Www.Cvs.Com/Minuteclinic/Covid-19-Testing	-	01060	42.33	-72.63
1030 Main Street Waltham, Ma, 02451	Waltham	Middlesex	Https://Afcurgentcarewaltham.Com/	Drive-Thru	Tuesday 3/31/2020	-	Novel Coronavirus (Covid-19) Drive Through Testing Available At Afc Urgent Care Waltham On Tuesday 3/31/2020. Testing Will Take Place At 1030 Main Street  In Waltham, Ma Available For All Health Insurances To Include Masshealth And Medicare.  Must Be Screened In Advance And Receive Doctor’S Note From Afc Urgent Care.  Call For Details Or Screening At 781.430.8161.  In Order To Qualify For Testing, Patients Will Need To Be Pre-Screened By An Afc Provider Before Tuesday, 3/31/2020 Via A Telemedicine Urgent Care Visit.  Upon Completion Of The Telehealth Screening And Determination Of Qualification For Testing, Afc Urgent Care Will Send A Personalized Doctor’S Order To That Specific Patient In Order To Be Tested On Tuesday. Please Note:  If A Prospective Patient Does Not Bring An Afc Doctor’S Note To The Drive Through Testing Clinic, That Patient Will Not Be Eligible For Testing.	-	-	Afc Urgent Care	(781) 430-8161	Massachusetts	Https://Www.Unionleader.Com/News/Health/Coronavirus/Coronavirus-In-Mass-Gov-Baker-Says-Covid--Testing-In/Article_91A9141A-C3D7-52B4-85E1-D026Dea8Fa8C.Html	-	02451	42.4	-71.26
33 Tower Street, Somerville Ma 02143; Crown Street Parking Lot Adjacent To Somerville Hospital	Somerville	Middlesex	-	Hospital, Drive-Thru	9 Am - 3 Pm Seven Days A Week	-	Only Current Cha Primary Care Patients Can Currently Be Tested At This Location. Patients Must Call Their Primary Care Provider To Be Screened; Tests Will Not Be Provided Without Prior Authorization. Due To The Continued Limited Supply Of Tests, Only Patients Who Meet Federal Cdc Criteria Will Be Eligible To Receive Testing.	-	-	Cambridge Health Alliance: Somerville Hospital	(617) 591-4500	Massachusetts	Https://Www.Challiance.Org/About/Newsroom/Cambridge_Health_Alliance_To_Provide_Covid19_Testi_1178	-	02143	42.38	-71.1
510 Boston Road Billerica, Ma 01821	Billerica	Middlesex	-	Urgent Care	8Am-8Pm, Monday-Sunday; Check Website For Updates.	No	This Facility Follows Guidelines For Testing Based On The Centers For Disease Control And Prevention (Cdc) And The Massachusetts Department Of Public Health. They Advise To Call Your Provider, Or Their Urgent Care Facility For Evaluation Of Your Symptoms. From There, They Work With Both Commercial And State Labs To Facilitate The Testing.	-	-	Carewell Urgent Care- Billerica	(978) 362-2443	Massachusetts	Https://Www.Carewellurgentcare.Com/Covid-19-Response-At-Carewell/	No	01821	42.55	-71.26
345 Main Street Tewksbury, Ma 01876	Tewksbury	Middlesex	-	Urgent Care	8Am-8Pm, Monday-Sunday; Check Website For Updates.	No	This Facility Follows Guidelines For Testing Based On The Centers For Disease Control And Prevention (Cdc) And The Massachusetts Department Of Public Health. They Advise To Call Your Provider, Or Their Urgent Care Facility For Evaluation Of Your Symptoms. From There, They Work With Both Commercial And State Labs To Facilitate The Testing.	-	-	Carewell Urgent Care- Tewksbury	(978) 851-4683	Massachusetts	Https://Www.Carewellurgentcare.Com/Covid-19-Response-At-Carewell/	No	01876	42.61	-71.23
601-603 Concord Ave Cambridge, Ma 02138	Cambridge	Middlesex	-	Urgent Care	8Am-8Pm, Monday-Sunday; Check Website For Updates.	No	This Facility Follows Guidelines For Testing Based On The Centers For Disease Control And Prevention (Cdc) And The Massachusetts Department Of Public Health. They Advise To Call Your Provider, Or Their Urgent Care Facility For Evaluation Of Your Symptoms. From There, They Work With Both Commercial And State Labs To Facilitate The Testing.	-	-	Carewell Urgent Care-Cambridge Fresh Pond	(857) 706-1107	Massachusetts	Https://Www.Carewellurgentcare.Com/Covid-19-Response-At-Carewell/	No	02138	42.38	-71.13
1400 Cambridge Street Cambridge, Ma 02138	Cambridge	Middlesex	-	Urgent Care	8Am-8Pm, Monday-Sunday; Check Website For Updates.	No	This Facility Follows Guidelines For Testing Based On The Centers For Disease Control And Prevention (Cdc) And The Massachusetts Department Of Public Health. They Advise To Call Your Provider, Or Their Urgent Care Facility For Evaluation Of Your Symptoms. From There, They Work With Both Commercial And State Labs To Facilitate The Testing.	-	-	Carewell Urgent Care-Cambridge Inman Square	(617) 714-4534	Massachusetts	Https://Www.Carewellurgentcare.Com/Covid-19-Response-At-Carewell/	No	02138	42.38	-71.13
50 Worcester Road (Rt 9) Framingham, Ma 01702	Framingham	Middlesex	-	Urgent Care	8Am-8Pm, Monday-Sunday; Check Website For Updates.	No	This Facility Follows Guidelines For Testing Based On The Centers For Disease Control And Prevention (Cdc) And The Massachusetts Department Of Public Health. They Advise To Call Your Provider, Or Their Urgent Care Facility For Evaluation Of Your Symptoms. From There, They Work With Both Commercial And State Labs To Facilitate The Testing.	-	-	Carewell Urgent Care-Framingham	(508) 861-7375	Massachusetts	Https://Www.Carewellurgentcare.Com/Covid-19-Response-At-Carewell/	No	01702	42.28	-71.44
58 Bedford Street Lexington, Ma 02420	Lexington	Middlesex	-	Urgent Care	8Am-8Pm, Monday-Sunday; Check Website For Updates.	No	This Facility Follows Guidelines For Testing Based On The Centers For Disease Control And Prevention (Cdc) And The Massachusetts Department Of Public Health. They Advise To Call Your Provider, Or Their Urgent Care Facility For Evaluation Of Your Symptoms. From There, They Work With Both Commercial And State Labs To Facilitate The Testing.	-	-	Carewell Urgent Care-Lexington	(781) 538-4526	Massachusetts	Https://Www.Carewellurgentcare.Com/Covid-19-Response-At-Carewell/	No	02420	42.46	-71.22
757 Boston Post Road East Marlborough, Ma 01752	Marlborough	Middlesex	-	Urgent Care	8Am-8Pm, Monday-Sunday; Check Website For Updates.	No	This Facility Follows Guidelines For Testing Based On The Centers For Disease Control And Prevention (Cdc) And The Massachusetts Department Of Public Health. They Advise To Call Your Provider, Or Their Urgent Care Facility For Evaluation Of Your Symptoms. From There, They Work With Both Commercial And State Labs To Facilitate The Testing.	-	-	Carewell Urgent Care-Marlborough	(508) 630-8989	Massachusetts	Https://Www.Carewellurgentcare.Com/Covid-19-Response-At-Carewell/	No	01752	42.35	-71.55
349 Broadway Somerville, Ma 02145	Somerville	Middlesex	-	Urgent Care	8Am-8Pm, Monday-Sunday; Check Website For Updates.	No	This Facility Follows Guidelines For Testing Based On The Centers For Disease Control And Prevention (Cdc) And The Massachusetts Department Of Public Health. They Advise To Call Your Provider, Or Their Urgent Care Facility For Evaluation Of Your Symptoms. From There, They Work With Both Commercial And State Labs To Facilitate The Testing.	-	-	Carewell Urgent Care-Somerville	(617) 996-6987	Massachusetts	Https://Www.Carewellurgentcare.Com/Covid-19-Response-At-Carewell/	No	02145	42.39	-71.09
500 Lincoln Street Worcester, Ma 01605	Worcester	Middlesex	-	Urgent Care	8Am-8Pm, Monday-Sunday; Check Website For Updates.	No	This Facility Follows Guidelines For Testing Based On The Centers For Disease Control And Prevention (Cdc) And The Massachusetts Department Of Public Health. They Advise To Call Your Provider, Or Their Urgent Care Facility For Evaluation Of Your Symptoms. From There, They Work With Both Commercial And State Labs To Facilitate The Testing.	-	-	Carewell Urgent Care-Worcester Lincoln St	(774) 420-2111	Massachusetts	Https://Www.Carewellurgentcare.Com/Covid-19-Response-At-Carewell/	No	01605	42.29	-71.8
4 Broadway Road	Dracut	Middlesex	-	Drive-Thru	See Website For Available Appointment Times	-	Rapid Covid-19 Testing Will Be Available To Eligible Individuals Who Meet Criteria Established By The Centers For Disease Control And Prevention, In Addition To State Residency And Age Guidelines (Must Be 18 Or Older). Patients Will Need To Pre-Register In Advance On-Line At Https://Www.Cvs.Com/Minuteclinic/Covid-19-Testing In Order To Schedule A Slot To Be Tested. When Patients Arrive At The Test Site, They Are Required Stay In Their Vehicle. Team Members On Site Will Check Their Registration And Direct Them Through The Testing Process. For The Safety Of Patients And Health Care Providers On Site, Testing Is Limited To Drive-Thru Testing Only. For More Information About Test Site Locations, Hours Of Operations, And How To Register For A Test, Please Visit Https://Www.Cvs.Com/Minuteclinic/Covid-19-Testing.	-	-	Cvs Health Covid-19 Drive Thru Testing Site - By Appointment Only	-	Massachusetts	Https://Www.Cvs.Com/Minuteclinic/Covid-19-Testing	-	01826	42.69	-71.31
1080 Eastern Avenue	Malden	Middlesex	-	Drive-Thru	See Website For Available Appointment Times	-	Rapid Covid-19 Testing Will Be Available To Eligible Individuals Who Meet Criteria Established By The Centers For Disease Control And Prevention, In Addition To State Residency And Age Guidelines (Must Be 18 Or Older). Patients Will Need To Pre-Register In Advance On-Line At Https://Www.Cvs.Com/Minuteclinic/Covid-19-Testing In Order To Schedule A Slot To Be Tested. When Patients Arrive At The Test Site, They Are Required Stay In Their Vehicle. Team Members On Site Will Check Their Registration And Direct Them Through The Testing Process. For The Safety Of Patients And Health Care Providers On Site, Testing Is Limited To Drive-Thru Testing Only. For More Information About Test Site Locations, Hours Of Operations, And How To Register For A Test, Please Visit Https://Www.Cvs.Com/Minuteclinic/Covid-19-Testing.	-	-	Cvs Health Covid-19 Drive Thru Testing Site - By Appointment Only	-	Massachusetts	Https://Www.Cvs.Com/Minuteclinic/Covid-19-Testing	-	02148	42.43	-71.05
800 Lexington Street, Waltham, Ma 02154	Waltham	Middlesex	-	Drive-Thru	See Website For Available Appointment Times	-	Rapid Covid-19 Testing Will Be Available To Eligible Individuals Who Meet Criteria Established By The Centers For Disease Control And Prevention, In Addition To State Residency And Age Guidelines (Must Be 18 Or Older). Patients Will Need To Pre-Register In Advance On-Line At Https://Www.Cvs.Com/Minuteclinic/Covid-19-Testing In Order To Schedule A Slot To Be Tested. When Patients Arrive At The Test Site, They Are Required Stay In Their Vehicle. Team Members On Site Will Check Their Registration And Direct Them Through The Testing Process. For The Safety Of Patients And Health Care Providers On Site, Testing Is Limited To Drive-Thru Testing Only. For More Information About Test Site Locations, Hours Of Operations, And How To Register For A Test, Please Visit Https://Www.Cvs.Com/Minuteclinic/Covid-19-Testing.	-	-	Cvs Health Covid-19 Drive Thru Testing Site - By Appointment Only	-	Massachusetts	Https://Www.Cvs.Com/Minuteclinic/Covid-19-Testing	-	02154		
Showcase Cinemas, 32 Reiss Ave, Lowell, Ma 01851	Lowell	Middlesex	-	Drive-Thru	9 Am - 5 Pm	-	Testing Is By Appointment Only. You Can Sign Up On Their Website To Schedule A Same-Day Slot For Testing At Https://Www.Cvs.Com/Minuteclinic/Covid-19-Testing. Patients Must Be 18 Years Or Older And Testing Is For Massachussets State Residents Only. When You Go To Testing: Bring Proof Of Identity And In-State Residence, As Well As Your Test Confirmation Email Or Text Message. Be Sure To Have Your Mobile Phone In Case The Provider Needs To Reach You. When You Arrive, Stay In Your Car. They Will Check Your Paperwork And Walk You Through The Test.	-	-	Cvs Health Covid-19 Testing Site – By Appointment Only	-	Massachusetts	Https://Www.Cvs.Com/Minuteclinic/Covid-19-Testing	-	01851	42.62	-71.34
111 Grossman Dr, Braintree, Ma 02184	Braintree	Norfolk	-	Drive-Thru	-	-	Call Your Primary Care Physician If You Are Experiencing Symptoms Of Shortness Of Breath, Fever Or Dry Cough Or Have Been Exposed To Someone With Covid-19.  If Your Symptoms Meet The Criteria For Testing, Your Physician Will Give You A Referral. The Drive-Through Testing Is Only For Atrius Patients Who Have Already Phoned, Been Evaluated And Given An Appointment.	-	-	Atrius Health: Braintree Site	-	Massachusetts	Https://Www.Wbur.Org/Commonhealth/2020/03/17/Drive-Through-Coronavirus-Tests-Boston	-	02184	42.2	-71.01
922 Highland Avenue Needham, Ma 02494	Needham	Norfolk	-	Urgent Care	8Am-8Pm, Monday-Sunday; Check Website For Updates.	No	This Facility Follows Guidelines For Testing Based On The Centers For Disease Control And Prevention (Cdc) And The Massachusetts Department Of Public Health. They Advise To Call Your Provider, Or Their Urgent Care Facility For Evaluation Of Your Symptoms. From There, They Work With Both Commercial And State Labs To Facilitate The Testing.	-	-	Carewell Urgent Care-Needham	(781) 400-1383	Massachusetts	Https://Www.Carewellurgentcare.Com/Covid-19-Response-At-Carewell/	No	02494	42.3	-71.22
370 Pulaski Boulevard Bellingham, Ma 02019	Bellingham	Norfolk	-	Drive-Thru	See Website For Available Appointment Times	-	Rapid Covid-19 Testing Will Be Available To Eligible Individuals Who Meet Criteria Established By The Centers For Disease Control And Prevention, In Addition To State Residency And Age Guidelines (Must Be 18 Or Older). Patients Will Need To Pre-Register In Advance On-Line At Https://Www.Cvs.Com/Minuteclinic/Covid-19-Testing In Order To Schedule A Slot To Be Tested. When Patients Arrive At The Test Site, They Are Required Stay In Their Vehicle. Team Members On Site Will Check Their Registration And Direct Them Through The Testing Process. For The Safety Of Patients And Health Care Providers On Site, Testing Is Limited To Drive-Thru Testing Only. For More Information About Test Site Locations, Hours Of Operations, And How To Register For A Test, Please Visit Https://Www.Cvs.Com/Minuteclinic/Covid-19-Testing.	-	-	Cvs Health Covid-19 Drive Thru Testing Site - By Appointment Only	-	Massachusetts	Https://Www.Cvs.Com/Minuteclinic/Covid-19-Testing	-	02019	42.08	-71.47
480 North Franklin Street, Holbrook, Ma 02343	Holbrook	Norfolk	-	Drive-Thru	See Website For Available Appointment Times	-	Rapid Covid-19 Testing Will Be Available To Eligible Individuals Who Meet Criteria Established By The Centers For Disease Control And Prevention, In Addition To State Residency And Age Guidelines (Must Be 18 Or Older). Patients Will Need To Pre-Register In Advance On-Line At Https://Www.Cvs.Com/Minuteclinic/Covid-19-Testing In Order To Schedule A Slot To Be Tested. When Patients Arrive At The Test Site, They Are Required Stay In Their Vehicle. Team Members On Site Will Check Their Registration And Direct Them Through The Testing Process. For The Safety Of Patients And Health Care Providers On Site, Testing Is Limited To Drive-Thru Testing Only. For More Information About Test Site Locations, Hours Of Operations, And How To Register For A Test, Please Visit Https://Www.Cvs.Com/Minuteclinic/Covid-19-Testing.	-	-	Cvs Health Covid-19 Drive Thru Testing Site - By Appointment Only	-	Massachusetts	Https://Www.Cvs.Com/Minuteclinic/Covid-19-Testing	-	02343	42.14	-71.01
842 South Franklin Street, Holbrook, Ma 02343	Holbrook	Norfolk	-	Drive-Thru	See Website For Available Appointment Times	-	Rapid Covid-19 Testing Will Be Available To Eligible Individuals Who Meet Criteria Established By The Centers For Disease Control And Prevention, In Addition To State Residency And Age Guidelines (Must Be 18 Or Older). Patients Will Need To Pre-Register In Advance On-Line At Https://Www.Cvs.Com/Minuteclinic/Covid-19-Testing In Order To Schedule A Slot To Be Tested. When Patients Arrive At The Test Site, They Are Required Stay In Their Vehicle. Team Members On Site Will Check Their Registration And Direct Them Through The Testing Process. For The Safety Of Patients And Health Care Providers On Site, Testing Is Limited To Drive-Thru Testing Only. For More Information About Test Site Locations, Hours Of Operations, And How To Register For A Test, Please Visit Https://Www.Cvs.Com/Minuteclinic/Covid-19-Testing.	-	-	Cvs Health Covid-19 Drive Thru Testing Site - By Appointment Only	-	Massachusetts	Https://Www.Cvs.Com/Minuteclinic/Covid-19-Testing	-	02343	42.14	-71.01
652 South Street, Wrentham, Ma 02093	Wrentham	Norfolk	-	Drive-Thru	See Website For Available Appointment Times	-	Rapid Covid-19 Testing Will Be Available To Eligible Individuals Who Meet Criteria Established By The Centers For Disease Control And Prevention, In Addition To State Residency And Age Guidelines (Must Be 18 Or Older). Patients Will Need To Pre-Register In Advance On-Line At Https://Www.Cvs.Com/Minuteclinic/Covid-19-Testing In Order To Schedule A Slot To Be Tested. When Patients Arrive At The Test Site, They Are Required Stay In Their Vehicle. Team Members On Site Will Check Their Registration And Direct Them Through The Testing Process. For The Safety Of Patients And Health Care Providers On Site, Testing Is Limited To Drive-Thru Testing Only. For More Information About Test Site Locations, Hours Of Operations, And How To Register For A Test, Please Visit Https://Www.Cvs.Com/Minuteclinic/Covid-19-Testing.	-	-	Cvs Health Covid-19 Drive Thru Testing Site - By Appointment Only	-	Massachusetts	Https://Www.Cvs.Com/Minuteclinic/Covid-19-Testing	-	02093	42.05	-71.37
42 Washington St. Norwell, Ma 02061	Norwell	Plymouth	-	Urgent Care	8Am-8Pm, Monday-Sunday; Check Website For Updates.	No	This Facility Follows Guidelines For Testing Based On The Centers For Disease Control And Prevention (Cdc) And The Massachusetts Department Of Public Health. They Advise To Call Your Provider, Or Their Urgent Care Facility For Evaluation Of Your Symptoms. From There, They Work With Both Commercial And State Labs To Facilitate The Testing.	-	-	Carewell Urgent Care-Norwell	(781) 421-3503	Massachusetts	Https://Www.Carewellurgentcare.Com/Covid-19-Response-At-Carewell/	No	02061	42.15	-70.82
9-19 Summer Street, Bridgewater, Ma 02324	Bridgewater	Plymouth	-	Drive-Thru	See Website For Available Appointment Times	-	Rapid Covid-19 Testing Will Be Available To Eligible Individuals Who Meet Criteria Established By The Centers For Disease Control And Prevention, In Addition To State Residency And Age Guidelines (Must Be 18 Or Older). Patients Will Need To Pre-Register In Advance On-Line At Https://Www.Cvs.Com/Minuteclinic/Covid-19-Testing In Order To Schedule A Slot To Be Tested. When Patients Arrive At The Test Site, They Are Required Stay In Their Vehicle. Team Members On Site Will Check Their Registration And Direct Them Through The Testing Process. For The Safety Of Patients And Health Care Providers On Site, Testing Is Limited To Drive-Thru Testing Only. For More Information About Test Site Locations, Hours Of Operations, And How To Register For A Test, Please Visit Https://Www.Cvs.Com/Minuteclinic/Covid-19-Testing.	-	-	Cvs Health Covid-19 Testing Site – By Appointment Only	-	Massachusetts	Https://Www.Cvs.Com/Minuteclinic/Covid-19-Testing	-	02324	41.97	-70.98
100D North Main Street, Carver, Ma 02330	Carver	Plymouth	-	Drive-Thru	See Website For Available Appointment Times	-	Rapid Covid-19 Testing Will Be Available To Eligible Individuals Who Meet Criteria Established By The Centers For Disease Control And Prevention, In Addition To State Residency And Age Guidelines (Must Be 18 Or Older). Patients Will Need To Pre-Register In Advance On-Line At Https://Www.Cvs.Com/Minuteclinic/Covid-19-Testing In Order To Schedule A Slot To Be Tested. When Patients Arrive At The Test Site, They Are Required Stay In Their Vehicle. Team Members On Site Will Check Their Registration And Direct Them Through The Testing Process. For The Safety Of Patients And Health Care Providers On Site, Testing Is Limited To Drive-Thru Testing Only. For More Information About Test Site Locations, Hours Of Operations, And How To Register For A Test, Please Visit Https://Www.Cvs.Com/Minuteclinic/Covid-19-Testing.	-	-	Cvs Health Covid-19 Testing Site – By Appointment Only	-	Massachusetts	Https://Www.Cvs.Com/Minuteclinic/Covid-19-Testing	-	02330	41.9	-70.8
4 Jersey St, Boston, Ma 02215	Boston	Suffolk	-	Drive-Thru	Call To Confirm	-	To Be Tested For Covid-19 At This Facility, You Must Have A Doctor'S Referral	-	-	Atrius Health: Parking Garage Near Fenway Park	(617) 421-2933	Massachusetts	-	-	02215	42.34	-71.1
1010 Revere Beach Parkway, Chelsea, Ma 02150	Chelsea	Suffolk	-	Drive-Thru	See Website For Available Appointment Times	-	Rapid Covid-19 Testing Will Be Available To Eligible Individuals Who Meet Criteria Established By The Centers For Disease Control And Prevention, In Addition To State Residency And Age Guidelines (Must Be 18 Or Older). Patients Will Need To Pre-Register In Advance On-Line At Https://Www.Cvs.Com/Minuteclinic/Covid-19-Testing In Order To Schedule A Slot To Be Tested. When Patients Arrive At The Test Site, They Are Required Stay In Their Vehicle. Team Members On Site Will Check Their Registration And Direct Them Through The Testing Process. For The Safety Of Patients And Health Care Providers On Site, Testing Is Limited To Drive-Thru Testing Only. For More Information About Test Site Locations, Hours Of Operations, And How To Register For A Test, Please Visit Https://Www.Cvs.Com/Minuteclinic/Covid-19-Testing.	-	-	Cvs Health Covid-19 Drive Thru Testing Site - By Appointment Only	-	Massachusetts	Https://Www.Cvs.Com/Minuteclinic/Covid-19-Testing	-	02150	42.4	-71.03
55 Fruit Street, Boston, Ma 02114	Boston	Suffolk	-	Hospital	Open 24Hrs	-	To Be Tested For Covid-19 At This Facility, You Must Have A Doctor'S Referral.	-	-	Massachusetts General Hospital	(617) 726-2000	Massachusetts	Https://Www.Bostonglobe.Com/2020/03/17/Metro/Coronavirus-Testing-Transparency-Ramp-Up-Still-Lag-Recommended-Levels/	-	02114	42.363	-71.066
525 William F Mcclellan Hwy, Boston, Ma 02128	Boston	Suffolk	-	Drive-Thru	-	-	First Responders (Emts, Fire Fighters, And Police Officers) Only Are Being Tested At This Site. To Make An Appointment, Patients Must Meet The Requirements For Symptoms Outlined By The State.	-	-	Suffolk Downs	-	Massachusetts	Https://Www.Wbur.Org/Commonhealth/2020/03/27/First-Responders-Testing-Covid-19-Suffolk-Downs	-	02128	42.37	-71.02
380 John Fitch Highway Fitchburg, Ma 01420	Fitchburg	Worcester	-	Urgent Care	8Am-8Pm, Monday-Sunday; Check Website For Updates.	No	This Facility Follows Guidelines For Testing Based On The Centers For Disease Control And Prevention (Cdc) And The Massachusetts Department Of Public Health. They Advise To Call Your Provider, Or Their Urgent Care Facility For Evaluation Of Your Symptoms. From There, They Work With Both Commercial And State Labs To Facilitate The Testing.	-	-	Carewell Urgent Care- Fichburg	(978) 696-3547	Massachusetts	Https://Www.Carewellurgentcare.Com/Covid-19-Response-At-Carewell/	No	01420	42.59	-71.81
333 Southwest Cutoff Northborough, Ma 01532	Northborough	Worcester	-	Urgent Care	8Am-8Pm, Monday-Sunday; Check Website For Updates.	No	This Facility Follows Guidelines For Testing Based On The Centers For Disease Control And Prevention (Cdc) And The Massachusetts Department Of Public Health. They Advise To Call Your Provider, Or Their Urgent Care Facility For Evaluation Of Your Symptoms. From There, They Work With Both Commercial And State Labs To Facilitate The Testing.	-	-	Carewell Urgent Care-Northborough	(508) 466-8677	Massachusetts	Https://Www.Carewellurgentcare.Com/Covid-19-Response-At-Carewell/	No	01532	42.32	-71.63
348 Greenwood Street Worcester, Ma 01607	Worcester	Worcester	-	Urgent Care	8Am-8Pm, Monday-Sunday; Check Website For Updates.	No	This Facility Follows Guidelines For Testing Based On The Centers For Disease Control And Prevention (Cdc) And The Massachusetts Department Of Public Health. They Advise To Call Your Provider, Or Their Urgent Care Facility For Evaluation Of Your Symptoms. From There, They Work With Both Commercial And State Labs To Facilitate The Testing.	-	-	Carewell Urgent Care-Worcester Greenwood St	(774) 420-2103	Massachusetts	Https://Www.Carewellurgentcare.Com/Covid-19-Response-At-Carewell/	No	01607	42.23	-71.79
481 Lincoln Street Worcester, Ma 01601	Worcester	Worcester	-	Drive-Thru	See Website For Available Appointment Times	-	Rapid Covid-19 Testing Will Be Available To Eligible Individuals Who Meet Criteria Established By The Centers For Disease Control And Prevention, In Addition To State Residency And Age Guidelines (Must Be 18 Or Older). Patients Will Need To Pre-Register In Advance On-Line At Https://Www.Cvs.Com/Minuteclinic/Covid-19-Testing In Order To Schedule A Slot To Be Tested. When Patients Arrive At The Test Site, They Are Required Stay In Their Vehicle. Team Members On Site Will Check Their Registration And Direct Them Through The Testing Process. For The Safety Of Patients And Health Care Providers On Site, Testing Is Limited To Drive-Thru Testing Only. For More Information About Test Site Locations, Hours Of Operations, And How To Register For A Test, Please Visit Https://Www.Cvs.Com/Minuteclinic/Covid-19-Testing.	-	-	Cvs Health Covid-19 Drive Thru Testing Site - By Appointment Only	-	Massachusetts	Https://Www.Cvs.Com/Minuteclinic/Covid-19-Testing	-	01601		
246 Mill Street	Leominster	Worcester	-	Drive-Thru	See Website For Available Appointment Times	-	Rapid Covid-19 Testing Will Be Available To Eligible Individuals Who Meet Criteria Established By The Centers For Disease Control And Prevention, In Addition To State Residency And Age Guidelines (Must Be 18 Or Older). Patients Will Need To Pre-Register In Advance On-Line At Https://Www.Cvs.Com/Minuteclinic/Covid-19-Testing In Order To Schedule A Slot To Be Tested. When Patients Arrive At The Test Site, They Are Required Stay In Their Vehicle. Team Members On Site Will Check Their Registration And Direct Them Through The Testing Process. For The Safety Of Patients And Health Care Providers On Site, Testing Is Limited To Drive-Thru Testing Only. For More Information About Test Site Locations, Hours Of Operations, And How To Register For A Test, Please Visit Https://Www.Cvs.Com/Minuteclinic/Covid-19-Testing.	-	-	Cvs Health Covid-19 Drive Thru Testing Site - By Appointment Only	-	Massachusetts	Https://Www.Cvs.Com/Minuteclinic/Covid-19-Testing	-	01453	42.52	-71.77
301 Central Street, Winchendon, Ma 01475	Winchendon	Worcester	-	Drive-Thru	See Website For Available Appointment Times	-	Rapid Covid-19 Testing Will Be Available To Eligible Individuals Who Meet Criteria Established By The Centers For Disease Control And Prevention, In Addition To State Residency And Age Guidelines (Must Be 18 Or Older). Patients Will Need To Pre-Register In Advance On-Line At Https://Www.Cvs.Com/Minuteclinic/Covid-19-Testing In Order To Schedule A Slot To Be Tested. When Patients Arrive At The Test Site, They Are Required Stay In Their Vehicle. Team Members On Site Will Check Their Registration And Direct Them Through The Testing Process. For The Safety Of Patients And Health Care Providers On Site, Testing Is Limited To Drive-Thru Testing Only. For More Information About Test Site Locations, Hours Of Operations, And How To Register For A Test, Please Visit Https://Www.Cvs.Com/Minuteclinic/Covid-19-Testing.	-	-	Cvs Health Covid-19 Drive Thru Testing Site - By Appointment Only	-	Massachusetts	Https://Www.Cvs.Com/Minuteclinic/Covid-19-Testing	-	01475	42.66	-72.05
720 Boston Turnpike Road, Shrewsbury, Ma 01545	Shrewsbury	Worcester	-	Drive-Thru	See Website For Available Appointment Times	-	Rapid Covid-19 Testing Will Be Available To Eligible Individuals Who Meet Criteria Established By The Centers For Disease Control And Prevention, In Addition To State Residency And Age Guidelines (Must Be 18 Or Older). Patients Will Need To Pre-Register In Advance On-Line At Https://Www.Cvs.Com/Minuteclinic/Covid-19-Testing In Order To Schedule A Slot To Be Tested. When Patients Arrive At The Test Site, They Are Required Stay In Their Vehicle. Team Members On Site Will Check Their Registration And Direct Them Through The Testing Process. For The Safety Of Patients And Health Care Providers On Site, Testing Is Limited To Drive-Thru Testing Only. For More Information About Test Site Locations, Hours Of Operations, And How To Register For A Test, Please Visit Https://Www.Cvs.Com/Minuteclinic/Covid-19-Testing.	-	-	Cvs Health Covid-19 Drive Thru Testing Site - By Appointment Only	-	Massachusetts	Https://Www.Cvs.Com/Minuteclinic/Covid-19-Testing	-	01545	42.29	-71.71
142 Worcester Road, Charlton, Ma 01507	Charlton	Worcester	-	Drive-Thru	See Website For Available Appointment Times	-	Rapid Covid-19 Testing Will Be Available To Eligible Individuals Who Meet Criteria Established By The Centers For Disease Control And Prevention, In Addition To State Residency And Age Guidelines (Must Be 18 Or Older). Patients Will Need To Pre-Register In Advance On-Line At Https://Www.Cvs.Com/Minuteclinic/Covid-19-Testing In Order To Schedule A Slot To Be Tested. When Patients Arrive At The Test Site, They Are Required Stay In Their Vehicle. Team Members On Site Will Check Their Registration And Direct Them Through The Testing Process. For The Safety Of Patients And Health Care Providers On Site, Testing Is Limited To Drive-Thru Testing Only. For More Information About Test Site Locations, Hours Of Operations, And How To Register For A Test, Please Visit Https://Www.Cvs.Com/Minuteclinic/Covid-19-Testing.	-	-	Cvs Health Covid-19 Testing Site – By Appointment Only	-	Massachusetts	Https://Www.Cvs.Com/Minuteclinic/Covid-19-Testing	-	01507	42.13	-71.97
44 West Boylston Street, Worcester, 01608	Worcester	Worcester	-	Drive-Thru	See Website For Available Appointment Times	-	Rapid Covid-19 Testing Will Be Available To Eligible Individuals Who Meet Criteria Established By The Centers For Disease Control And Prevention, In Addition To State Residency And Age Guidelines (Must Be 18 Or Older). Patients Will Need To Pre-Register In Advance On-Line At Https://Www.Cvs.Com/Minuteclinic/Covid-19-Testing In Order To Schedule A Slot To Be Tested. When Patients Arrive At The Test Site, They Are Required Stay In Their Vehicle. Team Members On Site Will Check Their Registration And Direct Them Through The Testing Process. For The Safety Of Patients And Health Care Providers On Site, Testing Is Limited To Drive-Thru Testing Only. For More Information About Test Site Locations, Hours Of Operations, And How To Register For A Test, Please Visit Https://Www.Cvs.Com/Minuteclinic/Covid-19-Testing.	-	-	Cvs Health Covid-19 Testing Site – By Appointment Only	-	Massachusetts	Https://Www.Cvs.Com/Minuteclinic/Covid-19-Testing	-	01608	42.26	-71.8
720 Boston Turnpike, Shrewsbury, Ma 01545	Shrewsbury	Worcester	-	Drive-Thru	Call To Confirm	-	At This Time, Testing Is Limited And Only For First Responders And Medical Professionals.	-	-	Cvs Pharmacy Shrewsbury	(508) 845-6009	Massachusetts	Https://Boston.Cbslocal.Com/2020/03/18/Coronavirus-Drive-Thru-Testing-Shrewsbury-Cvs/	-	01545	42.29	-71.71
123 Summer St, Worcester, Ma 01608	Worcester	Worcester	-	Drive-Thru	Call To Confirm	-	To Be Tested For Covid-19 At This Facility, You Must Be Pre-Screened And Referred By A Physician.	-	-	Saint Vincent Hospital	(508) 363-5000	Massachusetts	Https://Www.Masslive.Com/Coronavirus/2020/03/Coronavirus-Testing-Locations-Drive-Thru-Testing-Has-Begun-In-Massachusetts-But-Many-Require-Appointments-Prescription-From-Doctor.Html	-	01608	42.26	-71.8
55 Lake Avenue North, Worcester, Ma 01655; Umass Medical School Parking Garage	Worcester	Worcester	-	Drive-Thru	8 Am - 5Pm Monday - Friday	-	The Drive-Thru Testing Is Available To Pre-Screened Patients Who Have Reported Their Symptoms To A Umass Healthcare Provider And Have Been Referred To Testing. Contact Your Umass Healthcare Provider To Be Screened.	-	-	Umass Medical Center, University Campus	(508) 334-1000	Massachusetts	Https://Www.Telegram.Com/News/20200318/Drive-Thru-Coronavirus-Testing-At-Umass-Memorial-Has-Light-Volume-On-First-Day	-	01655		
