address	city	county	dateAvailable	facilityType	hours	instructions	lat	lng	name	phone	state	url	zip	zipCodeLat	zipCodeLng
1600 E. Broadway, Columbia, Mo 65201; Lot 1 By The Emergency Room	Columbia	Boone	-	Drive-Thru	Call To Confirm	Tests Require A Referral From A Physician.	-	-	Boone Hospital	(573) 815-8000	Missouri	Https://Www.Columbiamissourian.Com/News/Covid19/Boone-Hospital-Opens-Covid--Drive-Thru-Test-Collection-Site/Article_35B2708E-693C-11Ea-B7Cd-Bb2C8E9Dbb7C.Html	65201	38.9	-92.2
800 Hospital Dr, Columbia, Mo 65201	Columbia	Boone	-	Hospital	24 Hours	Tests Require A Referral From A Physician.	-	-	Harry S. Truman Memorial Veterans' Hospital (Va)	(573) 814-6000	Missouri	Https://Health.Mo.Gov/Living/Healthcondiseases/Communicable/Novel-Coronavirus/Mobile-Testing.Php	65201	38.9	-92.2
1 Hospital Dr, Columbia, Mo 65201	Columbia	Boone	-	Drive-Thru	7 Am - 7 Pm Daily	Tests Require A Referral From A Physician. To Be Assessed, Contact Your Primary Care Provider Or Go To Www.Muhealthvideovisits.Org And Choose The “Covid-19 Video Visit” . This Video Visit Assessment Is Free.	-	-	Mu Health	(573) 882-4141	Missouri	Https://Www.Muhealth.Org/Our-Stories/How-Do-I-Get-Tested-Covid-19?Utm_Source=Website&Utm_Medium=Homepage	65201	38.9	-92.2
202 E Nifong Blvd, Columbia, Missouri 65203	Columbia	Boone	-	Drive-Thru	9 Am - 8 Pm, Every Day	Please Stay In Your Car Until A Healthcare Professional Approaches You. To Be Tested For Covid-19 At This Site, You Must Display Symptoms Such As Dry Cough, Fever, Or Difficulty Breathing.	-	-	Providence Urgent Care: Columbia, Mo (Nifong Blvd.)	573-874-6824	Missouri	Https://Nextcare.Com/Curbside/	65203	38.9	-92.4
54 Hospital Dr Suite 111, Osage Beach, Mo 65065	Osage Beach	Camden	-	Hospital	Call To Confirm	If You Have Developed Symptoms Such As Fever, Cough, And/Or Difficulty Breathing, And Have Been In Close Contact With A Person Known To Have Covid-19, You May Be Tested At This Location. Please Call (573) 348-8000 To Set Up An Appointment.	-	-	Lake Regional Health System	(573) 348-8000	Missouri	Https://Www.Lakeregional.Com/	65065	38.14	-92.66
 211 St Francis Dr, Cape Girardeau, Mo 63703	Cape Girardeau	Cape Girardeau	-	Hospital	9 Am - 5 Pm	If You Have Developed Symptoms Such As Fever, Cough, And/Or Difficulty Breathing, And Have Been In Close Contact With A Person Known To Have Covid-19, You May Be Tested At This Location.	-	-	Saint Francis Medical Center	(573) 331-4200	Missouri	Https://Health.Mo.Gov/Living/Healthcondiseases/Communicable/Novel-Coronavirus/Mobile-Testing.Php	63703	37.28	-89.54
1215 West Foxwood Drive Raymore, Mo 64083	Raymore	Cass	-	Drive-Thru	See Website For Available Appointment Times	Rapid Covid-19 Testing Will Be Available To Eligible Individuals Who Meet Criteria Established By The Centers For Disease Control And Prevention, In Addition To State Residency And Age Guidelines (Must Be 18 Or Older). Patients Will Need To Pre-Register In Advance On-Line At Https://Www.Cvs.Com/Minuteclinic/Covid-19-Testing In Order To Schedule A Slot To Be Tested. When Patients Arrive At The Test Site, They Are Required Stay In Their Vehicle. Team Members On Site Will Check Their Registration And Direct Them Through The Testing Process. For The Safety Of Patients And Health Care Providers On Site, Testing Is Limited To Drive-Thru Testing Only. For More Information About Test Site Locations, Hours Of Operations, And How To Register For A Test, Please Visit Https://Www.Cvs.Com/Minuteclinic/Covid-19-Testing.	-	-	Cvs Health Covid-19 Drive Thru Testing Site - By Appointment Only	-	Missouri	Https://Www.Cvs.Com/Minuteclinic/Covid-19-Testing	64083	38.79	-94.45
2741 Ne Mcbaine Dr, Lee'S Summit, Mo 64064	Lee's Summit	Cass	-	Hospital	8 Am - 8 Pm, Every Day	If You Have Developed Symptoms Such As Fever, Cough, And/Or Difficulty Breathing, And Have Been In Close Contact With A Person Known To Have Covid-19, You May Be Tested At This Location. Please Call (816) 554-2600 To Set Up Your Appointment.	-	-	Nextcare Urgent Care	(816) 554-2600	Missouri	Https://Nextcare.Com/Locations/Mo/Nextcare-Urgent-Care-Clinic-Lee-Summit-Missouri/?Utm_Source=Googlemaps&Utm_Medium=Local&Utm_Campaign=Lees_Summit	64064	38.99	-94.32
4990 Northeast Vivion Road Kansas City, Mo 64119	Kansas City	Clay	-	Drive-Thru	See Website For Available Appointment Times	Rapid Covid-19 Testing Will Be Available To Eligible Individuals Who Meet Criteria Established By The Centers For Disease Control And Prevention, In Addition To State Residency And Age Guidelines (Must Be 18 Or Older). Patients Will Need To Pre-Register In Advance On-Line At Https://Www.Cvs.Com/Minuteclinic/Covid-19-Testing In Order To Schedule A Slot To Be Tested. When Patients Arrive At The Test Site, They Are Required Stay In Their Vehicle. Team Members On Site Will Check Their Registration And Direct Them Through The Testing Process. For The Safety Of Patients And Health Care Providers On Site, Testing Is Limited To Drive-Thru Testing Only. For More Information About Test Site Locations, Hours Of Operations, And How To Register For A Test, Please Visit Https://Www.Cvs.Com/Minuteclinic/Covid-19-Testing.	-	-	Cvs Health Covid-19 Drive Thru Testing Site - By Appointment Only	-	Missouri	Https://Www.Cvs.Com/Minuteclinic/Covid-19-Testing	64119	39.21	-94.51
4149 North Oak Trafficway Kansas City, Mo 64116	Kansas City	Clay	-	Drive-Thru	See Website For Available Appointment Times	Rapid Covid-19 Testing Will Be Available To Eligible Individuals Who Meet Criteria Established By The Centers For Disease Control And Prevention, In Addition To State Residency And Age Guidelines (Must Be 18 Or Older). Patients Will Need To Pre-Register In Advance On-Line At Https://Www.Cvs.Com/Minuteclinic/Covid-19-Testing In Order To Schedule A Slot To Be Tested. When Patients Arrive At The Test Site, They Are Required Stay In Their Vehicle. Team Members On Site Will Check Their Registration And Direct Them Through The Testing Process. For The Safety Of Patients And Health Care Providers On Site, Testing Is Limited To Drive-Thru Testing Only. For More Information About Test Site Locations, Hours Of Operations, And How To Register For A Test, Please Visit Https://Www.Cvs.Com/Minuteclinic/Covid-19-Testing.	-	-	Cvs Health Covid-19 Drive Thru Testing Site - By Appointment Only	-	Missouri	Https://Www.Cvs.Com/Minuteclinic/Covid-19-Testing	64116	39.15	-94.57
1860 N Church Rd, Liberty, Mo 64068	Liberty	Clay	-	Drive-Thru	8 Am - 8 Pm Monday - Friday; 9 Am - 4 Pm Saturday - Sunday	If You Have Developed Symptoms Such As Fever, Cough, And/Or Difficulty Breathing, And Have Been In Close Contact With A Person Known To Have Covid-19, You May Be Tested At This Location. Please Call (816) 415-2828 To Set Up Your Appointment.	-	-	Next Care Urgent Care	(816) 415-2828	Missouri	Https://Nextcare.Com/Locations/Mo/Nextcare-Urgent-Care-Clinic-Liberty-Missouri/?Utm_Source=Googlemaps&Utm_Medium=Local&Utm_Campaign=Liberty	64068	39.3	-94.4
1600 E Evergreen St, Cameron, Mo 64429	Cameron	Clinton	-	Hospital	24 Hours	If You Have Developed Symptoms Such As Fever, Cough, And/Or Difficulty Breathing, And Have Been In Close Contact With A Person Known To Have Covid-19, You May Be Tested At This Location.	-	-	Cameron Regional Medical Center	(816) 632-2101	Missouri	Https://Health.Mo.Gov/Living/Healthcondiseases/Communicable/Novel-Coronavirus/Mobile-Testing.Php	64429	39.7	-94.2
1125 Madison St, Jefferson City, Mo 65101	Jefferson City	Cole	-	Hospital	Call To Confirm	If You Have Developed Symptoms Such As Fever, Cough, And/Or Difficulty Breathing, And Have Been In Close Contact With A Person Known To Have Covid-19, You May Be Tested At This Location.	-	-	Capital Region Medical Center	(833) 763-0444	Missouri	Https://Health.Mo.Gov/Living/Healthcondiseases/Communicable/Novel-Coronavirus/Mobile-Testing.Php	65101	38.5	-92.1
101 Chestnut St, Jefferson City, Mo 65101	Jefferson City	Cole	-	Laboratory	Call To Confirm	The Missouri Health Labratory Will Only Be Testing First Responders And Health Care Officials. Please Call To Schedule An Appointment For Testing.	-	-	Missouri Health Laboratory	(573) 751-3334	Missouri	-	65101	38.5	-92.1
2120 Osage Street West Pacific, Mo 63069	Pacific	Franklin	-	Drive-Thru	See Website For Available Appointment Times	Rapid Covid-19 Testing Will Be Available To Eligible Individuals Who Meet Criteria Established By The Centers For Disease Control And Prevention, In Addition To State Residency And Age Guidelines (Must Be 18 Or Older). Patients Will Need To Pre-Register In Advance On-Line At Https://Www.Cvs.Com/Minuteclinic/Covid-19-Testing In Order To Schedule A Slot To Be Tested. When Patients Arrive At The Test Site, They Are Required Stay In Their Vehicle. Team Members On Site Will Check Their Registration And Direct Them Through The Testing Process. For The Safety Of Patients And Health Care Providers On Site, Testing Is Limited To Drive-Thru Testing Only. For More Information About Test Site Locations, Hours Of Operations, And How To Register For A Test, Please Visit Https://Www.Cvs.Com/Minuteclinic/Covid-19-Testing.	-	-	Cvs Health Covid-19 Drive Thru Testing Site - By Appointment Only	-	Missouri	Https://Www.Cvs.Com/Minuteclinic/Covid-19-Testing	63069	38.5	-90.7
509 W 18Th St, Hermann, Mo 65041	Hermann	Gasconade	-	Hospital	-	If You Have Developed Symptoms Such As Fever, Cough, And/Or Difficulty Breathing, And Have Been In Close Contact With A Person Known To Have Covid-19, Call (573) 569-5049 To Be Tested At This Facility.	-	-	Hermann Area District Hospital	(573) 569-5049	Missouri	Https://Www.Hadh.Org/	65041	38.7	-91.4
2715 E. Battlefield St Springfield, Mo 65804	Springfield	Greene	-	Drive-Thru	See Website For Available Appointment Times	Rapid Covid-19 Testing Will Be Available To Eligible Individuals Who Meet Criteria Established By The Centers For Disease Control And Prevention, In Addition To State Residency And Age Guidelines (Must Be 18 Or Older). Patients Will Need To Pre-Register In Advance On-Line At Https://Www.Cvs.Com/Minuteclinic/Covid-19-Testing In Order To Schedule A Slot To Be Tested. When Patients Arrive At The Test Site, They Are Required Stay In Their Vehicle. Team Members On Site Will Check Their Registration And Direct Them Through The Testing Process. For The Safety Of Patients And Health Care Providers On Site, Testing Is Limited To Drive-Thru Testing Only. For More Information About Test Site Locations, Hours Of Operations, And How To Register For A Test, Please Visit Https://Www.Cvs.Com/Minuteclinic/Covid-19-Testing.	-	-	Cvs Health Covid-19 Drive Thru Testing Site - By Appointment Only	-	Missouri	Https://Www.Cvs.Com/Minuteclinic/Covid-19-Testing	65804	37.15	-93.25
1220 E Republic Street Springfield, Mo 65807	Springfield	Greene	-	Drive-Thru	See Website For Available Appointment Times	Rapid Covid-19 Testing Will Be Available To Eligible Individuals Who Meet Criteria Established By The Centers For Disease Control And Prevention, In Addition To State Residency And Age Guidelines (Must Be 18 Or Older). Patients Will Need To Pre-Register In Advance On-Line At Https://Www.Cvs.Com/Minuteclinic/Covid-19-Testing In Order To Schedule A Slot To Be Tested. When Patients Arrive At The Test Site, They Are Required Stay In Their Vehicle. Team Members On Site Will Check Their Registration And Direct Them Through The Testing Process. For The Safety Of Patients And Health Care Providers On Site, Testing Is Limited To Drive-Thru Testing Only. For More Information About Test Site Locations, Hours Of Operations, And How To Register For A Test, Please Visit Https://Www.Cvs.Com/Minuteclinic/Covid-19-Testing.	-	-	Cvs Health Covid-19 Drive Thru Testing Site - By Appointment Only	-	Missouri	Https://Www.Cvs.Com/Minuteclinic/Covid-19-Testing	65807	37.17	-93.33
1153 East Elm Street Springfield, Mo 65806	Springfield	Greene	-	Drive-Thru	See Website For Available Appointment Times	Rapid Covid-19 Testing Will Be Available To Eligible Individuals Who Meet Criteria Established By The Centers For Disease Control And Prevention, In Addition To State Residency And Age Guidelines (Must Be 18 Or Older). Patients Will Need To Pre-Register In Advance On-Line At Https://Www.Cvs.Com/Minuteclinic/Covid-19-Testing In Order To Schedule A Slot To Be Tested. When Patients Arrive At The Test Site, They Are Required Stay In Their Vehicle. Team Members On Site Will Check Their Registration And Direct Them Through The Testing Process. For The Safety Of Patients And Health Care Providers On Site, Testing Is Limited To Drive-Thru Testing Only. For More Information About Test Site Locations, Hours Of Operations, And How To Register For A Test, Please Visit Https://Www.Cvs.Com/Minuteclinic/Covid-19-Testing.	-	-	Cvs Health Covid-19 Drive Thru Testing Site - By Appointment Only	-	Missouri	Https://Www.Cvs.Com/Minuteclinic/Covid-19-Testing	65806	37.21	-93.3
1235 E Cherokee St, Springfield, Mo 65804	Springfield	Greene	-	Hospital	24 Hours	If You Have Developed Symptoms Such As Fever, Cough, And/Or Difficulty Breathing, And Have Been In Close Contact With A Person Known To Have Covid-19, Please Call Mercy’S Clinical Support Line At (314)-251-0500 To Be Screened. If Instructed, You May Visit The Drive-Thru Testing Site.	-	-	Mercy Hospital Springfield	(417) 885-2000	Missouri	Https://Health.Mo.Gov/Living/Healthcondiseases/Communicable/Novel-Coronavirus/Mobile-Testing.Php	65804	37.15	-93.25
3801 S National Ave, Springfield, Mo 65807	Springfield	Greene	-	Hospital	24 Hours	To Qualify For Covid-19 Testing, You Must Have A Doctor'S Referral.	-	-	South Cox Hospital - West Pavilion	(417) 269-6000	Missouri	Https://Health.Mo.Gov/Living/Healthcondiseases/Communicable/Novel-Coronavirus/Mobile-Testing.Php	65807	37.17	-93.33
227 E Chestnut Expy, Springfield, Mo 65802	Springfield	Greene	-	Drive-Thru	Call To Confirm	"
To Qualify For Covid-19 Testing At This Location, You Must Have A Doctor'S Referral."	-	-	The Springfield-Greene County Health Department Testing Site	(417) 864-1658	Missouri	Https://Www.Mercy.Net/Service/Covid-19/	65802	37.2	-93.3
3351 Sw 3Rd Street Lees Summit, Mo 64081	Lees Summit	Jackson	-	Drive-Thru	See Website For Available Appointment Times	Rapid Covid-19 Testing Will Be Available To Eligible Individuals Who Meet Criteria Established By The Centers For Disease Control And Prevention, In Addition To State Residency And Age Guidelines (Must Be 18 Or Older). Patients Will Need To Pre-Register In Advance On-Line At Https://Www.Cvs.Com/Minuteclinic/Covid-19-Testing In Order To Schedule A Slot To Be Tested. When Patients Arrive At The Test Site, They Are Required Stay In Their Vehicle. Team Members On Site Will Check Their Registration And Direct Them Through The Testing Process. For The Safety Of Patients And Health Care Providers On Site, Testing Is Limited To Drive-Thru Testing Only. For More Information About Test Site Locations, Hours Of Operations, And How To Register For A Test, Please Visit Https://Www.Cvs.Com/Minuteclinic/Covid-19-Testing.	-	-	Cvs Health Covid-19 Drive Thru Testing Site - By Appointment Only	-	Missouri	Https://Www.Cvs.Com/Minuteclinic/Covid-19-Testing	64081	38.91	-94.39
13101 State Line Road Kansas City, Mo 64145	Kansas City	Jackson	-	Drive-Thru	See Website For Available Appointment Times	Rapid Covid-19 Testing Will Be Available To Eligible Individuals Who Meet Criteria Established By The Centers For Disease Control And Prevention, In Addition To State Residency And Age Guidelines (Must Be 18 Or Older). Patients Will Need To Pre-Register In Advance On-Line At Https://Www.Cvs.Com/Minuteclinic/Covid-19-Testing In Order To Schedule A Slot To Be Tested. When Patients Arrive At The Test Site, They Are Required Stay In Their Vehicle. Team Members On Site Will Check Their Registration And Direct Them Through The Testing Process. For The Safety Of Patients And Health Care Providers On Site, Testing Is Limited To Drive-Thru Testing Only. For More Information About Test Site Locations, Hours Of Operations, And How To Register For A Test, Please Visit Https://Www.Cvs.Com/Minuteclinic/Covid-19-Testing.	-	-	Cvs Health Covid-19 Drive Thru Testing Site - By Appointment Only	-	Missouri	Https://Www.Cvs.Com/Minuteclinic/Covid-19-Testing	64145	38.88	-94.59
17301 East Us 24 Highway Independence, Mo 64056	Independence	Jackson	-	Drive-Thru	See Website For Available Appointment Times	Rapid Covid-19 Testing Will Be Available To Eligible Individuals Who Meet Criteria Established By The Centers For Disease Control And Prevention, In Addition To State Residency And Age Guidelines (Must Be 18 Or Older). Patients Will Need To Pre-Register In Advance On-Line At Https://Www.Cvs.Com/Minuteclinic/Covid-19-Testing In Order To Schedule A Slot To Be Tested. When Patients Arrive At The Test Site, They Are Required Stay In Their Vehicle. Team Members On Site Will Check Their Registration And Direct Them Through The Testing Process. For The Safety Of Patients And Health Care Providers On Site, Testing Is Limited To Drive-Thru Testing Only. For More Information About Test Site Locations, Hours Of Operations, And How To Register For A Test, Please Visit Https://Www.Cvs.Com/Minuteclinic/Covid-19-Testing.	-	-	Cvs Health Covid-19 Drive Thru Testing Site - By Appointment Only	-	Missouri	Https://Www.Cvs.Com/Minuteclinic/Covid-19-Testing	64056	39.11	-94.31
3201 South 7 Highway Blue Springs, Mo 64014	Blue Springs	Jackson	-	Drive-Thru	See Website For Available Appointment Times	Rapid Covid-19 Testing Will Be Available To Eligible Individuals Who Meet Criteria Established By The Centers For Disease Control And Prevention, In Addition To State Residency And Age Guidelines (Must Be 18 Or Older). Patients Will Need To Pre-Register In Advance On-Line At Https://Www.Cvs.Com/Minuteclinic/Covid-19-Testing In Order To Schedule A Slot To Be Tested. When Patients Arrive At The Test Site, They Are Required Stay In Their Vehicle. Team Members On Site Will Check Their Registration And Direct Them Through The Testing Process. For The Safety Of Patients And Health Care Providers On Site, Testing Is Limited To Drive-Thru Testing Only. For More Information About Test Site Locations, Hours Of Operations, And How To Register For A Test, Please Visit Https://Www.Cvs.Com/Minuteclinic/Covid-19-Testing.	-	-	Cvs Health Covid-19 Drive Thru Testing Site - By Appointment Only	-	Missouri	Https://Www.Cvs.Com/Minuteclinic/Covid-19-Testing	64014	39.01	-94.25
1545 East 23Rd Street South Independence, Mo 64055	Independence	Jackson	-	Drive-Thru	See Website For Available Appointment Times	Rapid Covid-19 Testing Will Be Available To Eligible Individuals Who Meet Criteria Established By The Centers For Disease Control And Prevention, In Addition To State Residency And Age Guidelines (Must Be 18 Or Older). Patients Will Need To Pre-Register In Advance On-Line At Https://Www.Cvs.Com/Minuteclinic/Covid-19-Testing In Order To Schedule A Slot To Be Tested. When Patients Arrive At The Test Site, They Are Required Stay In Their Vehicle. Team Members On Site Will Check Their Registration And Direct Them Through The Testing Process. For The Safety Of Patients And Health Care Providers On Site, Testing Is Limited To Drive-Thru Testing Only. For More Information About Test Site Locations, Hours Of Operations, And How To Register For A Test, Please Visit Https://Www.Cvs.Com/Minuteclinic/Covid-19-Testing.	-	-	Cvs Health Covid-19 Drive Thru Testing Site - By Appointment Only	-	Missouri	Https://Www.Cvs.Com/Minuteclinic/Covid-19-Testing	64055	39.05	-94.41
5310 Blueridge Boulevard Raytown, Mo 64133	Raytown	Jackson	-	Drive-Thru	See Website For Available Appointment Times	Rapid Covid-19 Testing Will Be Available To Eligible Individuals Who Meet Criteria Established By The Centers For Disease Control And Prevention, In Addition To State Residency And Age Guidelines (Must Be 18 Or Older). Patients Will Need To Pre-Register In Advance On-Line At Https://Www.Cvs.Com/Minuteclinic/Covid-19-Testing In Order To Schedule A Slot To Be Tested. When Patients Arrive At The Test Site, They Are Required Stay In Their Vehicle. Team Members On Site Will Check Their Registration And Direct Them Through The Testing Process. For The Safety Of Patients And Health Care Providers On Site, Testing Is Limited To Drive-Thru Testing Only. For More Information About Test Site Locations, Hours Of Operations, And How To Register For A Test, Please Visit Https://Www.Cvs.Com/Minuteclinic/Covid-19-Testing.	-	-	Cvs Health Covid-19 Drive Thru Testing Site - By Appointment Only	-	Missouri	Https://Www.Cvs.Com/Minuteclinic/Covid-19-Testing	64133	39.02	-94.47
4750 Lees Summit Road Kansas City, Mo 64136	Kansas City	Jackson	-	Drive-Thru	See Website For Available Appointment Times	Rapid Covid-19 Testing Will Be Available To Eligible Individuals Who Meet Criteria Established By The Centers For Disease Control And Prevention, In Addition To State Residency And Age Guidelines (Must Be 18 Or Older). Patients Will Need To Pre-Register In Advance On-Line At Https://Www.Cvs.Com/Minuteclinic/Covid-19-Testing In Order To Schedule A Slot To Be Tested. When Patients Arrive At The Test Site, They Are Required Stay In Their Vehicle. Team Members On Site Will Check Their Registration And Direct Them Through The Testing Process. For The Safety Of Patients And Health Care Providers On Site, Testing Is Limited To Drive-Thru Testing Only. For More Information About Test Site Locations, Hours Of Operations, And How To Register For A Test, Please Visit Https://Www.Cvs.Com/Minuteclinic/Covid-19-Testing.	-	-	Cvs Health Covid-19 Drive Thru Testing Site - By Appointment Only	-	Missouri	Https://Www.Cvs.Com/Minuteclinic/Covid-19-Testing	64136	39.01	-94.4
1315 West 23Rd Street Independence, Mo 64052	Independence	Jackson	-	Drive-Thru	See Website For Available Appointment Times	Rapid Covid-19 Testing Will Be Available To Eligible Individuals Who Meet Criteria Established By The Centers For Disease Control And Prevention, In Addition To State Residency And Age Guidelines (Must Be 18 Or Older). Patients Will Need To Pre-Register In Advance On-Line At Https://Www.Cvs.Com/Minuteclinic/Covid-19-Testing In Order To Schedule A Slot To Be Tested. When Patients Arrive At The Test Site, They Are Required Stay In Their Vehicle. Team Members On Site Will Check Their Registration And Direct Them Through The Testing Process. For The Safety Of Patients And Health Care Providers On Site, Testing Is Limited To Drive-Thru Testing Only. For More Information About Test Site Locations, Hours Of Operations, And How To Register For A Test, Please Visit Https://Www.Cvs.Com/Minuteclinic/Covid-19-Testing.	-	-	Cvs Health Covid-19 Drive Thru Testing Site - By Appointment Only	-	Missouri	Https://Www.Cvs.Com/Minuteclinic/Covid-19-Testing	64052	39.07	-94.45
8144 Nw Prairie View Rd, Kansas City, Mo 64151	Kansas City	Jackson	-	Hospital	9 Am - 8 Pm Monday - Friday; 9 Am -  Pm Saturday; 10 Am - 5 Pm Sunday	If You Have Developed Symptoms Such As Fever, Cough, And/Or Difficulty Breathing, And Have Been In Close Contact With A Person Known To Have Covid-19, Please Fill Out The Telemedicine Form Online Through Https://Www.Firstpointurgentcare.Org/Telemedicine To Set Up Your Appointment.	-	-	First Point Urgent Care Mo	(816) 505-3669	Missouri	Https://Www.Firstpointurgentcare.Org/Telemedicine	64151	39.21	-94.63
10015 N Ambassador Dr, Kansas City, Missouri 64153	Kansas City	Jackson	-	Drive-Thru	8 Am - 8 Pm Daily	To Access Curbside Care For Covid-19 Screening, Please Contact The Clinic To Make An Appointment Prior To Visiting. You May Set Up An Appointment Online At Www.Nextcare.Com Or By Calling.	-	-	Next Care Urgent Care	(816) 595-4000	Missouri	Https://Nextcare.Com/Curbside/	64153	39.29	-94.74
2741 Ne Mcbaine Dr, Lee'S Summit, Missouri 64064	Lee's Summit	Jackson	-	Drive-Thru	8 Am - 8 Pm Daily	To Access Curbside Care For Covid-19 Screening, Please Contact The Clinic To Make An Appointment Prior To Visiting. You May Set Up An Appointment Online At Www.Nextcare.Com Or By Calling.	-	-	Next Care Urgent Care	(816) 554-2600	Missouri	Https://Nextcare.Com/Curbside/	64064	38.99	-94.32
4741 S Arrowhead Dr # B, Independence, Mo 64055	Independence	Jackson	-	Hospital	8:30 Am - 9 Pm, Every Day	If You Have Developed Symptoms Such As Fever, Cough, And/Or Difficulty Breathing, And Have Been In Close Contact With A Person Known To Have Covid-19, You May Be Tested At This Facility.	-	-	Urgent Care Of Kansas City	(816) 795-6000	Missouri	Http://Gotomyurgentcare.Com/	64055	39.05	-94.41
2120 Lone Star Drive	Arnold	Jefferson	-	Drive-Thru	See Website For Available Appointment Times	Rapid Covid-19 Testing Will Be Available To Eligible Individuals Who Meet Criteria Established By The Centers For Disease Control And Prevention, In Addition To State Residency And Age Guidelines (Must Be 18 Or Older). Patients Will Need To Pre-Register In Advance On-Line At Https://Www.Cvs.Com/Minuteclinic/Covid-19-Testing In Order To Schedule A Slot To Be Tested. When Patients Arrive At The Test Site, They Are Required Stay In Their Vehicle. Team Members On Site Will Check Their Registration And Direct Them Through The Testing Process. For The Safety Of Patients And Health Care Providers On Site, Testing Is Limited To Drive-Thru Testing Only. For More Information About Test Site Locations, Hours Of Operations, And How To Register For A Test, Please Visit Https://Www.Cvs.Com/Minuteclinic/Covid-19-Testing.	-	-	Cvs Health Covid-19 Drive Thru Testing Site - By Appointment Only	-	Missouri	Https://Www.Cvs.Com/Minuteclinic/Covid-19-Testing	63010	38.42	-90.4
 130 E Lockling Ave, Brookfield, Mo 64628	Brookfield	Linn	-	Hospital	Call To Confirm	If You Have Developed Symptoms Such As Fever, Cough, And/Or Difficulty Breathing, And Have Been In Close Contact With A Person Known To Have Covid-19, You May Be Tested At This Location.	-	-	Pershing Memorial Hospital	(660) 258-2222	Missouri	Http://Www.Phsmo.Org/	64628	39.8	-93.0
1301 Platte Falls Road Platte City, Mo 64079	Platte City	Platte	-	Drive-Thru	See Website For Available Appointment Times	Rapid Covid-19 Testing Will Be Available To Eligible Individuals Who Meet Criteria Established By The Centers For Disease Control And Prevention, In Addition To State Residency And Age Guidelines (Must Be 18 Or Older). Patients Will Need To Pre-Register In Advance On-Line At Https://Www.Cvs.Com/Minuteclinic/Covid-19-Testing In Order To Schedule A Slot To Be Tested. When Patients Arrive At The Test Site, They Are Required Stay In Their Vehicle. Team Members On Site Will Check Their Registration And Direct Them Through The Testing Process. For The Safety Of Patients And Health Care Providers On Site, Testing Is Limited To Drive-Thru Testing Only. For More Information About Test Site Locations, Hours Of Operations, And How To Register For A Test, Please Visit Https://Www.Cvs.Com/Minuteclinic/Covid-19-Testing.	-	-	Cvs Health Covid-19 Drive Thru Testing Site - By Appointment Only	-	Missouri	Https://Www.Cvs.Com/Minuteclinic/Covid-19-Testing	64079	39.4	-94.8
1500 N Oakland Ave, Bolivar, Mo 65613	Bolivar	Polk	Https://Health.Mo.Gov/Living/Healthcondiseases/Communicable/Novel-Coronavirus/Mobile-Testing.Php	Hospital	24 Hours	Tests Require A Referral From A Physician.	-	-	Citizens Memorial Hospital	(417) 328-6501	Missouri	-	65613	37.6	-93.4
1926 Oak St, Unionville, Mo 63565	Unionville	Putnam	Https://Health.Mo.Gov/Living/Healthcondiseases/Communicable/Novel-Coronavirus/Mobile-Testing.Php	Hospital	Call To Confirm	If You Have Developed Symptoms Such As Fever, Cough, And/Or Difficulty Breathing, And Have Been In Close Contact With A Person Known To Have Covid-19, You May Be Tested At This Location.	-	-	Putnam County Memorial Hospital	(660) 947-2411	Missouri	-	63565	40.5	-92.9
400 Mid Rivers Mall Road Saint Peters, Mo 63376	Saint Peters	Saint Charles	-	Drive-Thru	See Website For Available Appointment Times	Rapid Covid-19 Testing Will Be Available To Eligible Individuals Who Meet Criteria Established By The Centers For Disease Control And Prevention, In Addition To State Residency And Age Guidelines (Must Be 18 Or Older). Patients Will Need To Pre-Register In Advance On-Line At Https://Www.Cvs.Com/Minuteclinic/Covid-19-Testing In Order To Schedule A Slot To Be Tested. When Patients Arrive At The Test Site, They Are Required Stay In Their Vehicle. Team Members On Site Will Check Their Registration And Direct Them Through The Testing Process. For The Safety Of Patients And Health Care Providers On Site, Testing Is Limited To Drive-Thru Testing Only. For More Information About Test Site Locations, Hours Of Operations, And How To Register For A Test, Please Visit Https://Www.Cvs.Com/Minuteclinic/Covid-19-Testing.	-	-	Cvs Health Covid-19 Drive Thru Testing Site - By Appointment Only	-	Missouri	Https://Www.Cvs.Com/Minuteclinic/Covid-19-Testing	63376	38.8	-90.63
14400 Clayton Rd Ballwin, Mo 63011	Ballwin	Saint Louis	-	Drive-Thru	See Website For Available Appointment Times	Rapid Covid-19 Testing Will Be Available To Eligible Individuals Who Meet Criteria Established By The Centers For Disease Control And Prevention, In Addition To State Residency And Age Guidelines (Must Be 18 Or Older). Patients Will Need To Pre-Register In Advance On-Line At Https://Www.Cvs.Com/Minuteclinic/Covid-19-Testing In Order To Schedule A Slot To Be Tested. When Patients Arrive At The Test Site, They Are Required Stay In Their Vehicle. Team Members On Site Will Check Their Registration And Direct Them Through The Testing Process. For The Safety Of Patients And Health Care Providers On Site, Testing Is Limited To Drive-Thru Testing Only. For More Information About Test Site Locations, Hours Of Operations, And How To Register For A Test, Please Visit Https://Www.Cvs.Com/Minuteclinic/Covid-19-Testing.	-	-	Cvs Health Covid-19 Drive Thru Testing Site - By Appointment Only	-	Missouri	Https://Www.Cvs.Com/Minuteclinic/Covid-19-Testing	63011	38.61	-90.56
12380 St. Charles Rock Road Bridgeton, Mo 63044	Bridgeton	Saint Louis	-	Drive-Thru	See Website For Available Appointment Times	Rapid Covid-19 Testing Will Be Available To Eligible Individuals Who Meet Criteria Established By The Centers For Disease Control And Prevention, In Addition To State Residency And Age Guidelines (Must Be 18 Or Older). Patients Will Need To Pre-Register In Advance On-Line At Https://Www.Cvs.Com/Minuteclinic/Covid-19-Testing In Order To Schedule A Slot To Be Tested. When Patients Arrive At The Test Site, They Are Required Stay In Their Vehicle. Team Members On Site Will Check Their Registration And Direct Them Through The Testing Process. For The Safety Of Patients And Health Care Providers On Site, Testing Is Limited To Drive-Thru Testing Only. For More Information About Test Site Locations, Hours Of Operations, And How To Register For A Test, Please Visit Https://Www.Cvs.Com/Minuteclinic/Covid-19-Testing.	-	-	Cvs Health Covid-19 Drive Thru Testing Site - By Appointment Only	-	Missouri	Https://Www.Cvs.Com/Minuteclinic/Covid-19-Testing	63044	38.77	-90.42
10820 Manchester Road Kirkwood, Mo 63122	Kirkwood	Saint Louis	-	Drive-Thru	See Website For Available Appointment Times	Rapid Covid-19 Testing Will Be Available To Eligible Individuals Who Meet Criteria Established By The Centers For Disease Control And Prevention, In Addition To State Residency And Age Guidelines (Must Be 18 Or Older). Patients Will Need To Pre-Register In Advance On-Line At Https://Www.Cvs.Com/Minuteclinic/Covid-19-Testing In Order To Schedule A Slot To Be Tested. When Patients Arrive At The Test Site, They Are Required Stay In Their Vehicle. Team Members On Site Will Check Their Registration And Direct Them Through The Testing Process. For The Safety Of Patients And Health Care Providers On Site, Testing Is Limited To Drive-Thru Testing Only. For More Information About Test Site Locations, Hours Of Operations, And How To Register For A Test, Please Visit Https://Www.Cvs.Com/Minuteclinic/Covid-19-Testing.	-	-	Cvs Health Covid-19 Drive Thru Testing Site - By Appointment Only	-	Missouri	Https://Www.Cvs.Com/Minuteclinic/Covid-19-Testing	63122	38.58	-90.42
7320 Gravois Avenue St. Louis, Mo 63116	St. Louis	Saint Louis City	-	Drive-Thru	See Website For Available Appointment Times	Rapid Covid-19 Testing Will Be Available To Eligible Individuals Who Meet Criteria Established By The Centers For Disease Control And Prevention, In Addition To State Residency And Age Guidelines (Must Be 18 Or Older). Patients Will Need To Pre-Register In Advance On-Line At Https://Www.Cvs.Com/Minuteclinic/Covid-19-Testing In Order To Schedule A Slot To Be Tested. When Patients Arrive At The Test Site, They Are Required Stay In Their Vehicle. Team Members On Site Will Check Their Registration And Direct Them Through The Testing Process. For The Safety Of Patients And Health Care Providers On Site, Testing Is Limited To Drive-Thru Testing Only. For More Information About Test Site Locations, Hours Of Operations, And How To Register For A Test, Please Visit Https://Www.Cvs.Com/Minuteclinic/Covid-19-Testing.	-	-	Cvs Health Covid-19 Drive Thru Testing Site - By Appointment Only	-	Missouri	Https://Www.Cvs.Com/Minuteclinic/Covid-19-Testing	63116	38.58	-90.27
1860 N Church Rd, Liberty, Mo 64068	Liberty	Saline	Https://Www.Fitzgibbon.Org/	Drive-Thru	24 Hours	If You Have Developed Symptoms Such As Fever, Cough, And/Or Difficulty Breathing, And Have Been In Close Contact With A Person Known To Have Covid-19, You May Be Tested At This Facility. Please Pull Up To The Curbside Of The Emergency Department And Stay In Your Car Until A Healthcare Professional Comes To Your Window.	-	-	Fitzgibbon Hospital	(816) 415-2828	Missouri	-	64068	39.3	-94.4
3002 Highway K O'Fallon, Mo 63368	O'Fallon	St. Charles	-	Drive-Thru	See Website For Available Appointment Times	Rapid Covid-19 Testing Will Be Available To Eligible Individuals Who Meet Criteria Established By The Centers For Disease Control And Prevention, In Addition To State Residency And Age Guidelines (Must Be 18 Or Older). Patients Will Need To Pre-Register In Advance On-Line At Https://Www.Cvs.Com/Minuteclinic/Covid-19-Testing In Order To Schedule A Slot To Be Tested. When Patients Arrive At The Test Site, They Are Required Stay In Their Vehicle. Team Members On Site Will Check Their Registration And Direct Them Through The Testing Process. For The Safety Of Patients And Health Care Providers On Site, Testing Is Limited To Drive-Thru Testing Only. For More Information About Test Site Locations, Hours Of Operations, And How To Register For A Test, Please Visit Https://Www.Cvs.Com/Minuteclinic/Covid-19-Testing.	-	-	Cvs Health Covid-19 Drive Thru Testing Site - By Appointment Only	-	Missouri	Https://Www.Cvs.Com/Minuteclinic/Covid-19-Testing	63368	38.75	-90.73
9141 Olive Boulevard	Olivette	St. Louis	-	Drive-Thru	See Website For Available Appointment Times	Rapid Covid-19 Testing Will Be Available To Eligible Individuals Who Meet Criteria Established By The Centers For Disease Control And Prevention, In Addition To State Residency And Age Guidelines (Must Be 18 Or Older). Patients Will Need To Pre-Register In Advance On-Line At Https://Www.Cvs.Com/Minuteclinic/Covid-19-Testing In Order To Schedule A Slot To Be Tested. When Patients Arrive At The Test Site, They Are Required Stay In Their Vehicle. Team Members On Site Will Check Their Registration And Direct Them Through The Testing Process. For The Safety Of Patients And Health Care Providers On Site, Testing Is Limited To Drive-Thru Testing Only. For More Information About Test Site Locations, Hours Of Operations, And How To Register For A Test, Please Visit Https://Www.Cvs.Com/Minuteclinic/Covid-19-Testing.	-	-	Cvs Health Covid-19 Drive Thru Testing Site - By Appointment Only	-	Missouri	Https://Www.Cvs.Com/Minuteclinic/Covid-19-Testing	63132	38.68	-90.38
15740 S. Outer Forty Road, Chesterfield, Missouri	Chesterfield	St. Louis	Https://Health.Mo.Gov/Living/Healthcondiseases/Communicable/Novel-Coronavirus/Mobile-Testing.Php	Drive-Thru	Call To Confirm	If You Have Developed Symptoms Such As Fever, Cough, And/Or Difficulty Breathing, And Have Been In Close Contact With A Person Known To Have Covid-19, Please Call Mercy’S Clinical Support Line At (314)-251-0500 To Be Screened. If Instructed, You May Visit The Drive-Thru Testing Site.	-	-	Mercy Hospital	(314) 251-0500	Missouri	Https://Www.Mercy.Net/Service/Covid-19/?Utm_Source=Alert&Utm_Medium=Website&Utm_Campaign=Covid_19	63017	38.67	-90.53
10010 Kennerly Rd, St. Louis, Mo 63128	St. Louis	St. Louis	Https://Health.Mo.Gov/Living/Healthcondiseases/Communicable/Novel-Coronavirus/Mobile-Testing.Php	Hospital	Call To Confirm	If You Have Developed Symptoms Such As Fever, Cough, And/Or Difficulty Breathing, And Have Been In Close Contact With A Person Known To Have Covid-19, Please Call Mercy’S Clinical Support Line At (314)-251-0500 To Be Screened. If Instructed, You May Visit The Drive-Thru Testing Site.	-	-	Mercy Hospital South	(314) 525-1000	Missouri	-	63128	38.49	-90.38
232 S Woods Mill Rd, Chesterfield, Mo 63017	Chesterfield	St. Louis	Https://Health.Mo.Gov/Living/Healthcondiseases/Communicable/Novel-Coronavirus/Mobile-Testing.Php	Hospital	Call To Confirm	Tests Require A Referral From Your Doctor. Once You'Re Tested, Your Doctor Will Be Contacted With Information Regarding Next Steps.	-	-	Saint Luke’S Hospital	(816) 251-6100	Missouri	-	63017	38.67	-90.53
 100 Medical Plaza, Lake St Louis, Mo 63367	Lake St Louis	St. Louis	Https://Health.Mo.Gov/Living/Healthcondiseases/Communicable/Novel-Coronavirus/Mobile-Testing.Php	Hospital	Call To Confirm	If You Have Developed Symptoms Such As Fever, Cough, And/Or Difficulty Breathing, And Have Been In Close Contact With A Person Known To Have Covid-19, You May Be Tested At This Location.	-	-	Ssm St. Joseph Hospital-Lake St. Louis	(636) 625-5200	Missouri	-	63367	38.77	-90.79
915 N Grand Blvd, St. Louis, Mo 63106	St. Louis	St. Louis	Https://Health.Mo.Gov/Living/Healthcondiseases/Communicable/Novel-Coronavirus/Mobile-Testing.Php	Hospital	Call To Confirm	Tests Require A Referral From Your Doctor.	-	-	Va St. Louis Health Care System	(314) 652-4100	Missouri	-	63106	38.64	-90.21
630 W 3Rd St, Milan, Mo 63556	Milan	Sullivan	Https://Health.Mo.Gov/Living/Healthcondiseases/Communicable/Novel-Coronavirus/Mobile-Testing.Php	Hospital	24 Hours	Tests Require A Referral From Your Doctor.	-	-	Sullivan County Memorial Hospital	(314) 652-4100	Missouri	-	63556	40.2	-93.1
901 E Fifth St, Washington, Mo 63090	Washington	Washington	Https://Health.Mo.Gov/Living/Healthcondiseases/Communicable/Novel-Coronavirus/Mobile-Testing.Php	-	Call To Confirm	To Qualify For Covid-19 Testing, You Must Display Clear Symptoms Such As Fever, Dry Cough, Or Shortness Of Breath. If You Have Recently Travelled Internationally Or Have Been In Contact With People That Have Recently Travelled Internationally, Contact Your Primary Care Physician First And Follow Their Instructions.	-	-	Mercy Hospital Washington	(636) 239-8000	Missouri	-	63090	38.5	-91.0
